{"type": "FeatureCollection", "features": [{"type": "Feature", "properties": {"route_run_id": "stl_midamerica_to_st_louis_union_station_2026-01-12_0183", "route_pair": "midamerica_to_st_louis_union_station", "route_pair_label": "MidAmerica to St. Louis Union Station", "origin_label": "MidAmerica St. Louis Airport", "destination_label": "St. Louis Union Station", "origin_lat": 38.5451731, "origin_lon": -89.8351856, "destination_lat": 38.629167, "destination_lon": -90.2075, "traffic_date": "2026-01-12", "traffic_dataset": "January 12th - Monday", "weight_id": "w_0183", "distance_weight": 0.3, "population_weight": 0.2, "traffic_weight": 0.0, "airspace_weight": 0.5, "path_nodes": 68, "path_node_ids": [8877, 8881, 8904, 8922, 8923, 8927, 9145, 10016, 10018, 10062, 10055, 10058, 10094, 10096, 10103, 10104, 10110, 10109, 10291, 10512, 10290, 10513, 10298, 10295, 10296, 10297, 10307, 10305, 10306, 10319, 10321, 10320, 10318, 10211, 10210, 10208, 10209, 10326, 10328, 10329, 10327, 2522, 2524, 2523, 2514, 2517, 2515, 2516, 2530, 2534, 2532, 2558, 2840, 2839, 2838, 2827, 2849, 2848, 2850, 2837, 2859, 2858, 2860, 2763, 2762, 2737, 2732, 2715], "elapsed_seconds": 0.026848600013181567, "status": "success", "failure_reason": "", "route_distance_km": 48.66685213560263, "distance_cost_sum": 53.561018023900075, "population_cost_sum": 14.998679925723389, "traffic_cost_sum": 27.811527557792402, "airspace_cost_sum": 23.2, "total_weighted_score": 30.668041392314706, "clustering_method": "hierarchical_jaccard", "distance_method": "jaccard", "direct_cluster_number": 2, "hierarchical_jaccard_cluster": "hier_jaccard_002", "hierarchical_jaccard_cluster_source": "hier_jaccard_001", "representative_route_run_id": "stl_midamerica_to_st_louis_union_station_2026-01-12_0183", "representative_mean_frechet_miles": 1.2471791320093146, "cluster_size": 91, "cluster_weight_space_percent": 63.63636363636363, "merged_cluster_id": "frechet_merged_001", "source_jaccard_clusters": "hier_jaccard_002, hier_jaccard_005, hier_jaccard_008, hier_jaccard_012"}, "geometry": {"type": "LineString", "coordinates": [[-89.83272609742262, 38.54503213945896], [-89.83252853470323, 38.54953126729425], [-89.83806053424684, 38.55418543772932], [-89.84359324582596, 38.558839373542895], [-89.84912666962028, 38.563493074603095], [-89.85466080580946, 38.568146540778045], [-89.86019565457306, 38.572799771935806], [-89.86573121609086, 38.57745276794444], [-89.87126749054252, 38.58210552867199], [-89.8768044781077, 38.58675805398646], [-89.88234217896623, 38.591410343755804], [-89.8878805932977, 38.59606239784802], [-89.89341972128202, 38.600714216131045], [-89.89895956309883, 38.60536579847276], [-89.90450011892796, 38.61001714474108], [-89.91004138894921, 38.614668254803874], [-89.9155833733424, 38.61931912852895], [-89.92131862594731, 38.619470314708934], [-89.92705392153653, 38.61962122026898], [-89.93278926003055, 38.619771845202735], [-89.93852464134986, 38.619922189503846], [-89.9442600654149, 38.62007225316597], [-89.94999553214618, 38.62022203618278], [-89.95573104146416, 38.620371538547964], [-89.96146659328937, 38.6205207602552], [-89.96720218754218, 38.620669701298226], [-89.97293782414316, 38.62081836167072], [-89.97867350301271, 38.62096674136646], [-89.98440922407127, 38.621114840379136], [-89.99014498723932, 38.62126265870254], [-89.99588079243732, 38.621410196330416], [-90.00161663958568, 38.62155745325657], [-90.00735252860491, 38.621704429474754], [-90.01308845941536, 38.6218511249788], [-90.01882443193752, 38.62199753976251], [-90.0245604460918, 38.62214367381969], [-90.03029650179865, 38.62228952714421], [-90.03603259897847, 38.622435099729884], [-90.04176873755169, 38.622580391570615], [-90.04750491743872, 38.62272540266021], [-90.05324113855997, 38.6228701329926], [-90.0589774008359, 38.62301458256169], [-90.06471370418684, 38.62315875136136], [-90.07045004853325, 38.62330263938551], [-90.07618643379548, 38.623446246628106], [-90.08192285989396, 38.62358957308307], [-90.08765932674906, 38.623732618744384], [-90.09339583428118, 38.623875383605984], [-90.09895091075838, 38.62851804648185], [-90.10450670259345, 38.633160469873815], [-90.1102440470662, 38.63330243772981], [-90.11580095263906, 38.63794436326609], [-90.12135857394713, 38.64258604896054], [-90.12709675507955, 38.642727219229855], [-90.13283497637043, 38.64286810847808], [-90.13857323774008, 38.64300871669927], [-90.14431153910874, 38.643149043887504], [-90.15004988039681, 38.64328909003685], [-90.15578826152439, 38.64342885514139], [-90.16152668241186, 38.64356833919522], [-90.16726514297947, 38.64370754219247], [-90.17300364314747, 38.64384646412727], [-90.17874218283609, 38.64398510499372], [-90.18448076196563, 38.64412346478601], [-90.19021938045634, 38.644261543498274], [-90.19613354616266, 38.639898793950096], [-90.20204699586435, 38.63553571516044], [-90.20795972970198, 38.63117230726659]]}}, {"type": "Feature", "properties": {"route_run_id": "stl_midamerica_to_st_louis_union_station_2026-01-12_0241", "route_pair": "midamerica_to_st_louis_union_station", "route_pair_label": "MidAmerica to St. Louis Union Station", "origin_label": "MidAmerica St. Louis Airport", "destination_label": "St. Louis Union Station", "origin_lat": 38.5451731, "origin_lon": -89.8351856, "destination_lat": 38.629167, "destination_lon": -90.2075, "traffic_date": "2026-01-12", "traffic_dataset": "January 12th - Monday", "weight_id": "w_0241", "distance_weight": 0.5, "population_weight": 0.1, "traffic_weight": 0.3, "airspace_weight": 0.1, "path_nodes": 67, "path_node_ids": [8877, 8876, 8868, 8869, 8870, 8867, 9753, 9754, 9755, 9744, 9746, 9747, 9745, 9737, 9736, 9734, 9735, 9919, 9916, 9918, 9917, 9935, 9934, 9936, 9930, 9931, 9928, 9929, 9839, 9841, 9875, 9872, 9855, 9853, 9858, 9860, 9868, 9869, 9870, 9871, 2208, 1967, 1966, 1976, 1991, 1995, 1996, 2005, 2004, 2231, 2229, 2195, 2197, 2196, 2408, 2420, 2422, 2419, 2423, 2448, 2452, 2454, 2372, 2399, 2401, 2404, 2715], "elapsed_seconds": 0.01879550001467578, "status": "success", "failure_reason": "", "route_distance_km": 46.66387160530663, "distance_cost_sum": 51.35660841906718, "population_cost_sum": 20.319653051038678, "traffic_cost_sum": 15.556758571071406, "airspace_cost_sum": 38.0, "total_weighted_score": 36.17729708595888, "clustering_method": "hierarchical_jaccard", "distance_method": "jaccard", "direct_cluster_number": 4, "hierarchical_jaccard_cluster": "hier_jaccard_004", "hierarchical_jaccard_cluster_source": "hier_jaccard_004", "representative_route_run_id": "stl_midamerica_to_st_louis_union_station_2026-01-12_0241", "representative_mean_frechet_miles": 1.1661649007462527, "cluster_size": 44, "cluster_weight_space_percent": 30.76923076923077, "merged_cluster_id": "frechet_merged_002", "source_jaccard_clusters": "hier_jaccard_004, hier_jaccard_006"}, "geometry": {"type": "LineString", "coordinates": [[-89.83272609742262, 38.54503213945896], [-89.83845499191484, 38.54518713674757], [-89.84418393041321, 38.54534185422887], [-89.8499129128385, 38.54549629189633], [-89.85564193911159, 38.545650449743434], [-89.86137100915332, 38.54580432776372], [-89.86710012288452, 38.545957925950695], [-89.87282928022606, 38.546111244297876], [-89.8785584810987, 38.54626428279884], [-89.88428772542336, 38.54641704144712], [-89.8900170131208, 38.5465695202363], [-89.89574634411186, 38.54672171915994], [-89.90147571831739, 38.546873638211636], [-89.90720513565815, 38.54702527738502], [-89.91293459605497, 38.54717663667367], [-89.91866409942871, 38.54732771607122], [-89.92439364570006, 38.54747851557132], [-89.9301232347899, 38.54762903516762], [-89.93585286661902, 38.54777927485379], [-89.94158254110822, 38.54792923462347], [-89.94731225817821, 38.548078914470366], [-89.95304201774988, 38.54822831438818], [-89.95877181974393, 38.548377434370614], [-89.96450166408115, 38.54852627441138], [-89.97004253230493, 38.553174545580205], [-89.97577281723424, 38.553322849461594], [-89.9815031442792, 38.55347087333782], [-89.98723351336055, 38.553618617202645], [-89.99296392439905, 38.55376608104985], [-89.99869437731542, 38.55391326487322], [-90.00423794894596, 38.558560017293445], [-90.00996884166362, 38.55870666452776], [-90.0156997760314, 38.558853031674964], [-90.02143075196999, 38.55899911872885], [-90.02697623009712, 38.56364486372711], [-90.03252242109909, 38.56829037100109], [-90.03825423417913, 38.56843566425367], [-90.04398608853269, 38.568580677298876], [-90.0497179840804, 38.5687254101306], [-90.05544992074293, 38.56886986274273], [-90.06118189844089, 38.56901403512918], [-90.06691391709492, 38.56915792728389], [-90.07264597662567, 38.5693015392008], [-90.07837807695377, 38.569444870873845], [-90.08392816190404, 38.57408808294632], [-90.08947896024489, 38.57873105628777], [-90.09521189590866, 38.57887359282438], [-90.10094487207182, 38.57901584900345], [-90.10667788865496, 38.579157824818985], [-90.11223059237057, 38.583799786397456], [-90.11796404642338, 38.58394122410869], [-90.12369754066755, 38.5840823813937], [-90.12943107502363, 38.58422325824649], [-90.1351646494121, 38.58436385466116], [-90.14089826375356, 38.58450417063179], [-90.14645366632062, 38.589144603290876], [-90.15218771733517, 38.589284380730234], [-90.15792180807382, 38.58942387766302], [-90.16347871828971, 38.59406355405304], [-90.1690363428032, 38.598702990254786], [-90.17459468179258, 38.60334218613583], [-90.18015373543601, 38.6079811415637], [-90.18571350391167, 38.61261985640587], [-90.19127398739786, 38.61725833052981], [-90.19683518607279, 38.62189656380297], [-90.20239710011477, 38.62653455609276], [-90.20795972970198, 38.63117230726659]]}}, {"type": "Feature", "properties": {"route_run_id": "stl_midamerica_to_st_louis_union_station_2026-01-12_0255", "route_pair": "midamerica_to_st_louis_union_station", "route_pair_label": "MidAmerica to St. Louis Union Station", "origin_label": "MidAmerica St. Louis Airport", "destination_label": "St. Louis Union Station", "origin_lat": 38.5451731, "origin_lon": -89.8351856, "destination_lat": 38.629167, "destination_lon": -90.2075, "traffic_date": "2026-01-12", "traffic_dataset": "January 12th - Monday", "weight_id": "w_0255", "distance_weight": 0.6, "population_weight": 0.0, "traffic_weight": 0.2, "airspace_weight": 0.2, "path_nodes": 67, "path_node_ids": [8877, 8876, 8868, 8869, 8870, 8867, 9758, 9759, 9761, 9774, 9773, 9775, 9772, 9764, 9765, 9762, 9768, 9951, 9950, 9949, 9948, 9965, 9963, 9964, 9967, 9960, 9959, 9961, 9880, 9882, 9883, 9881, 9893, 9895, 9900, 9898, 9906, 9907, 9908, 9909, 2216, 2240, 2241, 2253, 2256, 2281, 2279, 2293, 2296, 2301, 2303, 2491, 2492, 2818, 2496, 2507, 2506, 2828, 2505, 2809, 2811, 2810, 2728, 2730, 2731, 2729, 2715], "elapsed_seconds": 0.014363700000103563, "status": "success", "failure_reason": "", "route_distance_km": 46.67359092793317, "distance_cost_sum": 51.367305162158964, "population_cost_sum": 26.264681865960355, "traffic_cost_sum": 19.475163454856055, "airspace_cost_sum": 26.6, "total_weighted_score": 40.0354157882666, "clustering_method": "hierarchical_jaccard", "distance_method": "jaccard", "direct_cluster_number": 14, "hierarchical_jaccard_cluster": "hier_jaccard_014", "hierarchical_jaccard_cluster_source": "hier_jaccard_013", "representative_route_run_id": "stl_midamerica_to_st_louis_union_station_2026-01-12_0255", "representative_mean_frechet_miles": 1.0964791954659028, "cluster_size": 5, "cluster_weight_space_percent": 3.4965034965034967, "merged_cluster_id": "frechet_merged_003", "source_jaccard_clusters": "hier_jaccard_014"}, "geometry": {"type": "LineString", "coordinates": [[-89.83272609742262, 38.54503213945896], [-89.83845499191484, 38.54518713674757], [-89.84418393041321, 38.54534185422887], [-89.8499129128385, 38.54549629189633], [-89.85564193911159, 38.545650449743434], [-89.86137100915332, 38.54580432776372], [-89.86690469568633, 38.55045720201035], [-89.87243909420232, 38.55510984121015], [-89.87816900708947, 38.55526292871994], [-89.88389896344961, 38.55541573628766], [-89.88962896320348, 38.555568263906835], [-89.89535900627187, 38.555720511571074], [-89.90108909257557, 38.55587247927394], [-89.90681922203537, 38.556024167009056], [-89.912549394572, 38.55617557477001], [-89.91827961010628, 38.556326702550436], [-89.92381791573482, 38.56097706131683], [-89.92954857324645, 38.561127653223565], [-89.9352792735283, 38.56127796508598], [-89.94101001650117, 38.561427996897756], [-89.94674080208566, 38.56157774865255], [-89.95247163020258, 38.56172722034409], [-89.95820250077269, 38.56187641196605], [-89.96393341371666, 38.56202532351216], [-89.96947522396242, 38.566673653295354], [-89.97520657779744, 38.56682202842242], [-89.98093797377864, 38.566970123410094], [-89.9866694118267, 38.56711793825213], [-89.99240089186227, 38.56726547294233], [-89.99813241380608, 38.56741272747445], [-90.00386397757877, 38.567559701842306], [-90.00959558310103, 38.56770639603968], [-90.01532723029354, 38.567852810060415], [-90.02087294036811, 38.5724988501429], [-90.02641936361486, 38.57714465251519], [-90.03215184854429, 38.577290272585465], [-90.03788437484658, 38.57743561236495], [-90.04361694244231, 38.577580671847514], [-90.0493495512521, 38.57772545102705], [-90.05508220119658, 38.57786994989744], [-90.0606313276152, 38.58251422880312], [-90.06618116766307, 38.58715826927005], [-90.07173172151896, 38.59180207116597], [-90.07728298936146, 38.59644563435857], [-90.0828349713693, 38.601088958715515], [-90.08838766772114, 38.60573204410446], [-90.0941227455516, 38.605874717602354], [-90.09967655430022, 38.61051730605643], [-90.10523107776994, 38.61515965518486], [-90.11078631613944, 38.61980176485522], [-90.11652262799952, 38.61994338379215], [-90.1220789793104, 38.62458499570804], [-90.12781572923257, 38.62472607564535], [-90.13337319363258, 38.629367189437694], [-90.13911038141684, 38.62950773017495], [-90.14484760917111, 38.62964799001386], [-90.15058487681573, 38.629787968948484], [-90.156322184271, 38.62992766697294], [-90.16205953145733, 38.63006708408134], [-90.16779691829495, 38.630206220267794], [-90.17353434470424, 38.6303450755264], [-90.17927181060547, 38.63048364985134], [-90.185009315919, 38.63062194323676], [-90.1907468605651, 38.6307599556768], [-90.1964844444641, 38.63089768716567], [-90.2022220675363, 38.63103513769752], [-90.20795972970198, 38.63117230726659]]}}, {"type": "Feature", "properties": {"route_run_id": "stl_midamerica_to_st_louis_union_station_2026-01-12_0198", "route_pair": "midamerica_to_st_louis_union_station", "route_pair_label": "MidAmerica to St. Louis Union Station", "origin_label": "MidAmerica St. Louis Airport", "destination_label": "St. Louis Union Station", "origin_lat": 38.5451731, "origin_lon": -89.8351856, "destination_lat": 38.629167, "destination_lon": -90.2075, "traffic_date": "2026-01-12", "traffic_dataset": "January 12th - Monday", "weight_id": "w_0198", "distance_weight": 0.3, "population_weight": 0.5, "traffic_weight": 0.0, "airspace_weight": 0.2, "path_nodes": 71, "path_node_ids": [8877, 8881, 8905, 8906, 8933, 8929, 9143, 9146, 9173, 10020, 10063, 10068, 10070, 10095, 10099, 10422, 10101, 10106, 10104, 10110, 10109, 10516, 10515, 10514, 10517, 10522, 10299, 10300, 10301, 10309, 10308, 10533, 10363, 10350, 10351, 10366, 10376, 10374, 10379, 10614, 10407, 10410, 10411, 10408, 2604, 2605, 2606, 2603, 10715, 10714, 10713, 10722, 2597, 10723, 2596, 2876, 2875, 2874, 2873, 2885, 2879, 2857, 2851, 2861, 2862, 2863, 2763, 2762, 2737, 2732, 2715], "elapsed_seconds": 0.025828200014075264, "status": "success", "failure_reason": "", "route_distance_km": 51.93172241795522, "distance_cost_sum": 57.15421890633103, "population_cost_sum": 10.48185737943066, "traffic_cost_sum": 26.68981908575578, "airspace_cost_sum": 26.6, "total_weighted_score": 27.707194361614643, "clustering_method": "hierarchical_jaccard", "distance_method": "jaccard", "direct_cluster_number": 16, "hierarchical_jaccard_cluster": "hier_jaccard_016", "hierarchical_jaccard_cluster_source": "hier_jaccard_016", "representative_route_run_id": "stl_midamerica_to_st_louis_union_station_2026-01-12_0198", "representative_mean_frechet_miles": 0.3126661332678431, "cluster_size": 3, "cluster_weight_space_percent": 2.097902097902098, "merged_cluster_id": "frechet_merged_004", "source_jaccard_clusters": "hier_jaccard_016"}, "geometry": {"type": "LineString", "coordinates": [[-89.83272609742262, 38.54503213945896], [-89.83252853470323, 38.54953126729425], [-89.83233092788802, 38.55403039080605], [-89.83786323937711, 38.55868458173916], [-89.83766590046945, 38.563183721427826], [-89.84319923632499, 38.56783769816219], [-89.84873328471264, 38.57249144006519], [-89.8542680458121, 38.5771449470049], [-89.85980351980317, 38.58179821884939], [-89.86533970686553, 38.58645125546666], [-89.87087660717904, 38.591104056724724], [-89.87641422092351, 38.59575662249155], [-89.88195254827868, 38.600408952635085], [-89.8874915894244, 38.605061047023284], [-89.88729702234833, 38.60956036516477], [-89.89283709113381, 38.614212243778354], [-89.89857181380691, 38.614364528005225], [-89.90430657977188, 38.61451653168253], [-89.91004138894921, 38.614668254803874], [-89.9155833733424, 38.61931912852895], [-89.92131862594731, 38.619470314708934], [-89.9268617252078, 38.624120695492145], [-89.93259742104341, 38.62427134452904], [-89.93833315971467, 38.6244217128885], [-89.94406894114202, 38.62457180056415], [-89.94980476524591, 38.62472160754967], [-89.95554063194687, 38.62487113383877], [-89.96127654116528, 38.62502037942509], [-89.96701249282155, 38.625169344302385], [-89.97274848683627, 38.62531802846435], [-89.97848452312972, 38.62546643190471], [-89.98403193705393, 38.63011426460664], [-89.98958006609531, 38.63476185964426], [-89.99531694389556, 38.63490946811138], [-90.00105386367663, 38.63505679574229], [-90.00660350731387, 38.63970363840778], [-90.01234086854143, 38.63985042783196], [-90.01807827152109, 38.63999693635645], [-90.02362942973669, 38.64464302594129], [-90.0291813036891, 38.64928887709267], [-90.03473389355781, 38.653934489678136], [-90.04028719952224, 38.658579863565194], [-90.04602624200047, 38.65872506038847], [-90.05176532579277, 38.658869976095644], [-90.05750445081951, 38.65901461068064], [-90.06324361700084, 38.65915896413734], [-90.06898282425709, 38.65930303645963], [-90.07472207250845, 38.65944682764147], [-90.08046136167522, 38.65959033767675], [-90.0862006916776, 38.659733566559446], [-90.09194006243584, 38.659876514283475], [-90.09767947387014, 38.66001918084284], [-90.10341892590075, 38.66016156623149], [-90.1091584184479, 38.66030367044341], [-90.11489795143179, 38.66044549347263], [-90.12063752477266, 38.66058703531315], [-90.1263771383907, 38.66072829595899], [-90.1321167922061, 38.660869275404174], [-90.13785648613919, 38.66100997364278], [-90.14359622011, 38.661150390668844], [-90.14951452542148, 38.65679017361872], [-90.15543211424334, 38.652429626431044], [-90.16134898671594, 38.648068749243166], [-90.16708780535298, 38.6482079745162], [-90.17282666359999, 38.64834691868183], [-90.17856556137721, 38.64848558173427], [-90.18448076196563, 38.64412346478601], [-90.19021938045634, 38.644261543498274], [-90.19613354616266, 38.639898793950096], [-90.20204699586435, 38.63553571516044], [-90.20795972970198, 38.63117230726659]]}}]}