{"type": "FeatureCollection", "features": [{"type": "Feature", "properties": {"route_run_id": "stl_midamerica_to_st_louis_lambert_2026-01-12_0147", "route_pair": "midamerica_to_st_louis_lambert", "route_pair_label": "MidAmerica to St. Louis Lambert", "origin_label": "MidAmerica St. Louis Airport", "destination_label": "St. Louis Lambert International Airport", "origin_lat": 38.5451731, "origin_lon": -89.8351856, "destination_lat": 38.7486982, "destination_lon": -90.3700257, "traffic_date": "2026-01-12", "traffic_dataset": "January 12th - Monday", "weight_id": "w_0147", "distance_weight": 0.2, "population_weight": 0.3, "traffic_weight": 0.1, "airspace_weight": 0.4, "path_nodes": 97, "path_node_ids": [8877, 8881, 8904, 8922, 8923, 8927, 9145, 10016, 10018, 10062, 10055, 10058, 10094, 10096, 10103, 10104, 10110, 10109, 10516, 10515, 10514, 10517, 10522, 10299, 10300, 10301, 10311, 10532, 10533, 10349, 10347, 10348, 10346, 10359, 10358, 10356, 10352, 10326, 10328, 10329, 10330, 2548, 2527, 2525, 2526, 2538, 2540, 2516, 2530, 2534, 2559, 2561, 2840, 2842, 2843, 2845, 2878, 2879, 2884, 2883, 2893, 4095, 4096, 3932, 3933, 3958, 3962, 3974, 3973, 3972, 3971, 3982, 4295, 3983, 4297, 4198, 4199, 4201, 4216, 4229, 4232, 4230, 4242, 4265, 4244, 4243, 5336, 5338, 5341, 5339, 5345, 5324, 5347, 5346, 5357, 5358, 5364], "elapsed_seconds": 0.05538090001209639, "status": "success", "failure_reason": "", "route_distance_km": 73.89841470417085, "distance_cost_sum": 81.32998433675507, "population_cost_sum": 20.623712753667085, "traffic_cost_sum": 35.02558922870262, "airspace_cost_sum": 48.8, "total_weighted_score": 45.47566961632142, "clustering_method": "hierarchical_jaccard", "distance_method": "jaccard", "direct_cluster_number": 2, "hierarchical_jaccard_cluster": "hier_jaccard_002", "hierarchical_jaccard_cluster_source": "hier_jaccard_002", "representative_route_run_id": "stl_midamerica_to_st_louis_lambert_2026-01-12_0147", "representative_mean_frechet_miles": 1.5181081532535625, "cluster_size": 34, "cluster_weight_space_percent": 22.516556291390728, "merged_cluster_id": "frechet_merged_001", "source_jaccard_clusters": "hier_jaccard_002"}, "geometry": {"type": "LineString", "coordinates": [[-89.83272609742262, 38.54503213945896], [-89.83252853470323, 38.54953126729425], [-89.83806053424684, 38.55418543772932], [-89.84359324582596, 38.558839373542895], [-89.84912666962028, 38.563493074603095], [-89.85466080580946, 38.568146540778045], [-89.86019565457306, 38.572799771935806], [-89.86573121609086, 38.57745276794444], [-89.87126749054252, 38.58210552867199], [-89.8768044781077, 38.58675805398646], [-89.88234217896623, 38.591410343755804], [-89.8878805932977, 38.59606239784802], [-89.89341972128202, 38.600714216131045], [-89.89895956309883, 38.60536579847276], [-89.90450011892796, 38.61001714474108], [-89.91004138894921, 38.614668254803874], [-89.9155833733424, 38.61931912852895], [-89.92131862594731, 38.619470314708934], [-89.9268617252078, 38.624120695492145], [-89.93259742104341, 38.62427134452904], [-89.93833315971467, 38.6244217128885], [-89.94406894114202, 38.62457180056415], [-89.94980476524591, 38.62472160754967], [-89.95554063194687, 38.62487113383877], [-89.96127654116528, 38.62502037942509], [-89.96701249282155, 38.625169344302385], [-89.97255910725055, 38.62981769100349], [-89.9782955010475, 38.62996611819141], [-89.98403193705393, 38.63011426460664], [-89.9897684151902, 38.630262130242976], [-89.99550493537676, 38.630409715094125], [-90.001241497534, 38.63055701915386], [-90.00697810158232, 38.630704042416006], [-90.01271474744215, 38.63085078487433], [-90.01845143503385, 38.63099724652267], [-90.02418816427785, 38.631143427354814], [-90.03011073918805, 38.62678942936717], [-90.03603259897847, 38.622435099729884], [-90.04176873755169, 38.622580391570615], [-90.04750491743872, 38.62272540266021], [-90.0530568061099, 38.627370128132036], [-90.0587934259509, 38.627514600818145], [-90.06453008687686, 38.627658792689985], [-90.07026678880817, 38.62780270374147], [-90.07600353166524, 38.62794633396657], [-90.08174031536842, 38.6280896833592], [-90.08747713983809, 38.62823275191331], [-90.09339583428118, 38.623875383605984], [-90.09895091075838, 38.62851804648185], [-90.10450670259345, 38.633160469873815], [-90.11006320996535, 38.6378026536494], [-90.11562043305292, 38.64244459767609], [-90.12135857394713, 38.64258604896054], [-90.12691691116937, 38.64722749468063], [-90.13265549047176, 38.64736840647394], [-90.13821494197643, 38.652009353518125], [-90.14395395948668, 38.652149725619736], [-90.14951452542148, 38.65679017361872], [-90.15507580784583, 38.66143038105964], [-90.16081566145125, 38.66156995441258], [-90.16637805865126, 38.66620966221335], [-90.17194117271791, 38.67084912909773], [-90.17750500383, 38.67548835493302], [-90.18306955216653, 38.68012733958649], [-90.18863481790633, 38.68476608292537], [-90.19420080122836, 38.68940458481685], [-90.19976750231159, 38.694042845128145], [-90.20533492133491, 38.69868086372641], [-90.2110779994899, 38.698818081237896], [-90.21682111672072, 38.69895501710115], [-90.22256427294727, 38.69909167131035], [-90.22830746808964, 38.699228043859776], [-90.23405070206775, 38.699364134743625], [-90.23979397480163, 38.69949994395616], [-90.24536450002277, 38.704136161482424], [-90.25110820919835, 38.70427142896936], [-90.25685195689897, 38.704406414722804], [-90.2624239960298, 38.709041869378396], [-90.26799675378774, 38.71367708117809], [-90.27357023035168, 38.71831204998893], [-90.27914442590036, 38.722946775677876], [-90.28488980273018, 38.72308043816236], [-90.29046511515969, 38.72771465998137], [-90.29604114694997, 38.73234863831933], [-90.30178735717278, 38.73248149743191], [-90.30753360525517, 38.73261407449003], [-90.31327989111702, 38.732746369488076], [-90.31902621467803, 38.73287838242046], [-90.32460455631471, 38.7375110734335], [-90.33035131489382, 38.737642543240376], [-90.33609811094065, 38.737773730919855], [-90.341844944375, 38.73790463646636], [-90.34759181511657, 38.738035259874366], [-90.35333872308522, 38.73816560113835], [-90.35908566820065, 38.73829566025279], [-90.36466711306467, 38.742926539503976], [-90.37024927800739, 38.74755717394432]]}}, {"type": "Feature", "properties": {"route_run_id": "stl_midamerica_to_st_louis_lambert_2026-01-12_0226", "route_pair": "midamerica_to_st_louis_lambert", "route_pair_label": "MidAmerica to St. Louis Lambert", "origin_label": "MidAmerica St. Louis Airport", "destination_label": "St. Louis Lambert International Airport", "origin_lat": 38.5451731, "origin_lon": -89.8351856, "destination_lat": 38.7486982, "destination_lon": -90.3700257, "traffic_date": "2026-01-12", "traffic_dataset": "January 12th - Monday", "weight_id": "w_0226", "distance_weight": 0.4, "population_weight": 0.4, "traffic_weight": 0.0, "airspace_weight": 0.2, "path_nodes": 98, "path_node_ids": [8877, 8881, 8904, 8922, 8923, 8927, 9145, 10016, 10018, 10062, 10055, 10058, 10094, 10096, 10103, 10104, 10110, 10109, 10516, 10515, 10514, 10517, 10522, 10299, 10300, 10301, 10309, 10308, 10533, 10363, 10350, 10351, 10366, 10376, 10374, 10379, 10614, 10407, 10410, 10411, 10408, 2604, 2605, 2606, 2603, 10715, 10714, 10713, 10722, 2597, 10723, 2596, 2876, 2875, 2874, 2873, 2885, 2886, 2884, 2883, 2890, 2891, 2895, 3904, 3925, 3926, 3931, 3951, 3954, 3953, 3966, 3944, 3977, 3976, 3941, 4043, 4066, 4067, 4068, 4185, 4187, 4186, 4076, 4075, 4082, 4084, 5080, 5084, 5310, 5311, 5337, 5320, 5322, 5323, 5346, 5357, 5358, 5364], "elapsed_seconds": 0.04567169997608289, "status": "success", "failure_reason": "", "route_distance_km": 73.20963090489165, "distance_cost_sum": 80.57193322251891, "population_cost_sum": 16.535156841253748, "traffic_cost_sum": 45.64101419932393, "airspace_cost_sum": 51.4, "total_weighted_score": 49.12283602550907, "clustering_method": "hierarchical_jaccard", "distance_method": "jaccard", "direct_cluster_number": 3, "hierarchical_jaccard_cluster": "hier_jaccard_003", "hierarchical_jaccard_cluster_source": "hier_jaccard_003", "representative_route_run_id": "stl_midamerica_to_st_louis_lambert_2026-01-12_0226", "representative_mean_frechet_miles": 0.9885660516744011, "cluster_size": 26, "cluster_weight_space_percent": 17.218543046357617, "merged_cluster_id": "frechet_merged_002", "source_jaccard_clusters": "hier_jaccard_003"}, "geometry": {"type": "LineString", "coordinates": [[-89.83272609742262, 38.54503213945896], [-89.83252853470323, 38.54953126729425], [-89.83806053424684, 38.55418543772932], [-89.84359324582596, 38.558839373542895], [-89.84912666962028, 38.563493074603095], [-89.85466080580946, 38.568146540778045], [-89.86019565457306, 38.572799771935806], [-89.86573121609086, 38.57745276794444], [-89.87126749054252, 38.58210552867199], [-89.8768044781077, 38.58675805398646], [-89.88234217896623, 38.591410343755804], [-89.8878805932977, 38.59606239784802], [-89.89341972128202, 38.600714216131045], [-89.89895956309883, 38.60536579847276], [-89.90450011892796, 38.61001714474108], [-89.91004138894921, 38.614668254803874], [-89.9155833733424, 38.61931912852895], [-89.92131862594731, 38.619470314708934], [-89.9268617252078, 38.624120695492145], [-89.93259742104341, 38.62427134452904], [-89.93833315971467, 38.6244217128885], [-89.94406894114202, 38.62457180056415], [-89.94980476524591, 38.62472160754967], [-89.95554063194687, 38.62487113383877], [-89.96127654116528, 38.62502037942509], [-89.96701249282155, 38.625169344302385], [-89.97274848683627, 38.62531802846435], [-89.97848452312972, 38.62546643190471], [-89.98403193705393, 38.63011426460664], [-89.98958006609531, 38.63476185964426], [-89.99531694389556, 38.63490946811138], [-90.00105386367663, 38.63505679574229], [-90.00660350731387, 38.63970363840778], [-90.01234086854143, 38.63985042783196], [-90.01807827152109, 38.63999693635645], [-90.02362942973669, 38.64464302594129], [-90.0291813036891, 38.64928887709267], [-90.03473389355781, 38.653934489678136], [-90.04028719952224, 38.658579863565194], [-90.04602624200047, 38.65872506038847], [-90.05176532579277, 38.658869976095644], [-90.05750445081951, 38.65901461068064], [-90.06324361700084, 38.65915896413734], [-90.06898282425709, 38.65930303645963], [-90.07472207250845, 38.65944682764147], [-90.08046136167522, 38.65959033767675], [-90.0862006916776, 38.659733566559446], [-90.09194006243584, 38.659876514283475], [-90.09767947387014, 38.66001918084284], [-90.10341892590075, 38.66016156623149], [-90.1091584184479, 38.66030367044341], [-90.11489795143179, 38.66044549347263], [-90.12063752477266, 38.66058703531315], [-90.1263771383907, 38.66072829595899], [-90.1321167922061, 38.660869275404174], [-90.13785648613919, 38.66100997364278], [-90.14359622011, 38.661150390668844], [-90.14933599403881, 38.66129052647644], [-90.15507580784583, 38.66143038105964], [-90.16081566145125, 38.66156995441258], [-90.16655555477524, 38.661709246529334], [-90.17229548773797, 38.66184825740402], [-90.17785868094164, 38.666487447153536], [-90.18342259105025, 38.67112639580074], [-90.1889872182426, 38.67576510321293], [-90.19472838451095, 38.67590305525546], [-90.2002941269196, 38.68054126191918], [-90.20586058678872, 38.68517922698935], [-90.21142776429718, 38.68981695033316], [-90.2171701635404, 38.68995384239636], [-90.2229126017605, 38.690090452895454], [-90.22865507887754, 38.69022678182468], [-90.23439759481155, 38.69036282917826], [-90.24014014948251, 38.69049859495047], [-90.24605541323987, 38.68613337677085], [-90.2517976862147, 38.68626855773688], [-90.25736804511756, 38.69090420272148], [-90.26311075393669, 38.69103884211091], [-90.26868222818311, 38.695673984376505], [-90.27425442059507, 38.700308883813186], [-90.27999796237877, 38.700442721166475], [-90.28574154227802, 38.70057627680287], [-90.29148516021279, 38.700709550716724], [-90.297228816103, 38.700842542902386], [-90.30280331580018, 38.70547615766316], [-90.30837853409372, 38.710109528957155], [-90.31395447116216, 38.71474265665128], [-90.31378588266769, 38.71924359100243], [-90.31936286061908, 38.72387649197406], [-90.32494055786266, 38.72850914903958], [-90.330518974577, 38.7331415620659], [-90.33626541075455, 38.733272728767844], [-90.3420118843105, 38.73340361338185], [-90.34775839516463, 38.73353421590239], [-90.35333872308522, 38.73816560113835], [-90.35908566820065, 38.73829566025279], [-90.36466711306467, 38.742926539503976], [-90.37024927800739, 38.74755717394432]]}}, {"type": "Feature", "properties": {"route_run_id": "stl_midamerica_to_st_louis_lambert_2026-01-12_0256", "route_pair": "midamerica_to_st_louis_lambert", "route_pair_label": "MidAmerica to St. Louis Lambert", "origin_label": "MidAmerica St. Louis Airport", "destination_label": "St. Louis Lambert International Airport", "origin_lat": 38.5451731, "origin_lon": -89.8351856, "destination_lat": 38.7486982, "destination_lon": -90.3700257, "traffic_date": "2026-01-12", "traffic_dataset": "January 12th - Monday", "weight_id": "w_0256", "distance_weight": 0.6, "population_weight": 0.0, "traffic_weight": 0.3, "airspace_weight": 0.1, "path_nodes": 96, "path_node_ids": [8877, 8879, 8896, 8900, 8924, 8930, 9788, 10013, 10014, 10036, 10052, 10054, 10061, 10051, 10049, 10048, 10050, 10253, 10252, 10241, 10240, 10249, 10275, 10277, 10293, 10304, 10305, 10306, 10319, 10321, 10320, 10318, 10355, 10358, 10356, 10357, 10336, 10335, 10337, 10334, 2551, 2550, 2552, 2549, 2544, 2578, 2582, 2565, 2589, 2592, 2596, 2899, 2902, 2904, 2905, 4116, 4122, 4123, 4121, 4102, 4103, 4127, 4129, 3961, 4286, 4285, 3974, 3973, 3972, 3971, 3982, 4295, 4299, 4301, 4202, 4203, 4204, 4216, 4226, 4227, 4230, 4242, 4265, 4268, 4271, 5368, 5367, 5370, 5369, 5353, 5352, 5375, 5354, 5363, 5362, 5364], "elapsed_seconds": 0.03509150000172667, "status": "success", "failure_reason": "", "route_distance_km": 71.92629819993202, "distance_cost_sum": 79.15954258855145, "population_cost_sum": 34.27496549757395, "traffic_cost_sum": 28.89366849937613, "airspace_cost_sum": 50.00000000000003, "total_weighted_score": 61.1638261029437, "clustering_method": "hierarchical_jaccard", "distance_method": "jaccard", "direct_cluster_number": 4, "hierarchical_jaccard_cluster": "hier_jaccard_004", "hierarchical_jaccard_cluster_source": "hier_jaccard_006", "representative_route_run_id": "stl_midamerica_to_st_louis_lambert_2026-01-12_0256", "representative_mean_frechet_miles": 2.225290707252739, "cluster_size": 25, "cluster_weight_space_percent": 16.556291390728475, "merged_cluster_id": "frechet_merged_003", "source_jaccard_clusters": "hier_jaccard_004"}, "geometry": {"type": "LineString", "coordinates": [[-89.83272609742262, 38.54503213945896], [-89.83825778508921, 38.54968628939868], [-89.84379018463301, 38.55434020475587], [-89.84932329623358, 38.558993885398685], [-89.85485712007056, 38.56364733119524], [-89.86039165632353, 38.56830054201366], [-89.86612255057987, 38.568454263192415], [-89.87165819944471, 38.57310698340007], [-89.87719456110594, 38.577759468272795], [-89.88273163574308, 38.582411717678575], [-89.88826942353593, 38.58706373148541], [-89.89380792466403, 38.591715509561276], [-89.89934713930707, 38.59636705177409], [-89.90508047722643, 38.59651895818466], [-89.91081385831642, 38.59667058421835], [-89.91654728249756, 38.596821929868824], [-89.92228074969049, 38.59697299512966], [-89.92801425981584, 38.59712377999449], [-89.93374781279411, 38.597274284457015], [-89.93948140854593, 38.5974245085108], [-89.94521504699188, 38.5975744521496], [-89.95075817398295, 38.60222370805987], [-89.95630201501413, 38.606872727099336], [-89.96184657026487, 38.611521509135784], [-89.96739183991471, 38.61617005403699], [-89.97312711918148, 38.61631869062297], [-89.97867350301271, 38.62096674136646], [-89.98440922407127, 38.621114840379136], [-89.99014498723932, 38.62126265870254], [-89.99588079243732, 38.621410196330416], [-90.00161663958568, 38.62155745325657], [-90.00735252860491, 38.621704429474754], [-90.01290162428964, 38.62635095704363], [-90.01845143503385, 38.63099724652267], [-90.02418816427785, 38.631143427354814], [-90.02992493509446, 38.631289327364605], [-90.03566174740413, 38.6314349465459], [-90.04139860112724, 38.63158028489256], [-90.04713549618415, 38.63172534239843], [-90.05287243249526, 38.6318701190574], [-90.05860940998092, 38.63201461486337], [-90.06434642856152, 38.63215882981023], [-90.07008348815737, 38.6323027638919], [-90.07582058868887, 38.63244641710234], [-90.08137510400799, 38.63708989131143], [-90.08693033494461, 38.641733126236325], [-90.09248628167781, 38.64637612174451], [-90.09822461877505, 38.64651871984398], [-90.10378168009319, 38.65116121753915], [-90.10933945758573, 38.65580347545955], [-90.11489795143179, 38.66044549347263], [-90.12045716181044, 38.66508727144578], [-90.12601708890082, 38.66972880924637], [-90.13175745945723, 38.66986983380672], [-90.13731850207547, 38.67451087252255], [-90.14288026178316, 38.67915167070749], [-90.14844273875943, 38.68379222822882], [-90.15418434521152, 38.68393219472245], [-90.1599259915103, 38.6840718797612], [-90.16566767757574, 38.684211283339124], [-90.17140940332797, 38.68435040545039], [-90.17697419182998, 38.68898968543255], [-90.18253969803584, 38.693628724113545], [-90.18828226010154, 38.69376704603371], [-90.19384888257228, 38.69840558378194], [-90.1995918823357, 38.69854336457249], [-90.20533492133491, 38.69868086372641], [-90.2110779994899, 38.698818081237896], [-90.21682111672072, 38.69895501710115], [-90.22256427294727, 38.69909167131035], [-90.22830746808964, 38.699228043859776], [-90.23405070206775, 38.699364134743625], [-90.23962082945226, 38.70400061226774], [-90.24519167522915, 38.70863684734796], [-90.25093574365499, 38.70877213647181], [-90.25667985061523, 38.70890714381719], [-90.26225221064061, 38.71354261590214], [-90.26799675378774, 38.71367708117809], [-90.27374133523836, 38.713811264613504], [-90.27931520948262, 38.71844597299539], [-90.28488980273018, 38.72308043816236], [-90.29046511515969, 38.72771465998137], [-90.29604114694997, 38.73234863831933], [-90.30161789827979, 38.73698237304315], [-90.30719536932796, 38.74161586401971], [-90.31277356027323, 38.74624911111586], [-90.31852096360088, 38.74638118739401], [-90.32426840457497, 38.74651298146582], [-90.3300158831152, 38.74664449332567], [-90.33576339914136, 38.74677572296801], [-90.34151095257313, 38.74690667038728], [-90.34725854333031, 38.74703733557797], [-90.35300617133261, 38.74716771853452], [-90.35875383649973, 38.747297819251436], [-90.36450153875144, 38.7474276377232], [-90.37024927800739, 38.74755717394432]]}}, {"type": "Feature", "properties": {"route_run_id": "stl_midamerica_to_st_louis_lambert_2026-01-12_0190", "route_pair": "midamerica_to_st_louis_lambert", "route_pair_label": "MidAmerica to St. Louis Lambert", "origin_label": "MidAmerica St. Louis Airport", "destination_label": "St. Louis Lambert International Airport", "origin_lat": 38.5451731, "origin_lon": -89.8351856, "destination_lat": 38.7486982, "destination_lon": -90.3700257, "traffic_date": "2026-01-12", "traffic_dataset": "January 12th - Monday", "weight_id": "w_0190", "distance_weight": 0.3, "population_weight": 0.3, "traffic_weight": 0.1, "airspace_weight": 0.3, "path_nodes": 97, "path_node_ids": [8877, 8881, 8904, 8922, 8923, 8927, 9145, 10016, 10018, 10062, 10055, 10058, 10094, 10096, 10103, 10104, 10110, 10109, 10516, 10515, 10514, 10517, 10522, 10299, 10524, 10529, 10538, 10539, 10537, 10367, 10364, 10365, 10370, 10381, 10380, 10379, 10378, 10391, 10402, 10404, 10408, 2604, 2605, 2606, 2603, 10716, 10717, 10718, 10729, 10730, 10744, 10745, 2907, 4107, 4109, 4112, 4145, 4150, 4149, 4153, 4175, 4133, 4132, 4134, 3964, 4286, 4285, 3974, 3973, 3972, 3971, 3982, 4295, 3983, 4297, 4198, 4199, 4201, 4216, 4229, 4232, 4230, 4242, 4265, 4244, 4243, 5336, 5338, 5341, 5339, 5345, 5324, 5347, 5346, 5357, 5358, 5364], "elapsed_seconds": 0.05269899999257177, "status": "success", "failure_reason": "", "route_distance_km": 72.30828212957256, "distance_cost_sum": 79.5799406057338, "population_cost_sum": 18.69733715578537, "traffic_cost_sum": 37.40028504900544, "airspace_cost_sum": 51.2, "total_weighted_score": 48.5832118333563, "clustering_method": "hierarchical_jaccard", "distance_method": "jaccard", "direct_cluster_number": 5, "hierarchical_jaccard_cluster": "hier_jaccard_005", "hierarchical_jaccard_cluster_source": "hier_jaccard_005", "representative_route_run_id": "stl_midamerica_to_st_louis_lambert_2026-01-12_0190", "representative_mean_frechet_miles": 0.8436924695233059, "cluster_size": 24, "cluster_weight_space_percent": 15.894039735099337, "merged_cluster_id": "frechet_merged_004", "source_jaccard_clusters": "hier_jaccard_005"}, "geometry": {"type": "LineString", "coordinates": [[-89.83272609742262, 38.54503213945896], [-89.83252853470323, 38.54953126729425], [-89.83806053424684, 38.55418543772932], [-89.84359324582596, 38.558839373542895], [-89.84912666962028, 38.563493074603095], [-89.85466080580946, 38.568146540778045], [-89.86019565457306, 38.572799771935806], [-89.86573121609086, 38.57745276794444], [-89.87126749054252, 38.58210552867199], [-89.8768044781077, 38.58675805398646], [-89.88234217896623, 38.591410343755804], [-89.8878805932977, 38.59606239784802], [-89.89341972128202, 38.600714216131045], [-89.89895956309883, 38.60536579847276], [-89.90450011892796, 38.61001714474108], [-89.91004138894921, 38.614668254803874], [-89.9155833733424, 38.61931912852895], [-89.92131862594731, 38.619470314708934], [-89.9268617252078, 38.624120695492145], [-89.93259742104341, 38.62427134452904], [-89.93833315971467, 38.6244217128885], [-89.94406894114202, 38.62457180056415], [-89.94980476524591, 38.62472160754967], [-89.95554063194687, 38.62487113383877], [-89.96108644660326, 38.62951999433463], [-89.966632976295, 38.63416861753812], [-89.97218022120177, 38.63881700331695], [-89.97791733024451, 38.63896547800877], [-89.98365448151714, 38.63911367183824], [-89.98939167493998, 38.639261584799115], [-89.9951289104335, 38.63940921688515], [-90.00086618791799, 38.639556568090114], [-90.00641614743708, 38.64420343004679], [-90.01215386646798, 38.64435024295822], [-90.0178916272611, 38.64449677492512], [-90.02362942973669, 38.64464302594129], [-90.02936727381517, 38.644788996000585], [-90.0349195472141, 38.64943458949962], [-90.0406578321926, 38.64958002089252], [-90.04621122092473, 38.6542251179363], [-90.05176532579277, 38.658869976095644], [-90.05750445081951, 38.65901461068064], [-90.06324361700084, 38.65915896413734], [-90.06898282425709, 38.65930303645963], [-90.07472207250845, 38.65944682764147], [-90.08027849074135, 38.66409041434458], [-90.08601817899587, 38.66423366614264], [-90.09175790801612, 38.66437663673715], [-90.0973158409683, 38.669019467207306], [-90.10305600964216, 38.66916189816016], [-90.10861505837465, 38.67380423026503], [-90.1143556665019, 38.67394612137533], [-90.12009631501547, 38.67408773116219], [-90.1256568785435, 38.67872930581226], [-90.13139796616022, 38.67887037549889], [-90.13695964571467, 38.683511450900546], [-90.14252204267808, 38.68815228569193], [-90.14808515722972, 38.692792879740324], [-90.15382748129907, 38.69293289101744], [-90.15939171242222, 38.69757298499622], [-90.1651344750913, 38.69771245548389], [-90.17087727747607, 38.69785164437002], [-90.17662011949652, 38.69799055164876], [-90.18236300107269, 38.69812917731423], [-90.18810592212462, 38.698267521360556], [-90.19384888257228, 38.69840558378194], [-90.1995918823357, 38.69854336457249], [-90.20533492133491, 38.69868086372641], [-90.2110779994899, 38.698818081237896], [-90.21682111672072, 38.69895501710115], [-90.22256427294727, 38.69909167131035], [-90.22830746808964, 38.699228043859776], [-90.23405070206775, 38.699364134743625], [-90.23979397480163, 38.69949994395616], [-90.24536450002277, 38.704136161482424], [-90.25110820919835, 38.70427142896936], [-90.25685195689897, 38.704406414722804], [-90.2624239960298, 38.709041869378396], [-90.26799675378774, 38.71367708117809], [-90.27357023035168, 38.71831204998893], [-90.27914442590036, 38.722946775677876], [-90.28488980273018, 38.72308043816236], [-90.29046511515969, 38.72771465998137], [-90.29604114694997, 38.73234863831933], [-90.30178735717278, 38.73248149743191], [-90.30753360525517, 38.73261407449003], [-90.31327989111702, 38.732746369488076], [-90.31902621467803, 38.73287838242046], [-90.32460455631471, 38.7375110734335], [-90.33035131489382, 38.737642543240376], [-90.33609811094065, 38.737773730919855], [-90.341844944375, 38.73790463646636], [-90.34759181511657, 38.738035259874366], [-90.35333872308522, 38.73816560113835], [-90.35908566820065, 38.73829566025279], [-90.36466711306467, 38.742926539503976], [-90.37024927800739, 38.74755717394432]]}}, {"type": "Feature", "properties": {"route_run_id": "stl_midamerica_to_st_louis_lambert_2026-01-12_0183", "route_pair": "midamerica_to_st_louis_lambert", "route_pair_label": "MidAmerica to St. Louis Lambert", "origin_label": "MidAmerica St. Louis Airport", "destination_label": "St. Louis Lambert International Airport", "origin_lat": 38.5451731, "origin_lon": -89.8351856, "destination_lat": 38.7486982, "destination_lon": -90.3700257, "traffic_date": "2026-01-12", "traffic_dataset": "January 12th - Monday", "weight_id": "w_0183", "distance_weight": 0.3, "population_weight": 0.2, "traffic_weight": 0.0, "airspace_weight": 0.5, "path_nodes": 97, "path_node_ids": [8877, 8881, 8904, 8922, 8923, 8927, 9145, 10016, 10018, 10062, 10055, 10058, 10094, 10096, 10103, 10104, 10110, 10109, 10291, 10512, 10290, 10513, 10298, 10295, 10296, 10297, 10307, 10305, 10306, 10319, 10321, 10320, 10318, 10211, 10210, 10208, 10209, 10326, 10328, 10329, 10327, 2522, 2524, 2523, 2514, 2517, 2515, 2516, 2530, 2534, 2532, 2558, 2840, 2839, 2838, 2827, 2849, 2848, 2850, 2837, 2861, 2866, 2889, 3896, 3898, 3901, 3902, 3914, 3948, 3947, 3952, 3940, 3942, 3943, 3941, 4043, 4042, 4041, 4040, 4051, 4054, 4186, 4080, 4205, 4207, 4212, 5309, 5313, 5335, 5337, 5320, 5322, 5323, 5346, 5357, 5358, 5364], "elapsed_seconds": 0.05435109999962151, "status": "success", "failure_reason": "", "route_distance_km": 72.29260468015718, "distance_cost_sum": 79.56268655880336, "population_cost_sum": 22.4028729657628, "traffic_cost_sum": 50.7558176934141, "airspace_cost_sum": 47.6, "total_weighted_score": 52.14938056079359, "clustering_method": "hierarchical_jaccard", "distance_method": "jaccard", "direct_cluster_number": 8, "hierarchical_jaccard_cluster": "hier_jaccard_008", "hierarchical_jaccard_cluster_source": "hier_jaccard_010", "representative_route_run_id": "stl_midamerica_to_st_louis_lambert_2026-01-12_0183", "representative_mean_frechet_miles": 0.6239213250120216, "cluster_size": 15, "cluster_weight_space_percent": 9.933774834437086, "merged_cluster_id": "frechet_merged_005", "source_jaccard_clusters": "hier_jaccard_008"}, "geometry": {"type": "LineString", "coordinates": [[-89.83272609742262, 38.54503213945896], [-89.83252853470323, 38.54953126729425], [-89.83806053424684, 38.55418543772932], [-89.84359324582596, 38.558839373542895], [-89.84912666962028, 38.563493074603095], [-89.85466080580946, 38.568146540778045], [-89.86019565457306, 38.572799771935806], [-89.86573121609086, 38.57745276794444], [-89.87126749054252, 38.58210552867199], [-89.8768044781077, 38.58675805398646], [-89.88234217896623, 38.591410343755804], [-89.8878805932977, 38.59606239784802], [-89.89341972128202, 38.600714216131045], [-89.89895956309883, 38.60536579847276], [-89.90450011892796, 38.61001714474108], [-89.91004138894921, 38.614668254803874], [-89.9155833733424, 38.61931912852895], [-89.92131862594731, 38.619470314708934], [-89.92705392153653, 38.61962122026898], [-89.93278926003055, 38.619771845202735], [-89.93852464134986, 38.619922189503846], [-89.9442600654149, 38.62007225316597], [-89.94999553214618, 38.62022203618278], [-89.95573104146416, 38.620371538547964], [-89.96146659328937, 38.6205207602552], [-89.96720218754218, 38.620669701298226], [-89.97293782414316, 38.62081836167072], [-89.97867350301271, 38.62096674136646], [-89.98440922407127, 38.621114840379136], [-89.99014498723932, 38.62126265870254], [-89.99588079243732, 38.621410196330416], [-90.00161663958568, 38.62155745325657], [-90.00735252860491, 38.621704429474754], [-90.01308845941536, 38.6218511249788], [-90.01882443193752, 38.62199753976251], [-90.0245604460918, 38.62214367381969], [-90.03029650179865, 38.62228952714421], [-90.03603259897847, 38.622435099729884], [-90.04176873755169, 38.622580391570615], [-90.04750491743872, 38.62272540266021], [-90.05324113855997, 38.6228701329926], [-90.0589774008359, 38.62301458256169], [-90.06471370418684, 38.62315875136136], [-90.07045004853325, 38.62330263938551], [-90.07618643379548, 38.623446246628106], [-90.08192285989396, 38.62358957308307], [-90.08765932674906, 38.623732618744384], [-90.09339583428118, 38.623875383605984], [-90.09895091075838, 38.62851804648185], [-90.10450670259345, 38.633160469873815], [-90.1102440470662, 38.63330243772981], [-90.11580095263906, 38.63794436326609], [-90.12135857394713, 38.64258604896054], [-90.12709675507955, 38.642727219229855], [-90.13283497637043, 38.64286810847808], [-90.13857323774008, 38.64300871669927], [-90.14431153910874, 38.643149043887504], [-90.15004988039681, 38.64328909003685], [-90.15578826152439, 38.64342885514139], [-90.16152668241186, 38.64356833919522], [-90.16708780535298, 38.6482079745162], [-90.17264964452228, 38.6528473690797], [-90.17821220009857, 38.65748652275311], [-90.18377547226044, 38.66212543540375], [-90.18933946118675, 38.666764106898924], [-90.19490416705614, 38.67140253710589], [-90.200645013987, 38.67154018571967], [-90.20621083477218, 38.67617811511645], [-90.21177737287698, 38.68081580286656], [-90.21751905445252, 38.68095265114052], [-90.22308670781703, 38.685589837485246], [-90.22882882604138, 38.685726144608395], [-90.23457098307328, 38.6858621702009], [-90.24031317883275, 38.68599791425695], [-90.24605541323987, 38.68613337677085], [-90.2517976862147, 38.68626855773688], [-90.25753999767723, 38.686403457149304], [-90.26328234754749, 38.686538075002424], [-90.26902473574555, 38.686672411290566], [-90.27459628650614, 38.69130727605424], [-90.2801685552908, 38.695941897935995], [-90.28574154227802, 38.70057627680287], [-90.29131524764634, 38.705210412521886], [-90.29688967157429, 38.70984430496006], [-90.30246481424038, 38.714477953984364], [-90.30804067582325, 38.71911135946174], [-90.31361725650144, 38.72374452125915], [-90.3191945564535, 38.72837743924346], [-90.3247725758581, 38.73301011328159], [-90.330518974577, 38.7331415620659], [-90.33626541075455, 38.733272728767844], [-90.3420118843105, 38.73340361338185], [-90.34775839516463, 38.73353421590239], [-90.35333872308522, 38.73816560113835], [-90.35908566820065, 38.73829566025279], [-90.36466711306467, 38.742926539503976], [-90.37024927800739, 38.74755717394432]]}}, {"type": "Feature", "properties": {"route_run_id": "stl_midamerica_to_st_louis_lambert_2026-01-12_0067", "route_pair": "midamerica_to_st_louis_lambert", "route_pair_label": "MidAmerica to St. Louis Lambert", "origin_label": "MidAmerica St. Louis Airport", "destination_label": "St. Louis Lambert International Airport", "origin_lat": 38.5451731, "origin_lon": -89.8351856, "destination_lat": 38.7486982, "destination_lon": -90.3700257, "traffic_date": "2026-01-12", "traffic_dataset": "January 12th - Monday", "weight_id": "w_0067", "distance_weight": 0.1, "population_weight": 0.0, "traffic_weight": 0.0, "airspace_weight": 0.9, "path_nodes": 96, "path_node_ids": [8877, 8876, 8892, 8897, 8899, 8926, 9788, 10013, 10014, 10036, 10052, 10054, 10061, 10051, 10049, 10048, 10050, 10253, 10252, 10241, 10240, 10248, 10246, 10247, 10245, 10231, 10230, 10262, 10150, 10148, 10149, 10151, 10161, 10159, 10158, 10160, 10166, 10168, 10167, 10169, 2247, 2269, 2268, 2257, 2256, 2254, 2279, 2293, 2296, 2301, 2303, 2491, 2492, 2818, 2496, 2507, 2506, 2828, 2505, 2809, 2811, 2810, 2728, 2730, 2731, 2729, 2715, 2717, 2714, 2716, 2738, 2741, 2745, 2747, 2684, 2687, 3987, 3990, 4016, 4017, 4022, 4029, 4034, 4060, 4064, 5048, 5052, 5076, 5082, 5299, 5304, 5319, 5321, 5357, 5358, 5364], "elapsed_seconds": 0.05653370000072755, "status": "success", "failure_reason": "", "route_distance_km": 71.90057520712594, "distance_cost_sum": 79.13123277148179, "population_cost_sum": 53.29567736851651, "traffic_cost_sum": 39.307370558879065, "airspace_cost_sum": 46.2, "total_weighted_score": 49.49312327714821, "clustering_method": "hierarchical_jaccard", "distance_method": "jaccard", "direct_cluster_number": 9, "hierarchical_jaccard_cluster": "hier_jaccard_009", "hierarchical_jaccard_cluster_source": "hier_jaccard_014", "representative_route_run_id": "stl_midamerica_to_st_louis_lambert_2026-01-12_0067", "representative_mean_frechet_miles": 0.5996721269716799, "cluster_size": 15, "cluster_weight_space_percent": 9.933774834437086, "merged_cluster_id": "frechet_merged_006", "source_jaccard_clusters": "hier_jaccard_009"}, "geometry": {"type": "LineString", "coordinates": [[-89.83272609742262, 38.54503213945896], [-89.83845499191484, 38.54518713674757], [-89.84398707949187, 38.54984103165108], [-89.84951987896733, 38.55449469187918], [-89.85505339052077, 38.559148117300026], [-89.86058761433173, 38.563801307781745], [-89.86612255057987, 38.568454263192415], [-89.87165819944471, 38.57310698340007], [-89.87719456110594, 38.577759468272795], [-89.88273163574308, 38.582411717678575], [-89.88826942353593, 38.58706373148541], [-89.89380792466403, 38.591715509561276], [-89.89934713930707, 38.59636705177409], [-89.90508047722643, 38.59651895818466], [-89.91081385831642, 38.59667058421835], [-89.91654728249756, 38.596821929868824], [-89.92228074969049, 38.59697299512966], [-89.92801425981584, 38.59712377999449], [-89.93374781279411, 38.597274284457015], [-89.93948140854593, 38.5974245085108], [-89.94521504699188, 38.5975744521496], [-89.95094872805251, 38.59772411536704], [-89.95668245164843, 38.59787349815684], [-89.96241621770018, 38.59802260051268], [-89.96815002612831, 38.59817142242828], [-89.9738838768534, 38.59831996389739], [-89.97961776979602, 38.59846822491371], [-89.98535170487666, 38.59861620547102], [-89.99108568201598, 38.59876390556306], [-89.99681970113441, 38.59891132518362], [-90.00255376215256, 38.59905846432648], [-90.00828786499093, 38.59920532298544], [-90.01402200957008, 38.5993519011543], [-90.01975619581054, 38.599498198826886], [-90.02549042363282, 38.599644215997024], [-90.03122469295744, 38.59978995265856], [-90.03695900370492, 38.599935408805365], [-90.0426933557958, 38.60008058443128], [-90.04842774915056, 38.600225479530216], [-90.05416218368977, 38.60037009409603], [-90.05989665933384, 38.60051442812264], [-90.06563117600335, 38.600658481603965], [-90.07136573361876, 38.60080225453393], [-90.07710033210058, 38.60094574690646], [-90.0828349713693, 38.601088958715515], [-90.08856965134538, 38.60123188995506], [-90.0941227455516, 38.605874717602354], [-90.09967655430022, 38.61051730605643], [-90.10523107776994, 38.61515965518486], [-90.11078631613944, 38.61980176485522], [-90.11652262799952, 38.61994338379215], [-90.1220789793104, 38.62458499570804], [-90.12781572923257, 38.62472607564535], [-90.13337319363258, 38.629367189437694], [-90.13911038141684, 38.62950773017495], [-90.14484760917111, 38.62964799001386], [-90.15058487681573, 38.629787968948484], [-90.156322184271, 38.62992766697294], [-90.16205953145733, 38.63006708408134], [-90.16779691829495, 38.630206220267794], [-90.17353434470424, 38.6303450755264], [-90.17927181060547, 38.63048364985134], [-90.185009315919, 38.63062194323676], [-90.1907468605651, 38.6307599556768], [-90.1964844444641, 38.63089768716567], [-90.2022220675363, 38.63103513769752], [-90.20795972970198, 38.63117230726659], [-90.21369743088145, 38.63130919586706], [-90.21943517099498, 38.631445803493165], [-90.22517294996291, 38.63158213013913], [-90.2309107677055, 38.63171817579922], [-90.2364756999938, 38.63635464897752], [-90.2420413482591, 38.64099088040321], [-90.24760771267954, 38.645626869943555], [-90.25317479343335, 38.65026261746583], [-90.25874259069872, 38.654898122837295], [-90.26431110465388, 38.659533385925144], [-90.26988033547711, 38.664168406596616], [-90.27545028334664, 38.66880318471887], [-90.28102094844074, 38.67343772015905], [-90.28659233093768, 38.67807201278429], [-90.29216443101578, 38.68270606246168], [-90.29773724885335, 38.68733986905835], [-90.30331078462868, 38.69197343244128], [-90.30888503852013, 38.69660675247757], [-90.31446001070607, 38.70123982903419], [-90.32003570136486, 38.70587266197814], [-90.32561211067481, 38.710505251176386], [-90.33118923881437, 38.715137596495865], [-90.3367670859619, 38.719769697803464], [-90.34234565229588, 38.724401554966114], [-90.34792493799469, 38.72903316785066], [-90.35350494323681, 38.73366453632395], [-90.35908566820065, 38.73829566025279], [-90.36466711306467, 38.742926539503976], [-90.37024927800739, 38.74755717394432]]}}, {"type": "Feature", "properties": {"route_run_id": "stl_midamerica_to_st_louis_lambert_2026-01-12_0237", "route_pair": "midamerica_to_st_louis_lambert", "route_pair_label": "MidAmerica to St. Louis Lambert", "origin_label": "MidAmerica St. Louis Airport", "destination_label": "St. Louis Lambert International Airport", "origin_lat": 38.5451731, "origin_lon": -89.8351856, "destination_lat": 38.7486982, "destination_lon": -90.3700257, "traffic_date": "2026-01-12", "traffic_dataset": "January 12th - Monday", "weight_id": "w_0237", "distance_weight": 0.5, "population_weight": 0.0, "traffic_weight": 0.5, "airspace_weight": 0.0, "path_nodes": 97, "path_node_ids": [8877, 8861, 8864, 8865, 8866, 8863, 7715, 7716, 9752, 9731, 9742, 9743, 9730, 9733, 9721, 9732, 9720, 9915, 7793, 7795, 7796, 7804, 7803, 7805, 7813, 7814, 7811, 7812, 9817, 9816, 9819, 9818, 7904, 7901, 9823, 9822, 9844, 9847, 9849, 9846, 1959, 1958, 1937, 1947, 1969, 1973, 1988, 2002, 2004, 2231, 2229, 2195, 2197, 2196, 2408, 2420, 2422, 2419, 2423, 2205, 2206, 2449, 2345, 2370, 2373, 2398, 2394, 2397, 2712, 2716, 2739, 2746, 2769, 2747, 2681, 2682, 2685, 3986, 2706, 4015, 4018, 4025, 4030, 4033, 4057, 5034, 5048, 5052, 5076, 5082, 5299, 5304, 5319, 5321, 5357, 5358, 5364], "elapsed_seconds": 0.037061400013044477, "status": "success", "failure_reason": "", "route_distance_km": 73.315997479373, "distance_cost_sum": 80.68899651638182, "population_cost_sum": 50.80701756737244, "traffic_cost_sum": 22.040817991423133, "airspace_cost_sum": 63.000000000000014, "total_weighted_score": 51.36490725390247, "clustering_method": "hierarchical_jaccard", "distance_method": "jaccard", "direct_cluster_number": 10, "hierarchical_jaccard_cluster": "hier_jaccard_010", "hierarchical_jaccard_cluster_source": "hier_jaccard_009", "representative_route_run_id": "stl_midamerica_to_st_louis_lambert_2026-01-12_0237", "representative_mean_frechet_miles": 0.8747853339779162, "cluster_size": 12, "cluster_weight_space_percent": 7.947019867549669, "merged_cluster_id": "frechet_merged_007", "source_jaccard_clusters": "hier_jaccard_010"}, "geometry": {"type": "LineString", "coordinates": [[-89.83272609742262, 38.54503213945896], [-89.83865215473445, 38.54068797977641], [-89.84438073740759, 38.54084267248963], [-89.8501093639971, 38.54099708543371], [-89.85583803442384, 38.541151218602124], [-89.86156674860865, 38.54130507198842], [-89.86729550647239, 38.541458645586076], [-89.87302430793594, 38.54161193938866], [-89.87875315292008, 38.541764953389716], [-89.88448204134579, 38.54191768758279], [-89.8902109731338, 38.54207014196144], [-89.895939948205, 38.54222231651928], [-89.90166896648022, 38.54237421124988], [-89.90739802788026, 38.54252582614685], [-89.91312713232598, 38.54267716120381], [-89.91885627973821, 38.54282821641439], [-89.92458547003774, 38.5429789917722], [-89.93031470314544, 38.543129487270946], [-89.93623504869535, 38.538780126685914], [-89.94196401125822, 38.538930038442274], [-89.94769301638131, 38.53907967036528], [-89.95342206398557, 38.53922902244861], [-89.95915115399177, 38.53937809468601], [-89.9648802863207, 38.53952688707118], [-89.97060946089319, 38.53967539959786], [-89.97633867763007, 38.53982363225979], [-89.98206793645213, 38.53997158505075], [-89.98779723728013, 38.54011925796448], [-89.99352658003491, 38.54026665099478], [-89.99925596463726, 38.54041376413546], [-90.00498539100796, 38.54056059738029], [-90.0107148590678, 38.5407071507231], [-90.01644436873754, 38.540853424157724], [-90.022173919938, 38.540999417678], [-90.0277181388758, 38.54564508621299], [-90.03344812898557, 38.54579054317578], [-90.03899345764175, 38.55043571741418], [-90.04453949873692, 38.55508065386086], [-90.05027032498664, 38.555225317192196], [-90.0560011923214, 38.555369700438234], [-90.06173210066189, 38.55551380359289], [-90.0674630499288, 38.55565762665008], [-90.0731940400428, 38.55580116960377], [-90.07892507092458, 38.5559444324479], [-90.08447420828541, 38.56058758841172], [-90.0900240585605, 38.56523050576299], [-90.09557462192825, 38.56987318436945], [-90.10112589856693, 38.57451562409887], [-90.10667788865496, 38.579157824818985], [-90.11223059237057, 38.583799786397456], [-90.11796404642338, 38.58394122410869], [-90.12369754066755, 38.5840823813937], [-90.12943107502363, 38.58422325824649], [-90.1351646494121, 38.58436385466116], [-90.14089826375356, 38.58450417063179], [-90.14645366632062, 38.589144603290876], [-90.15218771733517, 38.589284380730234], [-90.15792180807382, 38.58942387766302], [-90.16347871828971, 38.59406355405304], [-90.16921324535195, 38.59420251219789], [-90.17494781190939, 38.59434118977373], [-90.18050622974906, 38.59898010918833], [-90.18606536210271, 38.60361878809667], [-90.19162520914848, 38.60825722636621], [-90.19718577106451, 38.612895423864465], [-90.20274704802898, 38.61753338045887], [-90.2084836369821, 38.617670484184025], [-90.21404602582597, 38.62230794080845], [-90.21960913009349, 38.62694515617101], [-90.22517294996291, 38.63158213013913], [-90.23073748561237, 38.63621886258013], [-90.23630273722006, 38.640855353361346], [-90.24186870496423, 38.645491602350084], [-90.24760771267954, 38.645626869943555], [-90.25334675887852, 38.64576185639355], [-90.25891423625677, 38.65039734432395], [-90.26448243016516, 38.6550325900107], [-90.27005134078189, 38.65966759332096], [-90.27562096828521, 38.66430235412195], [-90.28119131285328, 38.668936872280845], [-90.28676237466442, 38.67357114766479], [-90.29233415389683, 38.67820518014085], [-90.29790665072878, 38.68283896957616], [-90.30347986533855, 38.68747251583781], [-90.3090537979044, 38.692105818792854], [-90.31462844860471, 38.69673887830826], [-90.31446001070607, 38.70123982903419], [-90.32003570136486, 38.70587266197814], [-90.32561211067481, 38.710505251176386], [-90.33118923881437, 38.715137596495865], [-90.3367670859619, 38.719769697803464], [-90.34234565229588, 38.724401554966114], [-90.34792493799469, 38.72903316785066], [-90.35350494323681, 38.73366453632395], [-90.35908566820065, 38.73829566025279], [-90.36466711306467, 38.742926539503976], [-90.37024927800739, 38.74755717394432]]}}]}