{"type": "FeatureCollection", "features": [{"type": "Feature", "properties": {"route_run_id": "stl_st_louis_downtown_airport_to_st_louis_lambert_2026-01-12_0025", "route_pair": "st_louis_downtown_airport_to_st_louis_lambert", "route_pair_label": "St. Louis Downtown Airport to St. Louis Lambert", "origin_label": "St. Louis Downtown Airport", "destination_label": "St. Louis Lambert International Airport", "origin_lat": 38.5703611, "origin_lon": -90.1550833, "destination_lat": 38.7486982, "destination_lon": -90.3700257, "traffic_date": "2026-01-12", "traffic_dataset": "January 12th - Monday", "weight_id": "w_0025", "distance_weight": 0.0, "population_weight": 0.2, "traffic_weight": 0.3, "airspace_weight": 0.5, "path_nodes": 40, "path_node_ids": [2179, 2180, 2174, 2199, 2203, 2207, 2341, 2344, 2368, 2374, 2394, 2397, 2712, 2716, 2739, 2746, 2769, 2773, 3985, 3988, 3992, 3994, 4019, 4020, 4023, 4055, 4059, 4063, 4064, 5048, 5052, 5076, 5082, 5299, 5304, 5319, 5321, 5357, 5358, 5364], "elapsed_seconds": 0.04479189999983646, "status": "success", "failure_reason": "", "route_distance_km": 35.0695243590648, "distance_cost_sum": 38.596279476875054, "population_cost_sum": 23.651108783135093, "traffic_cost_sum": 17.839922019494136, "airspace_cost_sum": 33.8, "total_weighted_score": 26.98219836247526, "clustering_method": "hierarchical_jaccard", "distance_method": "jaccard", "direct_cluster_number": 1, "hierarchical_jaccard_cluster": "hier_jaccard_001", "hierarchical_jaccard_cluster_source": "hier_jaccard_005", "representative_route_run_id": "stl_st_louis_downtown_airport_to_st_louis_lambert_2026-01-12_0025", "representative_mean_frechet_miles": 0.5511677543423484, "cluster_size": 235, "cluster_weight_space_percent": 88.01498127340824, "merged_cluster_id": "frechet_merged_001", "source_jaccard_clusters": "hier_jaccard_001, hier_jaccard_002, hier_jaccard_003, hier_jaccard_006"}, "geometry": {"type": "LineString", "coordinates": [[-90.15289905765549, 38.57128267769979], [-90.15845430205954, 38.57592253965332], [-90.16401026010618, 38.58056216167], [-90.16956693197352, 38.58520154361737], [-90.17512431783956, 38.5898406853631], [-90.18068241788241, 38.5944795867747], [-90.18624123228014, 38.59911824771971], [-90.19180076121087, 38.60375666806568], [-90.19736100485268, 38.60839484768009], [-90.20292196338367, 38.61303278643038], [-90.2084836369821, 38.617670484184025], [-90.21404602582597, 38.62230794080845], [-90.21960913009349, 38.62694515617101], [-90.22517294996291, 38.63158213013913], [-90.23073748561237, 38.63621886258013], [-90.23630273722006, 38.640855353361346], [-90.24186870496423, 38.645491602350084], [-90.24743538902311, 38.65012760941361], [-90.25300278957496, 38.654763374419176], [-90.25857090679797, 38.65939889723403], [-90.26413974087053, 38.66403417772537], [-90.26970929197084, 38.66866921576039], [-90.27527956027723, 38.67330401120623], [-90.28085054596801, 38.677938563930056], [-90.28642224922152, 38.68257287379895], [-90.29199467021606, 38.68720694068001], [-90.29756780913004, 38.69184076444029], [-90.3031416661418, 38.696474344946864], [-90.30888503852013, 38.69660675247757], [-90.31446001070607, 38.70123982903419], [-90.32003570136486, 38.70587266197814], [-90.32561211067481, 38.710505251176386], [-90.33118923881437, 38.715137596495865], [-90.3367670859619, 38.719769697803464], [-90.34234565229588, 38.724401554966114], [-90.34792493799469, 38.72903316785066], [-90.35350494323681, 38.73366453632395], [-90.35908566820065, 38.73829566025279], [-90.36466711306467, 38.742926539503976], [-90.37024927800739, 38.74755717394432]]}}, {"type": "Feature", "properties": {"route_run_id": "stl_st_louis_downtown_airport_to_st_louis_lambert_2026-01-12_0119", "route_pair": "st_louis_downtown_airport_to_st_louis_lambert", "route_pair_label": "St. Louis Downtown Airport to St. Louis Lambert", "origin_label": "St. Louis Downtown Airport", "destination_label": "St. Louis Lambert International Airport", "origin_lat": 38.5703611, "origin_lon": -90.1550833, "destination_lat": 38.7486982, "destination_lon": -90.3700257, "traffic_date": "2026-01-12", "traffic_dataset": "January 12th - Monday", "weight_id": "w_0119", "distance_weight": 0.1, "population_weight": 0.8, "traffic_weight": 0.0, "airspace_weight": 0.1, "path_nodes": 55, "path_node_ids": [2179, 2180, 2183, 2186, 2419, 2423, 2448, 2452, 2455, 2478, 2482, 2483, 2487, 2811, 2812, 2816, 2858, 2863, 2864, 2889, 3896, 3898, 3901, 3927, 3946, 3949, 3953, 3966, 3944, 3977, 3976, 3941, 4043, 4066, 4067, 4068, 4185, 4187, 4188, 4076, 4075, 4082, 4084, 5080, 5084, 5310, 5311, 5337, 5320, 5322, 5323, 5346, 5357, 5358, 5364], "elapsed_seconds": 0.03218080001533963, "status": "success", "failure_reason": "", "route_distance_km": 41.77074742931658, "distance_cost_sum": 45.971408828735385, "population_cost_sum": 8.67777235752909, "traffic_cost_sum": 41.35893898884012, "airspace_cost_sum": 45.2, "total_weighted_score": 16.059358768896814, "clustering_method": "hierarchical_jaccard", "distance_method": "jaccard", "direct_cluster_number": 4, "hierarchical_jaccard_cluster": "hier_jaccard_004", "hierarchical_jaccard_cluster_source": "hier_jaccard_002", "representative_route_run_id": "stl_st_louis_downtown_airport_to_st_louis_lambert_2026-01-12_0119", "representative_mean_frechet_miles": 0.49060316421163697, "cluster_size": 32, "cluster_weight_space_percent": 11.985018726591761, "merged_cluster_id": "frechet_merged_002", "source_jaccard_clusters": "hier_jaccard_004"}, "geometry": {"type": "LineString", "coordinates": [[-90.15289905765549, 38.57128267769979], [-90.15845430205954, 38.57592253965332], [-90.15827684369297, 38.58042298981685], [-90.1580993457009, 38.58492343582021], [-90.15792180807382, 38.58942387766302], [-90.16347871828971, 38.59406355405304], [-90.1690363428032, 38.598702990254786], [-90.17459468179258, 38.60334218613583], [-90.17441805758689, 38.60784267808668], [-90.174241393937, 38.61234316588366], [-90.17406469083332, 38.61684364952644], [-90.17388794826633, 38.621344129014695], [-90.17371116622648, 38.62584460434813], [-90.17353434470424, 38.6303450755264], [-90.17335748369, 38.63484554254923], [-90.17318058317427, 38.63934600541629], [-90.17300364314747, 38.64384646412727], [-90.17856556137721, 38.64848558173427], [-90.17838890046788, 38.65298605432084], [-90.17821220009857, 38.65748652275311], [-90.18377547226044, 38.66212543540375], [-90.18933946118675, 38.666764106898924], [-90.19490416705614, 38.67140253710589], [-90.20046959004746, 38.676040725891895], [-90.20603573033937, 38.68067867312418], [-90.21160258811075, 38.68531637866994], [-90.2171701635404, 38.68995384239636], [-90.2229126017605, 38.690090452895454], [-90.22865507887754, 38.69022678182468], [-90.23439759481155, 38.69036282917826], [-90.24014014948251, 38.69049859495047], [-90.24605541323987, 38.68613337677085], [-90.2517976862147, 38.68626855773688], [-90.25736804511756, 38.69090420272148], [-90.26311075393669, 38.69103884211091], [-90.26868222818311, 38.695673984376505], [-90.27425442059507, 38.700308883813186], [-90.27999796237877, 38.700442721166475], [-90.28557127047641, 38.70507711728869], [-90.29148516021279, 38.700709550716724], [-90.297228816103, 38.700842542902386], [-90.30280331580018, 38.70547615766316], [-90.30837853409372, 38.710109528957155], [-90.31395447116216, 38.71474265665128], [-90.31378588266769, 38.71924359100243], [-90.31936286061908, 38.72387649197406], [-90.32494055786266, 38.72850914903958], [-90.330518974577, 38.7331415620659], [-90.33626541075455, 38.733272728767844], [-90.3420118843105, 38.73340361338185], [-90.34775839516463, 38.73353421590239], [-90.35333872308522, 38.73816560113835], [-90.35908566820065, 38.73829566025279], [-90.36466711306467, 38.742926539503976], [-90.37024927800739, 38.74755717394432]]}}]}