{"type": "FeatureCollection", "features": [{"type": "Feature", "properties": {"route_run_id": "stl_midamerica_to_st_louis_union_station_2026-03-09_0183", "route_pair": "midamerica_to_st_louis_union_station", "route_pair_label": "MidAmerica to St. Louis Union Station", "origin_label": "MidAmerica St. Louis Airport", "destination_label": "St. Louis Union Station", "origin_lat": 38.5451731, "origin_lon": -89.8351856, "destination_lat": 38.629167, "destination_lon": -90.2075, "traffic_date": "2026-03-09", "traffic_dataset": "March 9th - Monday", "weight_id": "w_0183", "distance_weight": 0.3, "population_weight": 0.2, "traffic_weight": 0.0, "airspace_weight": 0.5, "path_nodes": 68, "path_node_ids": [8877, 8881, 8904, 8922, 8923, 8927, 9145, 10016, 10018, 10062, 10055, 10058, 10094, 10096, 10103, 10104, 10110, 10109, 10291, 10512, 10290, 10513, 10298, 10295, 10296, 10297, 10307, 10305, 10306, 10319, 10321, 10320, 10318, 10211, 10210, 10208, 10209, 10326, 10328, 10329, 10327, 2522, 2524, 2523, 2514, 2517, 2515, 2516, 2530, 2534, 2532, 2558, 2840, 2839, 2838, 2827, 2849, 2848, 2850, 2837, 2859, 2858, 2860, 2763, 2762, 2737, 2732, 2715], "elapsed_seconds": 0.027627800009213388, "status": "success", "failure_reason": "", "route_distance_km": 48.66685213560263, "distance_cost_sum": 53.561018023900075, "population_cost_sum": 14.998679925723389, "traffic_cost_sum": 13.370267511322758, "airspace_cost_sum": 23.2, "total_weighted_score": 30.668041392314706, "clustering_method": "hierarchical_jaccard", "distance_method": "jaccard", "direct_cluster_number": 2, "hierarchical_jaccard_cluster": "hier_jaccard_002", "hierarchical_jaccard_cluster_source": "hier_jaccard_001", "representative_route_run_id": "stl_midamerica_to_st_louis_union_station_2026-03-09_0183", "representative_mean_frechet_miles": 1.0177612944769927, "cluster_size": 69, "cluster_weight_space_percent": 46.62162162162162, "merged_cluster_id": "frechet_merged_001", "source_jaccard_clusters": "hier_jaccard_002, hier_jaccard_007"}, "geometry": {"type": "LineString", "coordinates": [[-89.83272609742262, 38.54503213945896], [-89.83252853470323, 38.54953126729425], [-89.83806053424684, 38.55418543772932], [-89.84359324582596, 38.558839373542895], [-89.84912666962028, 38.563493074603095], [-89.85466080580946, 38.568146540778045], [-89.86019565457306, 38.572799771935806], [-89.86573121609086, 38.57745276794444], [-89.87126749054252, 38.58210552867199], [-89.8768044781077, 38.58675805398646], [-89.88234217896623, 38.591410343755804], [-89.8878805932977, 38.59606239784802], [-89.89341972128202, 38.600714216131045], [-89.89895956309883, 38.60536579847276], [-89.90450011892796, 38.61001714474108], [-89.91004138894921, 38.614668254803874], [-89.9155833733424, 38.61931912852895], [-89.92131862594731, 38.619470314708934], [-89.92705392153653, 38.61962122026898], [-89.93278926003055, 38.619771845202735], [-89.93852464134986, 38.619922189503846], [-89.9442600654149, 38.62007225316597], [-89.94999553214618, 38.62022203618278], [-89.95573104146416, 38.620371538547964], [-89.96146659328937, 38.6205207602552], [-89.96720218754218, 38.620669701298226], [-89.97293782414316, 38.62081836167072], [-89.97867350301271, 38.62096674136646], [-89.98440922407127, 38.621114840379136], [-89.99014498723932, 38.62126265870254], [-89.99588079243732, 38.621410196330416], [-90.00161663958568, 38.62155745325657], [-90.00735252860491, 38.621704429474754], [-90.01308845941536, 38.6218511249788], [-90.01882443193752, 38.62199753976251], [-90.0245604460918, 38.62214367381969], [-90.03029650179865, 38.62228952714421], [-90.03603259897847, 38.622435099729884], [-90.04176873755169, 38.622580391570615], [-90.04750491743872, 38.62272540266021], [-90.05324113855997, 38.6228701329926], [-90.0589774008359, 38.62301458256169], [-90.06471370418684, 38.62315875136136], [-90.07045004853325, 38.62330263938551], [-90.07618643379548, 38.623446246628106], [-90.08192285989396, 38.62358957308307], [-90.08765932674906, 38.623732618744384], [-90.09339583428118, 38.623875383605984], [-90.09895091075838, 38.62851804648185], [-90.10450670259345, 38.633160469873815], [-90.1102440470662, 38.63330243772981], [-90.11580095263906, 38.63794436326609], [-90.12135857394713, 38.64258604896054], [-90.12709675507955, 38.642727219229855], [-90.13283497637043, 38.64286810847808], [-90.13857323774008, 38.64300871669927], [-90.14431153910874, 38.643149043887504], [-90.15004988039681, 38.64328909003685], [-90.15578826152439, 38.64342885514139], [-90.16152668241186, 38.64356833919522], [-90.16726514297947, 38.64370754219247], [-90.17300364314747, 38.64384646412727], [-90.17874218283609, 38.64398510499372], [-90.18448076196563, 38.64412346478601], [-90.19021938045634, 38.644261543498274], [-90.19613354616266, 38.639898793950096], [-90.20204699586435, 38.63553571516044], [-90.20795972970198, 38.63117230726659]]}}, {"type": "Feature", "properties": {"route_run_id": "stl_midamerica_to_st_louis_union_station_2026-03-09_0068", "route_pair": "midamerica_to_st_louis_union_station", "route_pair_label": "MidAmerica to St. Louis Union Station", "origin_label": "MidAmerica St. Louis Airport", "destination_label": "St. Louis Union Station", "origin_lat": 38.5451731, "origin_lon": -89.8351856, "destination_lat": 38.629167, "destination_lon": -90.2075, "traffic_date": "2026-03-09", "traffic_dataset": "March 9th - Monday", "weight_id": "w_0068", "distance_weight": 0.1, "population_weight": 0.0, "traffic_weight": 0.1, "airspace_weight": 0.8, "path_nodes": 67, "path_node_ids": [8877, 8876, 8892, 8897, 8899, 8926, 9788, 10013, 10014, 10036, 10052, 10054, 10061, 10051, 10049, 10048, 10050, 10253, 10252, 10241, 10240, 10248, 10246, 10247, 10245, 10231, 10230, 10262, 10150, 10148, 10149, 10151, 10161, 10156, 10154, 10155, 10162, 10164, 10163, 10165, 2244, 2246, 2268, 2278, 2283, 2508, 2286, 2298, 2300, 2304, 2531, 2819, 2820, 2822, 2825, 2836, 2848, 2850, 2837, 2859, 2858, 2815, 2759, 2734, 2731, 2729, 2715], "elapsed_seconds": 0.04059330001473427, "status": "success", "failure_reason": "", "route_distance_km": 48.81678601447848, "distance_cost_sum": 53.726029953713976, "population_cost_sum": 28.570091945307983, "traffic_cost_sum": 5.278783894524551, "airspace_cost_sum": 22.6, "total_weighted_score": 23.98048138482386, "clustering_method": "hierarchical_jaccard", "distance_method": "jaccard", "direct_cluster_number": 3, "hierarchical_jaccard_cluster": "hier_jaccard_003", "hierarchical_jaccard_cluster_source": "hier_jaccard_004", "representative_route_run_id": "stl_midamerica_to_st_louis_union_station_2026-03-09_0068", "representative_mean_frechet_miles": 0.5707756462629188, "cluster_size": 44, "cluster_weight_space_percent": 29.72972972972973, "merged_cluster_id": "frechet_merged_002", "source_jaccard_clusters": "hier_jaccard_003"}, "geometry": {"type": "LineString", "coordinates": [[-89.83272609742262, 38.54503213945896], [-89.83845499191484, 38.54518713674757], [-89.84398707949187, 38.54984103165108], [-89.84951987896733, 38.55449469187918], [-89.85505339052077, 38.559148117300026], [-89.86058761433173, 38.563801307781745], [-89.86612255057987, 38.568454263192415], [-89.87165819944471, 38.57310698340007], [-89.87719456110594, 38.577759468272795], [-89.88273163574308, 38.582411717678575], [-89.88826942353593, 38.58706373148541], [-89.89380792466403, 38.591715509561276], [-89.89934713930707, 38.59636705177409], [-89.90508047722643, 38.59651895818466], [-89.91081385831642, 38.59667058421835], [-89.91654728249756, 38.596821929868824], [-89.92228074969049, 38.59697299512966], [-89.92801425981584, 38.59712377999449], [-89.93374781279411, 38.597274284457015], [-89.93948140854593, 38.5974245085108], [-89.94521504699188, 38.5975744521496], [-89.95094872805251, 38.59772411536704], [-89.95668245164843, 38.59787349815684], [-89.96241621770018, 38.59802260051268], [-89.96815002612831, 38.59817142242828], [-89.9738838768534, 38.59831996389739], [-89.97961776979602, 38.59846822491371], [-89.98535170487666, 38.59861620547102], [-89.99108568201598, 38.59876390556306], [-89.99681970113441, 38.59891132518362], [-90.00255376215256, 38.59905846432648], [-90.00828786499093, 38.59920532298544], [-90.01402200957008, 38.5993519011543], [-90.01994242379944, 38.594998317950704], [-90.02567629459381, 38.59514431175206], [-90.03141020688051, 38.59529002508962], [-90.03714416058007, 38.595435457957215], [-90.04287815561301, 38.59558061034875], [-90.04861219189988, 38.59572548225811], [-90.0543462693612, 38.59587007367915], [-90.06008038791752, 38.59601438460579], [-90.06581454748931, 38.596158415031965], [-90.07136573361876, 38.60080225453393], [-90.07691763405278, 38.60544585525359], [-90.08247024897021, 38.61008921705863], [-90.08802357854981, 38.61473233981663], [-90.09375937107193, 38.61487505899075], [-90.09949520417183, 38.615017497448825], [-90.10505004462816, 38.61965986513943], [-90.1106056001435, 38.62430199333239], [-90.11616187089658, 38.62894388189524], [-90.12171885706623, 38.633585530695484], [-90.12745632243416, 38.63372665579325], [-90.13319382794117, 38.633867499959656], [-90.13875232561846, 38.63850839203032], [-90.144490269036, 38.638648696766005], [-90.15004988039681, 38.64328909003685], [-90.15578826152439, 38.64342885514139], [-90.16152668241186, 38.64356833919522], [-90.16726514297947, 38.64370754219247], [-90.17300364314747, 38.64384646412727], [-90.17891876485407, 38.63948462409952], [-90.18465698596519, 38.639622961753446], [-90.19057107312773, 38.63526048909833], [-90.1964844444641, 38.63089768716567], [-90.2022220675363, 38.63103513769752], [-90.20795972970198, 38.63117230726659]]}}, {"type": "Feature", "properties": {"route_run_id": "stl_midamerica_to_st_louis_union_station_2026-03-09_0076", "route_pair": "midamerica_to_st_louis_union_station", "route_pair_label": "MidAmerica to St. Louis Union Station", "origin_label": "MidAmerica St. Louis Airport", "destination_label": "St. Louis Union Station", "origin_lat": 38.5451731, "origin_lon": -89.8351856, "destination_lat": 38.629167, "destination_lon": -90.2075, "traffic_date": "2026-03-09", "traffic_dataset": "March 9th - Monday", "weight_id": "w_0076", "distance_weight": 0.1, "population_weight": 0.0, "traffic_weight": 0.9, "airspace_weight": 0.0, "path_nodes": 69, "path_node_ids": [8877, 8861, 8864, 8865, 8866, 8863, 7715, 7713, 7714, 9726, 9727, 9729, 9728, 9719, 9718, 9716, 9717, 7794, 7793, 7795, 7796, 7804, 7803, 7805, 7813, 7814, 7811, 7812, 9817, 9816, 9819, 9818, 7905, 7901, 7902, 7903, 7916, 7915, 7914, 7913, 1933, 1931, 1932, 1917, 1943, 1946, 1970, 1983, 1998, 2003, 2000, 2191, 2194, 2193, 2192, 2185, 2184, 2186, 2421, 2205, 2450, 2451, 2369, 2375, 2399, 2401, 2406, 2729, 2715], "elapsed_seconds": 0.018125099973985925, "status": "success", "failure_reason": "", "route_distance_km": 49.00456878084652, "distance_cost_sum": 53.93269703187205, "population_cost_sum": 29.18730134339127, "traffic_cost_sum": 1.8881849111714815, "airspace_cost_sum": 38.6, "total_weighted_score": 7.0926361232415385, "clustering_method": "hierarchical_jaccard", "distance_method": "jaccard", "direct_cluster_number": 6, "hierarchical_jaccard_cluster": "hier_jaccard_006", "hierarchical_jaccard_cluster_source": "hier_jaccard_008", "representative_route_run_id": "stl_midamerica_to_st_louis_union_station_2026-03-09_0076", "representative_mean_frechet_miles": 0.5323096772698488, "cluster_size": 17, "cluster_weight_space_percent": 11.486486486486486, "merged_cluster_id": "frechet_merged_003", "source_jaccard_clusters": "hier_jaccard_006"}, "geometry": {"type": "LineString", "coordinates": [[-89.83272609742262, 38.54503213945896], [-89.83865215473445, 38.54068797977641], [-89.84438073740759, 38.54084267248963], [-89.8501093639971, 38.54099708543371], [-89.85583803442384, 38.541151218602124], [-89.86156674860865, 38.54130507198842], [-89.86729550647239, 38.541458645586076], [-89.87321929212519, 38.537112630177866], [-89.87894778130001, 38.537265619682024], [-89.88467631390589, 38.53741832942288], [-89.89040488986362, 38.53757075939403], [-89.89613350909408, 38.53772290958904], [-89.90186217151818, 38.537874780001516], [-89.90759087705666, 38.53802637062506], [-89.91331962563046, 38.538177681453305], [-89.91904841716038, 38.53832871247986], [-89.9247772515673, 38.53847946369838], [-89.93050612877201, 38.5386299351025], [-89.93623504869535, 38.538780126685914], [-89.94196401125822, 38.538930038442274], [-89.94769301638131, 38.53907967036528], [-89.95342206398557, 38.53922902244861], [-89.95915115399177, 38.53937809468601], [-89.9648802863207, 38.53952688707118], [-89.97060946089319, 38.53967539959786], [-89.97633867763007, 38.53982363225979], [-89.98206793645213, 38.53997158505075], [-89.98779723728013, 38.54011925796448], [-89.99352658003491, 38.54026665099478], [-89.99925596463726, 38.54041376413546], [-90.00498539100796, 38.54056059738029], [-90.0107148590678, 38.5407071507231], [-90.01625828288213, 38.545353332379484], [-90.022173919938, 38.540999417678], [-90.02790351258993, 38.54114513127777], [-90.03363314661406, 38.54129056495092], [-90.03917816039834, 38.54593572016105], [-90.04490823303483, 38.54608061716274], [-90.05063834681579, 38.54622523417469], [-90.05636850166194, 38.546369571190844], [-90.06209869749397, 38.54651362820512], [-90.06782893423272, 38.54665740521145], [-90.07355921179885, 38.54680090220377], [-90.07928953011304, 38.54694411917603], [-90.08483803609515, 38.551587237746496], [-90.09038725467427, 38.55623011778336], [-90.09593718602859, 38.5608727591544], [-90.1014878303364, 38.56551516172741], [-90.10703918777595, 38.57015732537014], [-90.11259125852546, 38.57479924995029], [-90.11832399892143, 38.57494064238296], [-90.12387718012955, 38.579582070024706], [-90.1296103575981, 38.57972292432643], [-90.13534357508938, 38.579863498234836], [-90.14107683252396, 38.580003791744], [-90.14681012982238, 38.58014380484799], [-90.15254346690519, 38.5802835375409], [-90.1580993457009, 38.58492343582021], [-90.16365593845713, 38.58956309408333], [-90.16921324535195, 38.59420251219789], [-90.17477126656355, 38.59884169003141], [-90.18033000227008, 38.60348062745143], [-90.18588945264969, 38.60811932432548], [-90.19144961788064, 38.61275778052102], [-90.19127398739786, 38.61725833052981], [-90.19683518607279, 38.62189656380297], [-90.19665983485031, 38.626397127556444], [-90.2022220675363, 38.63103513769752], [-90.20795972970198, 38.63117230726659]]}}, {"type": "Feature", "properties": {"route_run_id": "stl_midamerica_to_st_louis_union_station_2026-03-09_0267", "route_pair": "midamerica_to_st_louis_union_station", "route_pair_label": "MidAmerica to St. Louis Union Station", "origin_label": "MidAmerica St. Louis Airport", "destination_label": "St. Louis Union Station", "origin_lat": 38.5451731, "origin_lon": -89.8351856, "destination_lat": 38.629167, "destination_lon": -90.2075, "traffic_date": "2026-03-09", "traffic_dataset": "March 9th - Monday", "weight_id": "w_0267", "distance_weight": 0.6, "population_weight": 0.4, "traffic_weight": 0.0, "airspace_weight": 0.0, "path_nodes": 67, "path_node_ids": [8877, 8876, 8868, 8869, 8870, 8867, 9753, 9754, 9755, 9744, 9746, 9747, 9745, 9737, 9736, 9734, 9735, 9919, 9921, 9944, 9947, 9940, 9941, 9962, 9955, 9957, 9959, 9994, 9885, 9886, 9884, 9887, 9897, 9895, 9896, 9894, 9902, 9903, 9904, 9909, 2213, 2212, 2214, 1997, 1994, 1995, 1996, 2005, 2004, 2007, 2006, 2191, 2194, 2193, 2192, 2418, 2422, 2425, 2427, 2453, 2455, 2454, 2372, 2399, 2401, 2404, 2715], "elapsed_seconds": 0.012639300024602562, "status": "success", "failure_reason": "", "route_distance_km": 46.66599661404935, "distance_cost_sum": 51.35894712861125, "population_cost_sum": 17.364166724554934, "traffic_cost_sum": 13.818965585036251, "airspace_cost_sum": 38.0, "total_weighted_score": 37.76103496698872, "clustering_method": "hierarchical_jaccard", "distance_method": "jaccard", "direct_cluster_number": 8, "hierarchical_jaccard_cluster": "hier_jaccard_008", "hierarchical_jaccard_cluster_source": "hier_jaccard_005", "representative_route_run_id": "stl_midamerica_to_st_louis_union_station_2026-03-09_0267", "representative_mean_frechet_miles": 0.9462824279120066, "cluster_size": 13, "cluster_weight_space_percent": 8.783783783783784, "merged_cluster_id": "frechet_merged_004", "source_jaccard_clusters": "hier_jaccard_008"}, "geometry": {"type": "LineString", "coordinates": [[-89.83272609742262, 38.54503213945896], [-89.83845499191484, 38.54518713674757], [-89.84418393041321, 38.54534185422887], [-89.8499129128385, 38.54549629189633], [-89.85564193911159, 38.545650449743434], [-89.86137100915332, 38.54580432776372], [-89.86710012288452, 38.545957925950695], [-89.87282928022606, 38.546111244297876], [-89.8785584810987, 38.54626428279884], [-89.88428772542336, 38.54641704144712], [-89.8900170131208, 38.5465695202363], [-89.89574634411186, 38.54672171915994], [-89.90147571831739, 38.546873638211636], [-89.90720513565815, 38.54702527738502], [-89.91293459605497, 38.54717663667367], [-89.91866409942871, 38.54732771607122], [-89.92439364570006, 38.54747851557132], [-89.9301232347899, 38.54762903516762], [-89.93566171159593, 38.55227884253414], [-89.94120090063481, 38.55692841373979], [-89.94693132996858, 38.557078141522354], [-89.9526618018245, 38.55722758928637], [-89.95839231612332, 38.55737675702556], [-89.9641228727858, 38.55752564473363], [-89.96985347173262, 38.5576742524043], [-89.97539536640897, 38.56232230635172], [-89.98093797377864, 38.566970123410094], [-89.98648129402048, 38.57161770344731], [-89.99221313054706, 38.571765261757655], [-89.99794500899198, 38.571912539865146], [-90.00367692927587, 38.5720595377636], [-90.00940889131944, 38.572206255446844], [-90.01514089504332, 38.57235269290866], [-90.02087294036811, 38.5724988501429], [-90.02660502721452, 38.572644727143405], [-90.03233715550313, 38.57279032390402], [-90.0380693251546, 38.572935640418635], [-90.04380153608955, 38.57308067668109], [-90.04953378822863, 38.57322543268529], [-90.05508220119658, 38.57786994989744], [-90.06081489219632, 38.57801416845261], [-90.06654762417196, 38.57815810668649], [-90.072280397044, 38.57830176459299], [-90.07801321073313, 38.57844514216606], [-90.0837460651599, 38.578588239399664], [-90.08947896024489, 38.57873105628777], [-90.09521189590866, 38.57887359282438], [-90.10094487207182, 38.57901584900345], [-90.10667788865496, 38.579157824818985], [-90.11241094557855, 38.579299520265025], [-90.11814404276322, 38.57944093533558], [-90.12387718012955, 38.579582070024706], [-90.1296103575981, 38.57972292432643], [-90.13534357508938, 38.579863498234836], [-90.14107683252396, 38.580003791744], [-90.14663191796852, 38.58464420615243], [-90.15218771733517, 38.589284380730234], [-90.15774423080212, 38.593924315345014], [-90.16330145854758, 38.59856400986431], [-90.16885940074975, 38.60320346415569], [-90.17441805758689, 38.60784267808668], [-90.18015373543601, 38.6079811415637], [-90.18571350391167, 38.61261985640587], [-90.19127398739786, 38.61725833052981], [-90.19683518607279, 38.62189656380297], [-90.20239710011477, 38.62653455609276], [-90.20795972970198, 38.63117230726659]]}}, {"type": "Feature", "properties": {"route_run_id": "stl_midamerica_to_st_louis_union_station_2026-03-09_0241", "route_pair": "midamerica_to_st_louis_union_station", "route_pair_label": "MidAmerica to St. Louis Union Station", "origin_label": "MidAmerica St. Louis Airport", "destination_label": "St. Louis Union Station", "origin_lat": 38.5451731, "origin_lon": -89.8351856, "destination_lat": 38.629167, "destination_lon": -90.2075, "traffic_date": "2026-03-09", "traffic_dataset": "March 9th - Monday", "weight_id": "w_0241", "distance_weight": 0.5, "population_weight": 0.1, "traffic_weight": 0.3, "airspace_weight": 0.1, "path_nodes": 67, "path_node_ids": [8877, 8876, 8868, 8869, 8870, 8867, 9753, 9754, 9755, 9750, 9773, 9779, 9781, 9796, 9799, 10022, 10025, 10007, 10009, 10232, 10238, 10243, 10244, 10242, 10221, 10227, 10229, 10228, 10146, 10144, 10147, 10145, 10157, 10156, 10154, 10155, 10162, 10164, 10163, 10165, 2247, 2272, 2274, 2285, 2283, 2508, 2286, 2298, 2300, 2301, 2307, 2491, 2492, 2493, 2496, 2507, 2506, 2828, 2505, 2809, 2811, 2810, 2728, 2730, 2731, 2729, 2715], "elapsed_seconds": 0.013998899987200275, "status": "success", "failure_reason": "", "route_distance_km": 46.67985536954628, "distance_cost_sum": 51.37419958527094, "population_cost_sum": 21.857247490094956, "traffic_cost_sum": 8.697158050998796, "airspace_cost_sum": 26.00000000000002, "total_weighted_score": 33.08197195694461, "clustering_method": "hierarchical_jaccard", "distance_method": "jaccard", "direct_cluster_number": 12, "hierarchical_jaccard_cluster": "hier_jaccard_012", "hierarchical_jaccard_cluster_source": "hier_jaccard_011", "representative_route_run_id": "stl_midamerica_to_st_louis_union_station_2026-03-09_0241", "representative_mean_frechet_miles": 0.9454236642284757, "cluster_size": 5, "cluster_weight_space_percent": 3.3783783783783785, "merged_cluster_id": "frechet_merged_005", "source_jaccard_clusters": "hier_jaccard_012, hier_jaccard_017"}, "geometry": {"type": "LineString", "coordinates": [[-89.83272609742262, 38.54503213945896], [-89.83845499191484, 38.54518713674757], [-89.84418393041321, 38.54534185422887], [-89.8499129128385, 38.54549629189633], [-89.85564193911159, 38.545650449743434], [-89.86137100915332, 38.54580432776372], [-89.86710012288452, 38.545957925950695], [-89.87282928022606, 38.546111244297876], [-89.8785584810987, 38.54626428279884], [-89.88409336612811, 38.55091639101554], [-89.88962896320348, 38.555568263906835], [-89.89516527250416, 38.56021990134085], [-89.90070229420945, 38.5648713031856], [-89.9062400284988, 38.5695224693091], [-89.91177847555153, 38.57417339957938], [-89.91731763554708, 38.578824093864434], [-89.92304967583993, 38.578975062443455], [-89.92878175902374, 38.57912575080554], [-89.93432243108697, 38.58377569673078], [-89.93986381649326, 38.588425406220864], [-89.945405915422, 38.59307487914367], [-89.95113923958688, 38.593224518410075], [-89.95687260627673, 38.5933738772936], [-89.96260601541215, 38.59352295578797], [-89.96833946691376, 38.59367175388689], [-89.9740729607021, 38.59382027158407], [-89.97980649669776, 38.593968508873274], [-89.98554007482124, 38.594116465748236], [-89.99127369499321, 38.59426414220273], [-89.99700735713421, 38.594411538230524], [-90.00274106116477, 38.59455865382544], [-90.00847480700546, 38.59470548898121], [-90.01420859457684, 38.5948520436917], [-90.01994242379944, 38.594998317950704], [-90.02567629459381, 38.59514431175206], [-90.03141020688051, 38.59529002508962], [-90.03714416058007, 38.595435457957215], [-90.04287815561301, 38.59558061034875], [-90.04861219189988, 38.59572548225811], [-90.0543462693612, 38.59587007367915], [-90.05989665933384, 38.60051442812264], [-90.06544776357148, 38.60515854396957], [-90.07099958225297, 38.609802421087586], [-90.07673489520826, 38.60994595939966], [-90.08247024897021, 38.61008921705863], [-90.08802357854981, 38.61473233981663], [-90.09375937107193, 38.61487505899075], [-90.09949520417183, 38.615017497448825], [-90.10505004462816, 38.61965986513943], [-90.11078631613944, 38.61980176485522], [-90.11634226958749, 38.624443634935055], [-90.1220789793104, 38.62458499570804], [-90.12781572923257, 38.62472607564535], [-90.13355251927439, 38.62486687474105], [-90.13911038141684, 38.62950773017495], [-90.14484760917111, 38.62964799001386], [-90.15058487681573, 38.629787968948484], [-90.156322184271, 38.62992766697294], [-90.16205953145733, 38.63006708408134], [-90.16779691829495, 38.630206220267794], [-90.17353434470424, 38.6303450755264], [-90.17927181060547, 38.63048364985134], [-90.185009315919, 38.63062194323676], [-90.1907468605651, 38.6307599556768], [-90.1964844444641, 38.63089768716567], [-90.2022220675363, 38.63103513769752], [-90.20795972970198, 38.63117230726659]]}}]}