{"type": "FeatureCollection", "features": [{"type": "Feature", "properties": {"route_run_id": "stl_midamerica_to_st_louis_lambert_2026-03-09_0226", "route_pair": "midamerica_to_st_louis_lambert", "route_pair_label": "MidAmerica to St. Louis Lambert", "origin_label": "MidAmerica St. Louis Airport", "destination_label": "St. Louis Lambert International Airport", "origin_lat": 38.5451731, "origin_lon": -89.8351856, "destination_lat": 38.7486982, "destination_lon": -90.3700257, "traffic_date": "2026-03-09", "traffic_dataset": "March 9th - Monday", "weight_id": "w_0226", "distance_weight": 0.4, "population_weight": 0.4, "traffic_weight": 0.0, "airspace_weight": 0.2, "path_nodes": 98, "path_node_ids": [8877, 8881, 8904, 8922, 8923, 8927, 9145, 10016, 10018, 10062, 10055, 10058, 10094, 10096, 10103, 10104, 10110, 10109, 10516, 10515, 10514, 10517, 10522, 10299, 10300, 10301, 10309, 10308, 10533, 10363, 10350, 10351, 10366, 10376, 10374, 10379, 10614, 10407, 10410, 10411, 10408, 2604, 2605, 2606, 2603, 10715, 10714, 10713, 10722, 2597, 10723, 2596, 2876, 2875, 2874, 2873, 2885, 2886, 2884, 2883, 2890, 2891, 2895, 3904, 3925, 3926, 3931, 3951, 3954, 3953, 3966, 3944, 3977, 3976, 3941, 4043, 4066, 4067, 4068, 4185, 4187, 4186, 4076, 4075, 4082, 4084, 5080, 5084, 5310, 5311, 5337, 5320, 5322, 5323, 5346, 5357, 5358, 5364], "elapsed_seconds": 0.04472219999297522, "status": "success", "failure_reason": "", "route_distance_km": 73.20963090489165, "distance_cost_sum": 80.57193322251891, "population_cost_sum": 16.535156841253748, "traffic_cost_sum": 32.547353465757155, "airspace_cost_sum": 51.4, "total_weighted_score": 49.12283602550907, "clustering_method": "hierarchical_jaccard", "distance_method": "jaccard", "direct_cluster_number": 1, "hierarchical_jaccard_cluster": "hier_jaccard_001", "hierarchical_jaccard_cluster_source": "hier_jaccard_001", "representative_route_run_id": "stl_midamerica_to_st_louis_lambert_2026-03-09_0226", "representative_mean_frechet_miles": 1.3584942246084044, "cluster_size": 77, "cluster_weight_space_percent": 38.69346733668342, "merged_cluster_id": "frechet_merged_001", "source_jaccard_clusters": "hier_jaccard_001"}, "geometry": {"type": "LineString", "coordinates": [[-89.83272609742262, 38.54503213945896], [-89.83252853470323, 38.54953126729425], [-89.83806053424684, 38.55418543772932], [-89.84359324582596, 38.558839373542895], [-89.84912666962028, 38.563493074603095], [-89.85466080580946, 38.568146540778045], [-89.86019565457306, 38.572799771935806], [-89.86573121609086, 38.57745276794444], [-89.87126749054252, 38.58210552867199], [-89.8768044781077, 38.58675805398646], [-89.88234217896623, 38.591410343755804], [-89.8878805932977, 38.59606239784802], [-89.89341972128202, 38.600714216131045], [-89.89895956309883, 38.60536579847276], [-89.90450011892796, 38.61001714474108], [-89.91004138894921, 38.614668254803874], [-89.9155833733424, 38.61931912852895], [-89.92131862594731, 38.619470314708934], [-89.9268617252078, 38.624120695492145], [-89.93259742104341, 38.62427134452904], [-89.93833315971467, 38.6244217128885], [-89.94406894114202, 38.62457180056415], [-89.94980476524591, 38.62472160754967], [-89.95554063194687, 38.62487113383877], [-89.96127654116528, 38.62502037942509], [-89.96701249282155, 38.625169344302385], [-89.97274848683627, 38.62531802846435], [-89.97848452312972, 38.62546643190471], [-89.98403193705393, 38.63011426460664], [-89.98958006609531, 38.63476185964426], [-89.99531694389556, 38.63490946811138], [-90.00105386367663, 38.63505679574229], [-90.00660350731387, 38.63970363840778], [-90.01234086854143, 38.63985042783196], [-90.01807827152109, 38.63999693635645], [-90.02362942973669, 38.64464302594129], [-90.0291813036891, 38.64928887709267], [-90.03473389355781, 38.653934489678136], [-90.04028719952224, 38.658579863565194], [-90.04602624200047, 38.65872506038847], [-90.05176532579277, 38.658869976095644], [-90.05750445081951, 38.65901461068064], [-90.06324361700084, 38.65915896413734], [-90.06898282425709, 38.65930303645963], [-90.07472207250845, 38.65944682764147], [-90.08046136167522, 38.65959033767675], [-90.0862006916776, 38.659733566559446], [-90.09194006243584, 38.659876514283475], [-90.09767947387014, 38.66001918084284], [-90.10341892590075, 38.66016156623149], [-90.1091584184479, 38.66030367044341], [-90.11489795143179, 38.66044549347263], [-90.12063752477266, 38.66058703531315], [-90.1263771383907, 38.66072829595899], [-90.1321167922061, 38.660869275404174], [-90.13785648613919, 38.66100997364278], [-90.14359622011, 38.661150390668844], [-90.14933599403881, 38.66129052647644], [-90.15507580784583, 38.66143038105964], [-90.16081566145125, 38.66156995441258], [-90.16655555477524, 38.661709246529334], [-90.17229548773797, 38.66184825740402], [-90.17785868094164, 38.666487447153536], [-90.18342259105025, 38.67112639580074], [-90.1889872182426, 38.67576510321293], [-90.19472838451095, 38.67590305525546], [-90.2002941269196, 38.68054126191918], [-90.20586058678872, 38.68517922698935], [-90.21142776429718, 38.68981695033316], [-90.2171701635404, 38.68995384239636], [-90.2229126017605, 38.690090452895454], [-90.22865507887754, 38.69022678182468], [-90.23439759481155, 38.69036282917826], [-90.24014014948251, 38.69049859495047], [-90.24605541323987, 38.68613337677085], [-90.2517976862147, 38.68626855773688], [-90.25736804511756, 38.69090420272148], [-90.26311075393669, 38.69103884211091], [-90.26868222818311, 38.695673984376505], [-90.27425442059507, 38.700308883813186], [-90.27999796237877, 38.700442721166475], [-90.28574154227802, 38.70057627680287], [-90.29148516021279, 38.700709550716724], [-90.297228816103, 38.700842542902386], [-90.30280331580018, 38.70547615766316], [-90.30837853409372, 38.710109528957155], [-90.31395447116216, 38.71474265665128], [-90.31378588266769, 38.71924359100243], [-90.31936286061908, 38.72387649197406], [-90.32494055786266, 38.72850914903958], [-90.330518974577, 38.7331415620659], [-90.33626541075455, 38.733272728767844], [-90.3420118843105, 38.73340361338185], [-90.34775839516463, 38.73353421590239], [-90.35333872308522, 38.73816560113835], [-90.35908566820065, 38.73829566025279], [-90.36466711306467, 38.742926539503976], [-90.37024927800739, 38.74755717394432]]}}, {"type": "Feature", "properties": {"route_run_id": "stl_midamerica_to_st_louis_lambert_2026-03-09_0069", "route_pair": "midamerica_to_st_louis_lambert", "route_pair_label": "MidAmerica to St. Louis Lambert", "origin_label": "MidAmerica St. Louis Airport", "destination_label": "St. Louis Lambert International Airport", "origin_lat": 38.5451731, "origin_lon": -89.8351856, "destination_lat": 38.7486982, "destination_lon": -90.3700257, "traffic_date": "2026-03-09", "traffic_dataset": "March 9th - Monday", "weight_id": "w_0069", "distance_weight": 0.1, "population_weight": 0.0, "traffic_weight": 0.2, "airspace_weight": 0.7, "path_nodes": 96, "path_node_ids": [8877, 8876, 8892, 8897, 8899, 8926, 9788, 10013, 10014, 10036, 10052, 10054, 10061, 10051, 10049, 10048, 10050, 10253, 10252, 10241, 10240, 10248, 10246, 10247, 10245, 10231, 10230, 10262, 10150, 10148, 10149, 10151, 10161, 10156, 10154, 10155, 10162, 10164, 10163, 10165, 2244, 2246, 2268, 2278, 2283, 2508, 2286, 2298, 2300, 2304, 2531, 2819, 2820, 2822, 2825, 2836, 2848, 2850, 2837, 2859, 2858, 2815, 2759, 2758, 2761, 2764, 2783, 2781, 2782, 2784, 2775, 2802, 2805, 3917, 4005, 4010, 4013, 4012, 4021, 4045, 4047, 4058, 4062, 4077, 4079, 5077, 5081, 5083, 5306, 5303, 5318, 5323, 5321, 5357, 5358, 5364], "elapsed_seconds": 0.054606899997452274, "status": "success", "failure_reason": "", "route_distance_km": 72.97107486094428, "distance_cost_sum": 80.30938686891513, "population_cost_sum": 48.211733407467264, "traffic_cost_sum": 15.158559974728458, "airspace_cost_sum": 46.6, "total_weighted_score": 43.68265068183722, "clustering_method": "hierarchical_jaccard", "distance_method": "jaccard", "direct_cluster_number": 2, "hierarchical_jaccard_cluster": "hier_jaccard_002", "hierarchical_jaccard_cluster_source": "hier_jaccard_005", "representative_route_run_id": "stl_midamerica_to_st_louis_lambert_2026-03-09_0069", "representative_mean_frechet_miles": 0.5359476066491651, "cluster_size": 43, "cluster_weight_space_percent": 21.608040201005025, "merged_cluster_id": "frechet_merged_002", "source_jaccard_clusters": "hier_jaccard_002"}, "geometry": {"type": "LineString", "coordinates": [[-89.83272609742262, 38.54503213945896], [-89.83845499191484, 38.54518713674757], [-89.84398707949187, 38.54984103165108], [-89.84951987896733, 38.55449469187918], [-89.85505339052077, 38.559148117300026], [-89.86058761433173, 38.563801307781745], [-89.86612255057987, 38.568454263192415], [-89.87165819944471, 38.57310698340007], [-89.87719456110594, 38.577759468272795], [-89.88273163574308, 38.582411717678575], [-89.88826942353593, 38.58706373148541], [-89.89380792466403, 38.591715509561276], [-89.89934713930707, 38.59636705177409], [-89.90508047722643, 38.59651895818466], [-89.91081385831642, 38.59667058421835], [-89.91654728249756, 38.596821929868824], [-89.92228074969049, 38.59697299512966], [-89.92801425981584, 38.59712377999449], [-89.93374781279411, 38.597274284457015], [-89.93948140854593, 38.5974245085108], [-89.94521504699188, 38.5975744521496], [-89.95094872805251, 38.59772411536704], [-89.95668245164843, 38.59787349815684], [-89.96241621770018, 38.59802260051268], [-89.96815002612831, 38.59817142242828], [-89.9738838768534, 38.59831996389739], [-89.97961776979602, 38.59846822491371], [-89.98535170487666, 38.59861620547102], [-89.99108568201598, 38.59876390556306], [-89.99681970113441, 38.59891132518362], [-90.00255376215256, 38.59905846432648], [-90.00828786499093, 38.59920532298544], [-90.01402200957008, 38.5993519011543], [-90.01994242379944, 38.594998317950704], [-90.02567629459381, 38.59514431175206], [-90.03141020688051, 38.59529002508962], [-90.03714416058007, 38.595435457957215], [-90.04287815561301, 38.59558061034875], [-90.04861219189988, 38.59572548225811], [-90.0543462693612, 38.59587007367915], [-90.06008038791752, 38.59601438460579], [-90.06581454748931, 38.596158415031965], [-90.07136573361876, 38.60080225453393], [-90.07691763405278, 38.60544585525359], [-90.08247024897021, 38.61008921705863], [-90.08802357854981, 38.61473233981663], [-90.09375937107193, 38.61487505899075], [-90.09949520417183, 38.615017497448825], [-90.10505004462816, 38.61965986513943], [-90.1106056001435, 38.62430199333239], [-90.11616187089658, 38.62894388189524], [-90.12171885706623, 38.633585530695484], [-90.12745632243416, 38.63372665579325], [-90.13319382794117, 38.633867499959656], [-90.13875232561846, 38.63850839203032], [-90.144490269036, 38.638648696766005], [-90.15004988039681, 38.64328909003685], [-90.15578826152439, 38.64342885514139], [-90.16152668241186, 38.64356833919522], [-90.16726514297947, 38.64370754219247], [-90.17300364314747, 38.64384646412727], [-90.17891876485407, 38.63948462409952], [-90.18465698596519, 38.639622961753446], [-90.19039524642797, 38.63976101837225], [-90.19595803822843, 38.6443993411247], [-90.20152154619295, 38.649037422694946], [-90.20726064042472, 38.64917468009371], [-90.2129997737081, 38.64931165634433], [-90.21873894596322, 38.64944835144101], [-90.22430436189018, 38.65408541385767], [-90.23004397010321, 38.6542215684137], [-90.23561049969246, 38.65885812963025], [-90.24117774605664, 38.663494448894866], [-90.24674570937407, 38.66813052607476], [-90.25248654742752, 38.668265620562565], [-90.25805562494689, 38.67290119572174], [-90.26362541979505, 38.67753652843763], [-90.26936709031678, 38.677670821751065], [-90.2751087990677, 38.67780483358376], [-90.28068010542587, 38.682439403593555], [-90.28625212950666, 38.68707373070842], [-90.29182487148844, 38.69170781479548], [-90.29739833154962, 38.69634165572174], [-90.30297250986867, 38.70097525335427], [-90.30854740662397, 38.70560860756003], [-90.31412302199392, 38.71024171820601], [-90.31969935615703, 38.71487458515916], [-90.32527640929177, 38.719507208286444], [-90.33102172891115, 38.71963859401861], [-90.33659989825608, 38.72427071220935], [-90.34217878694776, 38.72890258621499], [-90.34775839516463, 38.73353421590239], [-90.35350494323681, 38.73366453632395], [-90.35908566820065, 38.73829566025279], [-90.36466711306467, 38.742926539503976], [-90.37024927800739, 38.74755717394432]]}}, {"type": "Feature", "properties": {"route_run_id": "stl_midamerica_to_st_louis_lambert_2026-03-09_0180", "route_pair": "midamerica_to_st_louis_lambert", "route_pair_label": "MidAmerica to St. Louis Lambert", "origin_label": "MidAmerica St. Louis Airport", "destination_label": "St. Louis Lambert International Airport", "origin_lat": 38.5451731, "origin_lon": -89.8351856, "destination_lat": 38.7486982, "destination_lon": -90.3700257, "traffic_date": "2026-03-09", "traffic_dataset": "March 9th - Monday", "weight_id": "w_0180", "distance_weight": 0.3, "population_weight": 0.1, "traffic_weight": 0.4, "airspace_weight": 0.2, "path_nodes": 97, "path_node_ids": [8877, 8881, 8904, 8922, 8923, 8927, 9145, 10016, 10018, 10062, 10055, 10058, 10094, 10096, 10103, 10104, 10110, 10109, 10291, 10512, 10290, 10289, 10294, 10281, 10292, 10293, 10304, 10303, 10302, 10315, 10316, 10317, 10314, 10207, 10206, 10204, 10205, 10323, 10328, 10329, 10327, 2548, 2550, 2556, 2549, 2542, 2546, 2579, 2560, 2564, 2567, 2566, 2844, 2842, 2846, 2869, 2885, 2886, 4087, 4090, 2897, 4095, 4096, 3932, 3930, 3934, 3957, 3965, 3954, 3969, 3971, 4296, 4300, 4316, 4304, 4219, 4224, 4222, 4223, 4231, 4232, 4234, 4266, 4269, 4272, 4271, 5343, 5365, 5370, 5369, 5353, 5352, 5375, 5376, 5588, 5362, 5364], "elapsed_seconds": 0.04989750002278015, "status": "success", "failure_reason": "", "route_distance_km": 73.9003223713432, "distance_cost_sum": 81.33208384784565, "population_cost_sum": 25.422087839776353, "traffic_cost_sum": 17.03185371789996, "airspace_cost_sum": 50.4, "total_weighted_score": 43.83457542549132, "clustering_method": "hierarchical_jaccard", "distance_method": "jaccard", "direct_cluster_number": 4, "hierarchical_jaccard_cluster": "hier_jaccard_004", "hierarchical_jaccard_cluster_source": "hier_jaccard_003", "representative_route_run_id": "stl_midamerica_to_st_louis_lambert_2026-03-09_0180", "representative_mean_frechet_miles": 1.1371636954021942, "cluster_size": 31, "cluster_weight_space_percent": 15.577889447236181, "merged_cluster_id": "frechet_merged_003", "source_jaccard_clusters": "hier_jaccard_004"}, "geometry": {"type": "LineString", "coordinates": [[-89.83272609742262, 38.54503213945896], [-89.83252853470323, 38.54953126729425], [-89.83806053424684, 38.55418543772932], [-89.84359324582596, 38.558839373542895], [-89.84912666962028, 38.563493074603095], [-89.85466080580946, 38.568146540778045], [-89.86019565457306, 38.572799771935806], [-89.86573121609086, 38.57745276794444], [-89.87126749054252, 38.58210552867199], [-89.8768044781077, 38.58675805398646], [-89.88234217896623, 38.591410343755804], [-89.8878805932977, 38.59606239784802], [-89.89341972128202, 38.600714216131045], [-89.89895956309883, 38.60536579847276], [-89.90450011892796, 38.61001714474108], [-89.91004138894921, 38.614668254803874], [-89.9155833733424, 38.61931912852895], [-89.92131862594731, 38.619470314708934], [-89.92705392153653, 38.61962122026898], [-89.93278926003055, 38.619771845202735], [-89.93852464134986, 38.619922189503846], [-89.94445114702152, 38.615572701498955], [-89.95018625645967, 38.61572246055001], [-89.9559214084743, 38.61587193899423], [-89.9616566029858, 38.61602113682532], [-89.96739183991471, 38.61617005403699], [-89.97312711918148, 38.61631869062297], [-89.97886244070665, 38.616467046576965], [-89.9845978044106, 38.61661512189275], [-89.9903332102139, 38.61676291656407], [-89.99606865803695, 38.61691043058469], [-90.00180414780024, 38.61705766394838], [-90.00753967942423, 38.617204616648934], [-90.01327525282936, 38.61735128868017], [-90.01901086793612, 38.61749768003589], [-90.02474652466493, 38.617643790709906], [-90.03048222293627, 38.617789620696094], [-90.03621796267052, 38.617935169988264], [-90.04176873755169, 38.622580391570615], [-90.04750491743872, 38.62272540266021], [-90.05324113855997, 38.6228701329926], [-90.0587934259509, 38.627514600818145], [-90.06434642856152, 38.63215882981023], [-90.0699001465709, 38.63680281983647], [-90.07582058868887, 38.63244641710234], [-90.08155773007638, 38.632589789435436], [-90.08711264394572, 38.63723300565962], [-90.09266827345223, 38.64187598250663], [-90.09840625259658, 38.64201855779177], [-90.10396299643912, 38.64666103690741], [-90.10970141459032, 38.646803072928776], [-90.11543987314892, 38.64694482790208], [-90.12117837203515, 38.64708630182135], [-90.12691691116937, 38.64722749468063], [-90.13247596448461, 38.65186870029378], [-90.13803573407188, 38.656509665667386], [-90.14359622011, 38.661150390668844], [-90.14933599403881, 38.66129052647644], [-90.15489759495433, 38.66593075212527], [-90.16045991269797, 38.67057073704366], [-90.16620052287892, 38.67071007373663], [-90.17194117271791, 38.67084912909773], [-90.17750500383, 38.67548835493302], [-90.18306955216653, 38.68012733958649], [-90.18881103775325, 38.6802655951445], [-90.19437670160657, 38.684904079111234], [-90.19994308306117, 38.6895423215376], [-90.20568540411075, 38.68967977671165], [-90.21142776429718, 38.68981695033316], [-90.2169956596237, 38.69445443181779], [-90.22256427294727, 38.69909167131035], [-90.2281336044467, 38.703728668678], [-90.23370365430087, 38.7083654237878], [-90.23927442268875, 38.7130019365068], [-90.24501881182105, 38.71313752908794], [-90.2505906969557, 38.71777353910775], [-90.25616330100053, 38.722409306377784], [-90.26190852470229, 38.72254409659578], [-90.26765378680629, 38.72267860488892], [-90.27339908723236, 38.72281283125151], [-90.27914442590036, 38.722946775677876], [-90.2847193406125, 38.72758125811188], [-90.29029497466699, 38.7322154971579], [-90.29587132824253, 38.736849492682836], [-90.30144840151804, 38.74148324455354], [-90.30719536932796, 38.74161586401971], [-90.31294237493563, 38.74174820133574], [-90.31868941826086, 38.741880256496025], [-90.32426840457497, 38.74651298146582], [-90.3300158831152, 38.74664449332567], [-90.33576339914136, 38.74677572296801], [-90.34151095257313, 38.74690667038728], [-90.34725854333031, 38.74703733557797], [-90.35283983971358, 38.7516687711157], [-90.35858786502698, 38.75179889263772], [-90.36450153875144, 38.7474276377232], [-90.37024927800739, 38.74755717394432]]}}, {"type": "Feature", "properties": {"route_run_id": "stl_midamerica_to_st_louis_lambert_2026-03-09_0183", "route_pair": "midamerica_to_st_louis_lambert", "route_pair_label": "MidAmerica to St. Louis Lambert", "origin_label": "MidAmerica St. Louis Airport", "destination_label": "St. Louis Lambert International Airport", "origin_lat": 38.5451731, "origin_lon": -89.8351856, "destination_lat": 38.7486982, "destination_lon": -90.3700257, "traffic_date": "2026-03-09", "traffic_dataset": "March 9th - Monday", "weight_id": "w_0183", "distance_weight": 0.3, "population_weight": 0.2, "traffic_weight": 0.0, "airspace_weight": 0.5, "path_nodes": 97, "path_node_ids": [8877, 8881, 8904, 8922, 8923, 8927, 9145, 10016, 10018, 10062, 10055, 10058, 10094, 10096, 10103, 10104, 10110, 10109, 10291, 10512, 10290, 10513, 10298, 10295, 10296, 10297, 10307, 10305, 10306, 10319, 10321, 10320, 10318, 10211, 10210, 10208, 10209, 10326, 10328, 10329, 10327, 2522, 2524, 2523, 2514, 2517, 2515, 2516, 2530, 2534, 2532, 2558, 2840, 2839, 2838, 2827, 2849, 2848, 2850, 2837, 2861, 2866, 2889, 3896, 3898, 3901, 3902, 3914, 3948, 3947, 3952, 3940, 3942, 3943, 3941, 4043, 4042, 4041, 4040, 4051, 4054, 4186, 4080, 4205, 4207, 4212, 5309, 5313, 5335, 5337, 5320, 5322, 5323, 5346, 5357, 5358, 5364], "elapsed_seconds": 0.057495699991704896, "status": "success", "failure_reason": "", "route_distance_km": 72.29260468015718, "distance_cost_sum": 79.56268655880336, "population_cost_sum": 22.4028729657628, "traffic_cost_sum": 33.10092674539289, "airspace_cost_sum": 47.6, "total_weighted_score": 52.14938056079359, "clustering_method": "hierarchical_jaccard", "distance_method": "jaccard", "direct_cluster_number": 5, "hierarchical_jaccard_cluster": "hier_jaccard_005", "hierarchical_jaccard_cluster_source": "hier_jaccard_004", "representative_route_run_id": "stl_midamerica_to_st_louis_lambert_2026-03-09_0183", "representative_mean_frechet_miles": 0.9691555837997529, "cluster_size": 26, "cluster_weight_space_percent": 13.06532663316583, "merged_cluster_id": "frechet_merged_004", "source_jaccard_clusters": "hier_jaccard_005"}, "geometry": {"type": "LineString", "coordinates": [[-89.83272609742262, 38.54503213945896], [-89.83252853470323, 38.54953126729425], [-89.83806053424684, 38.55418543772932], [-89.84359324582596, 38.558839373542895], [-89.84912666962028, 38.563493074603095], [-89.85466080580946, 38.568146540778045], [-89.86019565457306, 38.572799771935806], [-89.86573121609086, 38.57745276794444], [-89.87126749054252, 38.58210552867199], [-89.8768044781077, 38.58675805398646], [-89.88234217896623, 38.591410343755804], [-89.8878805932977, 38.59606239784802], [-89.89341972128202, 38.600714216131045], [-89.89895956309883, 38.60536579847276], [-89.90450011892796, 38.61001714474108], [-89.91004138894921, 38.614668254803874], [-89.9155833733424, 38.61931912852895], [-89.92131862594731, 38.619470314708934], [-89.92705392153653, 38.61962122026898], [-89.93278926003055, 38.619771845202735], [-89.93852464134986, 38.619922189503846], [-89.9442600654149, 38.62007225316597], [-89.94999553214618, 38.62022203618278], [-89.95573104146416, 38.620371538547964], [-89.96146659328937, 38.6205207602552], [-89.96720218754218, 38.620669701298226], [-89.97293782414316, 38.62081836167072], [-89.97867350301271, 38.62096674136646], [-89.98440922407127, 38.621114840379136], [-89.99014498723932, 38.62126265870254], [-89.99588079243732, 38.621410196330416], [-90.00161663958568, 38.62155745325657], [-90.00735252860491, 38.621704429474754], [-90.01308845941536, 38.6218511249788], [-90.01882443193752, 38.62199753976251], [-90.0245604460918, 38.62214367381969], [-90.03029650179865, 38.62228952714421], [-90.03603259897847, 38.622435099729884], [-90.04176873755169, 38.622580391570615], [-90.04750491743872, 38.62272540266021], [-90.05324113855997, 38.6228701329926], [-90.0589774008359, 38.62301458256169], [-90.06471370418684, 38.62315875136136], [-90.07045004853325, 38.62330263938551], [-90.07618643379548, 38.623446246628106], [-90.08192285989396, 38.62358957308307], [-90.08765932674906, 38.623732618744384], [-90.09339583428118, 38.623875383605984], [-90.09895091075838, 38.62851804648185], [-90.10450670259345, 38.633160469873815], [-90.1102440470662, 38.63330243772981], [-90.11580095263906, 38.63794436326609], [-90.12135857394713, 38.64258604896054], [-90.12709675507955, 38.642727219229855], [-90.13283497637043, 38.64286810847808], [-90.13857323774008, 38.64300871669927], [-90.14431153910874, 38.643149043887504], [-90.15004988039681, 38.64328909003685], [-90.15578826152439, 38.64342885514139], [-90.16152668241186, 38.64356833919522], [-90.16708780535298, 38.6482079745162], [-90.17264964452228, 38.6528473690797], [-90.17821220009857, 38.65748652275311], [-90.18377547226044, 38.66212543540375], [-90.18933946118675, 38.666764106898924], [-90.19490416705614, 38.67140253710589], [-90.200645013987, 38.67154018571967], [-90.20621083477218, 38.67617811511645], [-90.21177737287698, 38.68081580286656], [-90.21751905445252, 38.68095265114052], [-90.22308670781703, 38.685589837485246], [-90.22882882604138, 38.685726144608395], [-90.23457098307328, 38.6858621702009], [-90.24031317883275, 38.68599791425695], [-90.24605541323987, 38.68613337677085], [-90.2517976862147, 38.68626855773688], [-90.25753999767723, 38.686403457149304], [-90.26328234754749, 38.686538075002424], [-90.26902473574555, 38.686672411290566], [-90.27459628650614, 38.69130727605424], [-90.2801685552908, 38.695941897935995], [-90.28574154227802, 38.70057627680287], [-90.29131524764634, 38.705210412521886], [-90.29688967157429, 38.70984430496006], [-90.30246481424038, 38.714477953984364], [-90.30804067582325, 38.71911135946174], [-90.31361725650144, 38.72374452125915], [-90.3191945564535, 38.72837743924346], [-90.3247725758581, 38.73301011328159], [-90.330518974577, 38.7331415620659], [-90.33626541075455, 38.733272728767844], [-90.3420118843105, 38.73340361338185], [-90.34775839516463, 38.73353421590239], [-90.35333872308522, 38.73816560113835], [-90.35908566820065, 38.73829566025279], [-90.36466711306467, 38.742926539503976], [-90.37024927800739, 38.74755717394432]]}}, {"type": "Feature", "properties": {"route_run_id": "stl_midamerica_to_st_louis_lambert_2026-03-09_0080", "route_pair": "midamerica_to_st_louis_lambert", "route_pair_label": "MidAmerica to St. Louis Lambert", "origin_label": "MidAmerica St. Louis Airport", "destination_label": "St. Louis Lambert International Airport", "origin_lat": 38.5451731, "origin_lon": -89.8351856, "destination_lat": 38.7486982, "destination_lon": -90.3700257, "traffic_date": "2026-03-09", "traffic_dataset": "March 9th - Monday", "weight_id": "w_0080", "distance_weight": 0.1, "population_weight": 0.1, "traffic_weight": 0.3, "airspace_weight": 0.5, "path_nodes": 97, "path_node_ids": [8877, 8881, 8904, 8922, 8923, 8927, 9145, 10016, 10018, 10062, 10055, 10058, 10094, 10096, 10103, 10104, 10110, 10109, 10516, 10512, 10290, 10289, 10294, 10281, 10292, 10293, 10304, 10303, 10302, 10315, 10316, 10312, 10181, 10199, 10193, 10158, 10155, 10162, 10164, 10163, 10165, 2247, 2272, 2274, 2509, 2283, 2508, 2286, 2298, 2300, 2304, 2531, 2819, 2820, 2822, 2825, 2836, 2848, 2850, 2837, 2859, 2858, 2860, 2759, 2758, 2761, 2764, 2783, 2781, 2782, 2784, 2775, 2798, 2776, 2777, 3989, 3993, 4006, 4008, 4021, 4045, 4047, 4058, 4062, 4077, 4079, 5077, 5081, 5083, 5306, 5303, 5318, 5323, 5321, 5357, 5358, 5364], "elapsed_seconds": 0.055491200007963926, "status": "success", "failure_reason": "", "route_distance_km": 77.0797677742194, "distance_cost_sum": 84.83126912605017, "population_cost_sum": 37.7122296779533, "traffic_cost_sum": 15.328127256766365, "airspace_cost_sum": 46.6, "total_weighted_score": 40.15278805743027, "clustering_method": "hierarchical_jaccard", "distance_method": "jaccard", "direct_cluster_number": 6, "hierarchical_jaccard_cluster": "hier_jaccard_006", "hierarchical_jaccard_cluster_source": "hier_jaccard_006", "representative_route_run_id": "stl_midamerica_to_st_louis_lambert_2026-03-09_0080", "representative_mean_frechet_miles": 1.6015287901700759, "cluster_size": 11, "cluster_weight_space_percent": 5.527638190954774, "merged_cluster_id": "frechet_merged_005", "source_jaccard_clusters": "hier_jaccard_006"}, "geometry": {"type": "LineString", "coordinates": [[-89.83272609742262, 38.54503213945896], [-89.83252853470323, 38.54953126729425], [-89.83806053424684, 38.55418543772932], [-89.84359324582596, 38.558839373542895], [-89.84912666962028, 38.563493074603095], [-89.85466080580946, 38.568146540778045], [-89.86019565457306, 38.572799771935806], [-89.86573121609086, 38.57745276794444], [-89.87126749054252, 38.58210552867199], [-89.8768044781077, 38.58675805398646], [-89.88234217896623, 38.591410343755804], [-89.8878805932977, 38.59606239784802], [-89.89341972128202, 38.600714216131045], [-89.89895956309883, 38.60536579847276], [-89.90450011892796, 38.61001714474108], [-89.91004138894921, 38.614668254803874], [-89.9155833733424, 38.61931912852895], [-89.92131862594731, 38.619470314708934], [-89.9268617252078, 38.624120695492145], [-89.93278926003055, 38.619771845202735], [-89.93852464134986, 38.619922189503846], [-89.94445114702152, 38.615572701498955], [-89.95018625645967, 38.61572246055001], [-89.9559214084743, 38.61587193899423], [-89.9616566029858, 38.61602113682532], [-89.96739183991471, 38.61617005403699], [-89.97312711918148, 38.61631869062297], [-89.97886244070665, 38.616467046576965], [-89.9845978044106, 38.61661512189275], [-89.9903332102139, 38.61676291656407], [-89.99606865803695, 38.61691043058469], [-90.00199161415404, 38.61255787040093], [-90.00772678846238, 38.612704799586744], [-90.01364871456262, 38.60835160338281], [-90.01956992623981, 38.60399807547383], [-90.02549042363282, 38.599644215997024], [-90.03141020688051, 38.59529002508962], [-90.03714416058007, 38.595435457957215], [-90.04287815561301, 38.59558061034875], [-90.04861219189988, 38.59572548225811], [-90.0543462693612, 38.59587007367915], [-90.05989665933384, 38.60051442812264], [-90.06544776357148, 38.60515854396957], [-90.07099958225297, 38.609802421087586], [-90.07655211555712, 38.614446059344324], [-90.08247024897021, 38.61008921705863], [-90.08802357854981, 38.61473233981663], [-90.09375937107193, 38.61487505899075], [-90.09949520417183, 38.615017497448825], [-90.10505004462816, 38.61965986513943], [-90.1106056001435, 38.62430199333239], [-90.11616187089658, 38.62894388189524], [-90.12171885706623, 38.633585530695484], [-90.12745632243416, 38.63372665579325], [-90.13319382794117, 38.633867499959656], [-90.13875232561846, 38.63850839203032], [-90.144490269036, 38.638648696766005], [-90.15004988039681, 38.64328909003685], [-90.15578826152439, 38.64342885514139], [-90.16152668241186, 38.64356833919522], [-90.16726514297947, 38.64370754219247], [-90.17300364314747, 38.64384646412727], [-90.17874218283609, 38.64398510499372], [-90.18465698596519, 38.639622961753446], [-90.19039524642797, 38.63976101837225], [-90.19595803822843, 38.6443993411247], [-90.20152154619295, 38.649037422694946], [-90.20726064042472, 38.64917468009371], [-90.2129997737081, 38.64931165634433], [-90.21873894596322, 38.64944835144101], [-90.22430436189018, 38.65408541385767], [-90.23004397010321, 38.6542215684137], [-90.23578361705796, 38.6543574417536], [-90.24152330267475, 38.65449303387163], [-90.24726302687371, 38.65462834476206], [-90.25283074729404, 38.65926412725328], [-90.2583991845453, 38.663899667513896], [-90.26396833880578, 38.66853496541107], [-90.26953821025378, 38.673170020811966], [-90.2751087990677, 38.67780483358376], [-90.28068010542587, 38.682439403593555], [-90.28625212950666, 38.68707373070842], [-90.29182487148844, 38.69170781479548], [-90.29739833154962, 38.69634165572174], [-90.30297250986867, 38.70097525335427], [-90.30854740662397, 38.70560860756003], [-90.31412302199392, 38.71024171820601], [-90.31969935615703, 38.71487458515916], [-90.32527640929177, 38.719507208286444], [-90.33102172891115, 38.71963859401861], [-90.33659989825608, 38.72427071220935], [-90.34217878694776, 38.72890258621499], [-90.34775839516463, 38.73353421590239], [-90.35350494323681, 38.73366453632395], [-90.35908566820065, 38.73829566025279], [-90.36466711306467, 38.742926539503976], [-90.37024927800739, 38.74755717394432]]}}, {"type": "Feature", "properties": {"route_run_id": "stl_midamerica_to_st_louis_lambert_2026-03-09_0237", "route_pair": "midamerica_to_st_louis_lambert", "route_pair_label": "MidAmerica to St. Louis Lambert", "origin_label": "MidAmerica St. Louis Airport", "destination_label": "St. Louis Lambert International Airport", "origin_lat": 38.5451731, "origin_lon": -89.8351856, "destination_lat": 38.7486982, "destination_lon": -90.3700257, "traffic_date": "2026-03-09", "traffic_dataset": "March 9th - Monday", "weight_id": "w_0237", "distance_weight": 0.5, "population_weight": 0.0, "traffic_weight": 0.5, "airspace_weight": 0.0, "path_nodes": 97, "path_node_ids": [8877, 8876, 8868, 8869, 8870, 8867, 9753, 9754, 9755, 9744, 9742, 9743, 9730, 9733, 9721, 9732, 9720, 9915, 9913, 9912, 9914, 9932, 7806, 9933, 9923, 9922, 7815, 7816, 9820, 9832, 9833, 9821, 7905, 7906, 9823, 9822, 7916, 7915, 7914, 7913, 1933, 1931, 1932, 1917, 1943, 1946, 1970, 1983, 1998, 2003, 2000, 2191, 2194, 2193, 2192, 2185, 2184, 2186, 2421, 2202, 2203, 2207, 2341, 2344, 2368, 2374, 2394, 2397, 2712, 2714, 2750, 2744, 2770, 2772, 2777, 3989, 3993, 4006, 4008, 4021, 4045, 4047, 4058, 4062, 4077, 4079, 5077, 5081, 5083, 5306, 5303, 5318, 5323, 5321, 5357, 5358, 5364], "elapsed_seconds": 0.031767900014529005, "status": "success", "failure_reason": "", "route_distance_km": 72.78442166143321, "distance_cost_sum": 80.10396295213135, "population_cost_sum": 46.66792164139793, "traffic_cost_sum": 13.194060684414467, "airspace_cost_sum": 62.4, "total_weighted_score": 46.64901181827291, "clustering_method": "hierarchical_jaccard", "distance_method": "jaccard", "direct_cluster_number": 8, "hierarchical_jaccard_cluster": "hier_jaccard_008", "hierarchical_jaccard_cluster_source": "hier_jaccard_008", "representative_route_run_id": "stl_midamerica_to_st_louis_lambert_2026-03-09_0237", "representative_mean_frechet_miles": 0.7389834226097342, "cluster_size": 9, "cluster_weight_space_percent": 4.522613065326633, "merged_cluster_id": "frechet_merged_006", "source_jaccard_clusters": "hier_jaccard_008"}, "geometry": {"type": "LineString", "coordinates": [[-89.83272609742262, 38.54503213945896], [-89.83845499191484, 38.54518713674757], [-89.84418393041321, 38.54534185422887], [-89.8499129128385, 38.54549629189633], [-89.85564193911159, 38.545650449743434], [-89.86137100915332, 38.54580432776372], [-89.86710012288452, 38.545957925950695], [-89.87282928022606, 38.546111244297876], [-89.8785584810987, 38.54626428279884], [-89.88428772542336, 38.54641704144712], [-89.8902109731338, 38.54207014196144], [-89.895939948205, 38.54222231651928], [-89.90166896648022, 38.54237421124988], [-89.90739802788026, 38.54252582614685], [-89.91312713232598, 38.54267716120381], [-89.91885627973821, 38.54282821641439], [-89.92458547003774, 38.5429789917722], [-89.93031470314544, 38.543129487270946], [-89.93604397898207, 38.54327970290425], [-89.94177329746847, 38.543429638665806], [-89.94750265852547, 38.54357929454928], [-89.9532320620738, 38.543728670548404], [-89.9589615080343, 38.543877766656834], [-89.9646909963278, 38.54402658286834], [-89.97042052687505, 38.544175119176636], [-89.97615009959685, 38.54432337557549], [-89.98187971441398, 38.54447135205863], [-89.98760937124719, 38.544619048619815], [-89.99333907001733, 38.54476646525287], [-89.99906881064508, 38.54491360195155], [-90.00479859305136, 38.54506045870968], [-90.01052841715675, 38.54520703552103], [-90.01625828288213, 38.545353332379484], [-90.02198819014824, 38.545499349278856], [-90.0277181388758, 38.54564508621299], [-90.03344812898557, 38.54579054317578], [-90.03917816039834, 38.54593572016105], [-90.04490823303483, 38.54608061716274], [-90.05063834681579, 38.54622523417469], [-90.05636850166194, 38.546369571190844], [-90.06209869749397, 38.54651362820512], [-90.06782893423272, 38.54665740521145], [-90.07355921179885, 38.54680090220377], [-90.07928953011304, 38.54694411917603], [-90.08483803609515, 38.551587237746496], [-90.09038725467427, 38.55623011778336], [-90.09593718602859, 38.5608727591544], [-90.1014878303364, 38.56551516172741], [-90.10703918777595, 38.57015732537014], [-90.11259125852546, 38.57479924995029], [-90.11832399892143, 38.57494064238296], [-90.12387718012955, 38.579582070024706], [-90.1296103575981, 38.57972292432643], [-90.13534357508938, 38.579863498234836], [-90.14107683252396, 38.580003791744], [-90.14681012982238, 38.58014380484799], [-90.15254346690519, 38.5802835375409], [-90.1580993457009, 38.58492343582021], [-90.16365593845713, 38.58956309408333], [-90.16939010840554, 38.58970202998531], [-90.17512431783956, 38.5898406853631], [-90.18068241788241, 38.5944795867747], [-90.18624123228014, 38.59911824771971], [-90.19180076121087, 38.60375666806568], [-90.19736100485268, 38.60839484768009], [-90.20292196338367, 38.61303278643038], [-90.2084836369821, 38.617670484184025], [-90.21404602582597, 38.62230794080845], [-90.21960913009349, 38.62694515617101], [-90.21943517099498, 38.631445803493165], [-90.22499930993523, 38.636082795146216], [-90.23056416481495, 38.64071954523234], [-90.2361297358124, 38.64535605361884], [-90.24169602310592, 38.649992320172984], [-90.24726302687371, 38.65462834476206], [-90.25283074729404, 38.65926412725328], [-90.2583991845453, 38.663899667513896], [-90.26396833880578, 38.66853496541107], [-90.26953821025378, 38.673170020811966], [-90.2751087990677, 38.67780483358376], [-90.28068010542587, 38.682439403593555], [-90.28625212950666, 38.68707373070842], [-90.29182487148844, 38.69170781479548], [-90.29739833154962, 38.69634165572174], [-90.30297250986867, 38.70097525335427], [-90.30854740662397, 38.70560860756003], [-90.31412302199392, 38.71024171820601], [-90.31969935615703, 38.71487458515916], [-90.32527640929177, 38.719507208286444], [-90.33102172891115, 38.71963859401861], [-90.33659989825608, 38.72427071220935], [-90.34217878694776, 38.72890258621499], [-90.34775839516463, 38.73353421590239], [-90.35350494323681, 38.73366453632395], [-90.35908566820065, 38.73829566025279], [-90.36466711306467, 38.742926539503976], [-90.37024927800739, 38.74755717394432]]}}, {"type": "Feature", "properties": {"route_run_id": "stl_midamerica_to_st_louis_lambert_2026-03-09_0280", "route_pair": "midamerica_to_st_louis_lambert", "route_pair_label": "MidAmerica to St. Louis Lambert", "origin_label": "MidAmerica St. Louis Airport", "destination_label": "St. Louis Lambert International Airport", "origin_lat": 38.5451731, "origin_lon": -89.8351856, "destination_lat": 38.7486982, "destination_lon": -90.3700257, "traffic_date": "2026-03-09", "traffic_dataset": "March 9th - Monday", "weight_id": "w_0280", "distance_weight": 0.8, "population_weight": 0.0, "traffic_weight": 0.2, "airspace_weight": 0.0, "path_nodes": 96, "path_node_ids": [8877, 8876, 8868, 8869, 8870, 8867, 9753, 9754, 9755, 9744, 9749, 9748, 9772, 9764, 9766, 9770, 9792, 9975, 9977, 9981, 9980, 9987, 9988, 9986, 9985, 9997, 9995, 10000, 10129, 10128, 10127, 10126, 10139, 10138, 10137, 10136, 10114, 10115, 10116, 10117, 2242, 2243, 2241, 2253, 2256, 2281, 2279, 2289, 2288, 2290, 2294, 2460, 2461, 2462, 2465, 2498, 2501, 2828, 2829, 2813, 2816, 2815, 2759, 2758, 2761, 2764, 2783, 2781, 2782, 2784, 2775, 2802, 2805, 3917, 4005, 4010, 4013, 4012, 4021, 4045, 4047, 4058, 4062, 4077, 4079, 5077, 5081, 5083, 5306, 5303, 5318, 5323, 5321, 5357, 5358, 5364], "elapsed_seconds": 0.020068100013304502, "status": "success", "failure_reason": "", "route_distance_km": 71.89584873922834, "distance_cost_sum": 79.12603098790333, "population_cost_sum": 46.53374224197657, "traffic_cost_sum": 16.226268591622723, "airspace_cost_sum": 55.2, "total_weighted_score": 66.54607850864721, "clustering_method": "hierarchical_jaccard", "distance_method": "jaccard", "direct_cluster_number": 18, "hierarchical_jaccard_cluster": "hier_jaccard_018", "hierarchical_jaccard_cluster_source": "hier_jaccard_021", "representative_route_run_id": "stl_midamerica_to_st_louis_lambert_2026-03-09_0280", "representative_mean_frechet_miles": 0.0, "cluster_size": 2, "cluster_weight_space_percent": 1.0050251256281406, "merged_cluster_id": "frechet_merged_007", "source_jaccard_clusters": "hier_jaccard_018"}, "geometry": {"type": "LineString", "coordinates": [[-89.83272609742262, 38.54503213945896], [-89.83845499191484, 38.54518713674757], [-89.84418393041321, 38.54534185422887], [-89.8499129128385, 38.54549629189633], [-89.85564193911159, 38.545650449743434], [-89.86137100915332, 38.54580432776372], [-89.86710012288452, 38.545957925950695], [-89.87282928022606, 38.546111244297876], [-89.8785584810987, 38.54626428279884], [-89.88428772542336, 38.54641704144712], [-89.8898230098142, 38.55106889421821], [-89.8955526968043, 38.55122111751065], [-89.90108909257557, 38.55587247927394], [-89.90681922203537, 38.556024167009056], [-89.9123567293393, 38.560675037395804], [-89.91789494911032, 38.56532567191472], [-89.92362592006123, 38.56547656801355], [-89.92935693387194, 38.56562718402969], [-89.93489666469688, 38.57027707055698], [-89.9404371083888, 38.57492672076668], [-89.94616896320129, 38.57507654445588], [-89.95190086057701, 38.57522608794758], [-89.95763280043668, 38.57537535123546], [-89.96336478270089, 38.575524334313236], [-89.96909680729033, 38.57567303717464], [-89.97482887412568, 38.5758214598134], [-89.98056098312755, 38.575969602223246], [-89.98610493240487, 38.58061722110372], [-89.99164959505083, 38.58526460275237], [-89.99738254347521, 38.58541195160335], [-90.0031155337689, 38.585559020110985], [-90.00884856585253, 38.5857058082691], [-90.01458163964669, 38.58585231607147], [-90.02031475507195, 38.58599854351194], [-90.02604791204888, 38.586144490584346], [-90.03178111049809, 38.586290157282534], [-90.03751435034016, 38.586435543600345], [-90.04324763149565, 38.58658064953169], [-90.0489809538851, 38.58672547507043], [-90.05471431742912, 38.58687002021047], [-90.06026407548569, 38.59151433688004], [-90.06599787803927, 38.59165834425389], [-90.07173172151896, 38.59180207116597], [-90.07728298936146, 38.59644563435857], [-90.0828349713693, 38.601088958715515], [-90.08838766772114, 38.60573204410446], [-90.0941227455516, 38.605874717602354], [-90.09985786394022, 38.606017110473864], [-90.10559302280743, 38.606159222712996], [-90.11132822207372, 38.606301054313754], [-90.11688322402577, 38.61094286895936], [-90.12261886120643, 38.61108416187799], [-90.1283545385572, 38.61122517409548], [-90.13409025599846, 38.61136590560589], [-90.13964716536344, 38.61600670610303], [-90.14520478974481, 38.620647266584925], [-90.15076312932118, 38.625287586919086], [-90.156322184271, 38.62992766697294], [-90.16188195477298, 38.634567506614], [-90.16761969944088, 38.63470666506797], [-90.17318058317427, 38.63934600541629], [-90.17891876485407, 38.63948462409952], [-90.18465698596519, 38.639622961753446], [-90.19039524642797, 38.63976101837225], [-90.19595803822843, 38.6443993411247], [-90.20152154619295, 38.649037422694946], [-90.20726064042472, 38.64917468009371], [-90.2129997737081, 38.64931165634433], [-90.21873894596322, 38.64944835144101], [-90.22430436189018, 38.65408541385767], [-90.23004397010321, 38.6542215684137], [-90.23561049969246, 38.65885812963025], [-90.24117774605664, 38.663494448894866], [-90.24674570937407, 38.66813052607476], [-90.25248654742752, 38.668265620562565], [-90.25805562494689, 38.67290119572174], [-90.26362541979505, 38.67753652843763], [-90.26936709031678, 38.677670821751065], [-90.2751087990677, 38.67780483358376], [-90.28068010542587, 38.682439403593555], [-90.28625212950666, 38.68707373070842], [-90.29182487148844, 38.69170781479548], [-90.29739833154962, 38.69634165572174], [-90.30297250986867, 38.70097525335427], [-90.30854740662397, 38.70560860756003], [-90.31412302199392, 38.71024171820601], [-90.31969935615703, 38.71487458515916], [-90.32527640929177, 38.719507208286444], [-90.33102172891115, 38.71963859401861], [-90.33659989825608, 38.72427071220935], [-90.34217878694776, 38.72890258621499], [-90.34775839516463, 38.73353421590239], [-90.35350494323681, 38.73366453632395], [-90.35908566820065, 38.73829566025279], [-90.36466711306467, 38.742926539503976], [-90.37024927800739, 38.74755717394432]]}}]}