{"type": "FeatureCollection", "features": [{"id": "0", "type": "Feature", "properties": {"route_run_id": "stl_midamerica_to_st_louis_union_station_2026-03-09_0183", "route_pair": "midamerica_to_st_louis_union_station", "route_pair_label": "MidAmerica to St. Louis Union Station", "origin_label": "MidAmerica St. Louis Airport", "destination_label": "St. Louis Union Station", "origin_lat": 38.5451731, "origin_lon": -89.8351856, "destination_lat": 38.629167, "destination_lon": -90.2075, "traffic_date": "2026-03-09", "traffic_dataset": "March 9th - Monday", "weight_id": "w_0183", "distance_weight": 0.3, "population_weight": 0.2, "traffic_weight": 0.0, "airspace_weight": 0.5, "path_nodes": 68, "path_node_ids": [8877, 8881, 8904, 8922, 8923, 8927, 9145, 10016, 10018, 10062, 10055, 10058, 10094, 10096, 10103, 10104, 10110, 10109, 10291, 10512, 10290, 10513, 10298, 10295, 10296, 10297, 10307, 10305, 10306, 10319, 10321, 10320, 10318, 10211, 10210, 10208, 10209, 10326, 10328, 10329, 10327, 2522, 2524, 2523, 2514, 2517, 2515, 2516, 2530, 2534, 2532, 2558, 2840, 2839, 2838, 2827, 2849, 2848, 2850, 2837, 2859, 2858, 2860, 2763, 2762, 2737, 2732, 2715], "elapsed_seconds": 0.027627800009213388, "status": "success", "failure_reason": "", "route_distance_km": 48.66685213560263, "distance_cost_sum": 53.561018023900075, "population_cost_sum": 14.998679925723389, "traffic_cost_sum": 13.370267511322758, "airspace_cost_sum": 23.2, "total_weighted_score": 30.668041392314706, "clustering_method": "hierarchical_jaccard", "distance_method": "jaccard", "direct_cluster_number": 2, "hierarchical_jaccard_cluster": "hier_jaccard_002", "hierarchical_jaccard_cluster_source": "hier_jaccard_001", "representative_route_run_id": "stl_midamerica_to_st_louis_union_station_2026-03-09_0183", "representative_mean_frechet_miles": 1.0177612944769927, "cluster_size": 69, "cluster_weight_space_percent": 46.62162162162162, "merged_cluster_id": "frechet_merged_001", "source_jaccard_clusters": "hier_jaccard_002, hier_jaccard_007", "corridor_width_m": 4828.0, "corridor_buffer_m": 2414.0}, "geometry": {"type": "Polygon", "coordinates": [[[-90.17959537146824, 38.62225676936151], [-90.18305988601053, 38.619700904866576], [-90.18897235234628, 38.61533844179615], [-90.19104204292668, 38.61395484245375], [-90.19327454493416, 38.61273702440803], [-90.19564836745323, 38.61169670762987], [-90.19814066263669, 38.61084390360093], [-90.20072744522965, 38.61018681917881], [-90.20338382291123, 38.60973177779478], [-90.20608423526103, 38.60948315873387], [-90.20880269907776, 38.609443355075314], [-90.21151305771986, 38.60961275069401], [-90.2141892321009, 38.60998971654272], [-90.21680547095761, 38.610570626251395], [-90.21933659801348, 38.611349890897166], [-90.22175825369077, 38.612320012615676], [-90.22404712907058, 38.61347165654591], [-90.22618118987329, 38.614793740425434], [-90.22813988832048, 38.616273540985006], [-90.22990436085185, 38.61789681613082], [-90.231457609799, 38.619647941750706], [-90.23278466726673, 38.62151006184069], [-90.23387273963617, 38.62346525051892], [-90.23471133128506, 38.625494684379206], [-90.23529234631391, 38.62757882353488], [-90.23561016727368, 38.62969759961867], [-90.23566171010772, 38.63183060893501], [-90.23544645474661, 38.63395730890906], [-90.2349664510267, 38.636057215942614], [-90.23422629984078, 38.63811010277066], [-90.23323310966785, 38.640096193414564], [-90.23199642886807, 38.64199635384869], [-90.23052815436662, 38.64379227653587], [-90.22884241758042, 38.64546665704446], [-90.22695544866721, 38.64700336103467], [-90.22104244896536, 38.65136771437051], [-90.21512873279056, 38.655731738725365], [-90.20921430000165, 38.660095433962105], [-90.20714355622684, 38.661479308912234], [-90.20490970797614, 38.66269733504633], [-90.20253427773442, 38.663737773795965], [-90.20004015558159, 38.66459059780245], [-90.19745137823404, 38.66524758776953], [-90.19479289690571, 38.665702411855946], [-90.19209033624955, 38.66595068683467], [-90.18936974673039, 38.66599002042221], [-90.18362939855851, 38.66585183500441], [-90.17788908979384, 38.66571336828978], [-90.17214882051638, 38.66557462028419], [-90.16640859080536, 38.66543559099344], [-90.16066840074141, 38.66529628042346], [-90.1549282504039, 38.66515668858011], [-90.14918813987288, 38.66501681546933], [-90.14344806922772, 38.664876661096926], [-90.13770803854882, 38.6647362254689], [-90.1319680479158, 38.66459550859118], [-90.12622809740824, 38.664454510469646], [-90.12048818710622, 38.664313231110285], [-90.11777611936346, 38.664141654065695], [-90.11509858934905, 38.663762424624224], [-90.11248140493949, 38.66317919904759], [-90.10994979059717, 38.66239759973292], [-90.10752814369293, 38.66142516084962], [-90.10523979890961, 38.66027125551386], [-90.10310680302044, 38.65894700521239], [-90.10114970223017, 38.65746517235958], [-90.09709808981209, 38.654080520157045], [-90.09562611813854, 38.653752225791926], [-90.09309503621488, 38.65297028007489], [-90.0906739495017, 38.651997511601834], [-90.08838618726787, 38.65084329666553], [-90.08625379065774, 38.649518759734924], [-90.08429730008721, 38.648036665983696], [-90.08104217330208, 38.645316092016124], [-90.06956489230583, 38.645028911212215], [-90.06382682080365, 38.64488491198588], [-90.05808879034453, 38.644740631767455], [-90.05235080100847, 38.64459607056307], [-90.04661285287541, 38.64445122837885], [-90.04087494602483, 38.6443061052209], [-90.03513708053586, 38.64416070109528], [-90.02939925648919, 38.64401501600821], [-90.02366147396363, 38.64386904996579], [-90.0179237330395, 38.6437228029742], [-90.0121860337958, 38.64357627503957], [-90.0064483763128, 38.64342946616815], [-90.00071076066997, 38.64328237636612], [-89.99497318694647, 38.64313500563961], [-89.98923565522303, 38.64298735399497], [-89.98349816557806, 38.642839421438296], [-89.97776071809227, 38.64269120797596], [-89.97202331284426, 38.64254271361405], [-89.9662859499146, 38.64239393835898], [-89.96054862938246, 38.64224488221695], [-89.9548113513277, 38.642095545194316], [-89.94907411582955, 38.6419459272973], [-89.94333692296806, 38.64179602853227], [-89.93759977282261, 38.64164584890552], [-89.9318626654728, 38.64149538842338], [-89.92612560099847, 38.64134464709225], [-89.92038857947894, 38.64119362491842], [-89.91465160099398, 38.64104232190833], [-89.91194121739004, 38.64086602077448], [-89.9092659473577, 38.64048215135824], [-89.90665157691147, 38.63989441470303], [-89.9041233032864, 38.6391084767353], [-89.90170549152744, 38.63813191347915], [-89.89942143921047, 38.63697413782478], [-89.89729315158456, 38.63564630856724], [-89.89534112932013, 38.634161222602934], [-89.88979944024325, 38.62950940539956], [-89.88425846600967, 38.62485735204231], [-89.87871820643942, 38.62020506266347], [-89.87317866135233, 38.61555253739514], [-89.86763983056835, 38.610899776369436], [-89.86210171390742, 38.606246779718326], [-89.85656431118979, 38.60159354757427], [-89.85102762223508, 38.59694008006892], [-89.84549164686364, 38.59228637733464], [-89.83995638489527, 38.58763243950324], [-89.83442183615014, 38.58297826670677], [-89.8288880004483, 38.57832385907725], [-89.82335487760979, 38.57366921674654], [-89.81782246745469, 38.56901433984653], [-89.81229076980324, 38.56435922850931], [-89.81053737176009, 38.56273008439564], [-89.80899587495975, 38.56097382975332], [-89.8076811152514, 38.55910738647742], [-89.80660574085758, 38.55714873665962], [-89.80578009109041, 38.55511674913331], [-89.80521209743819, 38.55303099752744], [-89.80490720794948, 38.55091157159009], [-89.80486833561342, 38.5487788836054], [-89.80506761643761, 38.54427987620952], [-89.80529508270895, 38.542154461738676], [-89.80578668672905, 38.54005678862944], [-89.8065376725369, 38.53800705441392], [-89.80754078847232, 38.53602499343029], [-89.80878635775223, 38.5341296869908], [-89.81026237228545, 38.53233937988829], [-89.8119546087991, 38.530671304998016], [-89.81384676613935, 38.52914151765227], [-89.81592062241252, 38.52776474136969], [-89.81815621044694, 38.526554226411676], [-89.82053200988736, 38.525521622514496], [-89.82302515407908, 38.52467686700986], [-89.82561164976424, 38.52402808939931], [-89.82826660749411, 38.523581533290866], [-89.8309644805635, 38.52334149644122], [-89.83367931019588, 38.52331028947394], [-89.83638497464992, 38.52348821366765], [-89.83905543988263, 38.52387355802604], [-89.8416650093897, 38.52446261565945], [-89.84418857085059, 38.525249719323696], [-89.84660183723477, 38.52622729577998], [-89.84888158007548, 38.527385938461066], [-89.85100585268815, 38.52871449775372], [-89.8529542012026, 38.5302001880401], [-89.85470786138927, 38.531828710479715], [-89.85624993938957, 38.533584390363266], [-89.85756557460964, 38.53545032772885], [-89.85864208320109, 38.537408559803005], [-89.85946908073285, 38.539440233714394], [-89.85978944215289, 38.54061343155854], [-89.86382331332256, 38.544005640216845], [-89.86935703597892, 38.548658400412144], [-89.87489147056147, 38.553310925538405], [-89.88042661724954, 38.55796321546369], [-89.88596247622252, 38.562615270056], [-89.89149904765986, 38.56726708918345], [-89.89703633174108, 38.571918672714126], [-89.90257432864544, 38.576570020515824], [-89.90811303855276, 38.58122113245688], [-89.91365246164212, 38.585872008404834], [-89.91919259809333, 38.59052264822796], [-89.92473344808583, 38.59517305179404], [-89.92798022761178, 38.597897667081774], [-89.92798124198164, 38.59789769373411], [-89.93371485634863, 38.598048202339584], [-89.93944851349112, 38.59819843052868], [-89.94518221332929, 38.59834837829503], [-89.950915955784, 38.59849804563237], [-89.95664974077579, 38.598647432534335], [-89.96238356822501, 38.598796538994605], [-89.96811743805264, 38.598945365007005], [-89.97385135017885, 38.59909391056518], [-89.97958530452445, 38.59924217566288], [-89.98531930100944, 38.5993901602938], [-89.99105333955535, 38.59953786445183], [-89.99678742008166, 38.59968528813059], [-90.00252154251002, 38.59983243132403], [-90.00825570675974, 38.59997929402579], [-90.01398991275238, 38.6001258762298], [-90.01972416040796, 38.60027217792982], [-90.02545844964688, 38.600418199119666], [-90.03119278039017, 38.600563939793254], [-90.03692715255777, 38.60070939994434], [-90.04266156607083, 38.60085457956689], [-90.04839602084898, 38.60099947865468], [-90.0541305168137, 38.60114409720169], [-90.05986505388503, 38.60128843520181], [-90.06559963198323, 38.601432492648904], [-90.07133425102901, 38.6015762695369], [-90.08853835305753, 38.60200591678598], [-90.09427313509876, 38.60214857137722], [-90.09698278328351, 38.60232060256217], [-90.09965792392171, 38.60270015808697], [-90.10227281565817, 38.60328358669574], [-90.10480229512515, 38.604065275255756], [-90.10722201853217, 38.60503770259994], [-90.10950869547743, 38.60619151169461], [-90.11164031275314, 38.60751559944704], [-90.11359634600862, 38.60899722329989], [-90.11764636417027, 38.61238125778818], [-90.11911761866267, 38.61270924781792], [-90.12164762914296, 38.613490590513734], [-90.12406791128008, 38.6144626886901], [-90.12635516931034, 38.615616188480914], [-90.12848738444836, 38.61693998977155], [-90.13044402660312, 38.61842135276461], [-90.13369995571901, 38.62114058614993], [-90.13370097060562, 38.62114061103154], [-90.13943750456995, 38.62128111066077], [-90.14517407848682, 38.621421329473705], [-90.15091069227637, 38.62156126746435], [-90.15664734585877, 38.62170092462681], [-90.1623840391549, 38.621840300955235], [-90.16812077208472, 38.62197939644372], [-90.1738575445688, 38.62211821108644], [-90.179594356527, 38.622256744877426], [-90.17959537146824, 38.62225676936151]]]}}, {"id": "1", "type": "Feature", "properties": {"route_run_id": "stl_midamerica_to_st_louis_union_station_2026-03-09_0068", "route_pair": "midamerica_to_st_louis_union_station", "route_pair_label": "MidAmerica to St. Louis Union Station", "origin_label": "MidAmerica St. Louis Airport", "destination_label": "St. Louis Union Station", "origin_lat": 38.5451731, "origin_lon": -89.8351856, "destination_lat": 38.629167, "destination_lon": -90.2075, "traffic_date": "2026-03-09", "traffic_dataset": "March 9th - Monday", "weight_id": "w_0068", "distance_weight": 0.1, "population_weight": 0.0, "traffic_weight": 0.1, "airspace_weight": 0.8, "path_nodes": 67, "path_node_ids": [8877, 8876, 8892, 8897, 8899, 8926, 9788, 10013, 10014, 10036, 10052, 10054, 10061, 10051, 10049, 10048, 10050, 10253, 10252, 10241, 10240, 10248, 10246, 10247, 10245, 10231, 10230, 10262, 10150, 10148, 10149, 10151, 10161, 10156, 10154, 10155, 10162, 10164, 10163, 10165, 2244, 2246, 2268, 2278, 2283, 2508, 2286, 2298, 2300, 2304, 2531, 2819, 2820, 2822, 2825, 2836, 2848, 2850, 2837, 2859, 2858, 2815, 2759, 2734, 2731, 2729, 2715], "elapsed_seconds": 0.04059330001473427, "status": "success", "failure_reason": "", "route_distance_km": 48.81678601447848, "distance_cost_sum": 53.726029953713976, "population_cost_sum": 28.570091945307983, "traffic_cost_sum": 5.278783894524551, "airspace_cost_sum": 22.6, "total_weighted_score": 23.98048138482386, "clustering_method": "hierarchical_jaccard", "distance_method": "jaccard", "direct_cluster_number": 3, "hierarchical_jaccard_cluster": "hier_jaccard_003", "hierarchical_jaccard_cluster_source": "hier_jaccard_004", "representative_route_run_id": "stl_midamerica_to_st_louis_union_station_2026-03-09_0068", "representative_mean_frechet_miles": 0.5707756462629188, "cluster_size": 44, "cluster_weight_space_percent": 29.72972972972973, "merged_cluster_id": "frechet_merged_002", "source_jaccard_clusters": "hier_jaccard_003", "corridor_width_m": 4828.0, "corridor_buffer_m": 2414.0}, "geometry": {"type": "Polygon", "coordinates": [[[-90.20711483550886, 38.65290113871382], [-90.20364945991882, 38.65545767582155], [-90.2015787540877, 38.65684145407922], [-90.19934496700165, 38.65805937651083], [-90.19696962055922, 38.659099705549174], [-90.19447560403461, 38.659952414895], [-90.19188695312681, 38.66060928635937], [-90.19016775881684, 38.660903358724454], [-90.18992344708715, 38.661066565915185], [-90.18768934013914, 38.66228425228758], [-90.18531369583422, 38.66332433200743], [-90.18281940632689, 38.66417678117862], [-90.18023050995622, 38.664833384121], [-90.17757195909095, 38.66528781272804], [-90.17486937905953, 38.66553568758956], [-90.17214882051613, 38.66557462028419], [-90.16640859080536, 38.66543559099344], [-90.16066840074141, 38.66529628042346], [-90.1549282504039, 38.66515668858011], [-90.14918813987288, 38.66501681546933], [-90.1464759355811, 38.664845901269516], [-90.14379818693577, 38.66446732303437], [-90.1411807039296, 38.663884730740456], [-90.13864871391591, 38.66310374067363], [-90.13622661790254, 38.66213188112542], [-90.13393775491983, 38.66097851962444], [-90.13180417675628, 38.659654772414285], [-90.13157323056181, 38.65948002579773], [-90.12988063871265, 38.65910308792707], [-90.12734895228868, 38.6583218635289], [-90.12492718113022, 38.65734978103598], [-90.12263866112731, 38.65619621012611], [-90.12123030088131, 38.65532214877183], [-90.12084885889833, 38.655312753223704], [-90.11813712835765, 38.65514119740499], [-90.11545992853786, 38.6547619886155], [-90.11284306412585, 38.65417878291686], [-90.11031175649362, 38.65339720251305], [-90.10789040005085, 38.652424781389186], [-90.10560232667747, 38.651270892487965], [-90.1034695805291, 38.64994665713503], [-90.10151270540348, 38.64846483759793], [-90.09595599512139, 38.643822243897986], [-90.090400000733, 38.639179410617444], [-90.08714501204936, 38.63645900977262], [-90.08714399698852, 38.636458984478814], [-90.08443310526552, 38.63628667657246], [-90.08175682859826, 38.635906728569665], [-90.07914096275096, 38.63532280366513], [-90.07661071944332, 38.63454053100057], [-90.07419048279752, 38.63356745123625], [-90.07190357387108, 38.63241294366281], [-90.06977202556814, 38.63108813556534], [-90.06781637011574, 38.62960579472489], [-90.06226331941787, 38.624961727856174], [-90.05671098385797, 38.62031742212267], [-90.05345813857302, 38.617596158883124], [-90.05345712380873, 38.61759613330751], [-90.0477213216408, 38.61745143011721], [-90.04198556069512, 38.61730644622218], [-90.036249841052, 38.617161181628646], [-90.03051416279034, 38.617015636342686], [-90.03013295467929, 38.61700595303915], [-90.02865728376142, 38.617807827280366], [-90.02628105624885, 38.618844647030244], [-90.0237866754259, 38.61969369269286], [-90.02119818057876, 38.620346781433575], [-90.01854052024837, 38.62079761906572], [-90.01583931119568, 38.62104186084369], [-90.0131205908501, 38.621077153418426], [-90.00738472151902, 38.620930461951886], [-90.00164889397766, 38.62078348977896], [-89.99591310830513, 38.62063623690576], [-89.9901773645812, 38.62048870333852], [-89.98444166288562, 38.62034088908348], [-89.97870600329773, 38.620192794146874], [-89.97297038589709, 38.62004441853493], [-89.96723481076316, 38.61989576225392], [-89.96149927797576, 38.6197468253101], [-89.95576378761423, 38.61959760770977], [-89.95002833975795, 38.6194481094592], [-89.94429293448681, 38.61929833056471], [-89.93855757188007, 38.61914827103261], [-89.93282225201733, 38.61899793086924], [-89.92708697497788, 38.61884731008091], [-89.92135174084189, 38.61869640867404], [-89.91561654968794, 38.6185452266549], [-89.90988140159622, 38.618393764029925], [-89.90414629664608, 38.618242020805496], [-89.89841123491676, 38.61808999698799], [-89.8957017783405, 38.61791335603029], [-89.8930274662351, 38.617529152515175], [-89.89041407535917, 38.61694109070869], [-89.88788679348322, 38.61615483967181], [-89.88546997607155, 38.61517797844441], [-89.88318691109652, 38.614019922785], [-89.88105959427446, 38.61269183418162], [-89.8791085169065, 38.61120651202272], [-89.87356959884976, 38.60655402718657], [-89.86803139477837, 38.60190130667124], [-89.86249390451245, 38.59724835060889], [-89.85695712787188, 38.59259515913134], [-89.85142106467708, 38.58794173237097], [-89.8458857147479, 38.58328807045952], [-89.84035107790457, 38.57863417352908], [-89.8348171539672, 38.57398004171155], [-89.82928394275602, 38.56932567513901], [-89.82525044496454, 38.56593229556863], [-89.82378172274481, 38.56560069976069], [-89.82125703213198, 38.56481310908327], [-89.81884288991746, 38.56383497410062], [-89.81656255822567, 38.56267572284393], [-89.81443800637038, 38.56134652831356], [-89.81248969895286, 38.559860200539255], [-89.81073639862333, 38.55823106285978], [-89.80919498541124, 38.55647481362773], [-89.80788029436297, 38.55460837468475], [-89.80680497304293, 38.55264972807962], [-89.805979360256, 38.55061774261388], [-89.8054113871388, 38.54853199189588], [-89.80510650154712, 38.546412565664724], [-89.80506761643771, 38.54427987620715], [-89.80529508270935, 38.54215446173632], [-89.80578668672975, 38.540056788627126], [-89.80653767253787, 38.53800705441165], [-89.80754078847357, 38.536024993428114], [-89.80878635775375, 38.53412968698875], [-89.81026237228723, 38.53233937988635], [-89.81195460880109, 38.53067130499623], [-89.81384676614157, 38.52914151765065], [-89.81592062241492, 38.52776474136825], [-89.81815621044953, 38.52655422641042], [-89.82053200989006, 38.52552162251345], [-89.8230251540819, 38.52467686700904], [-89.82561164976717, 38.52402808939869], [-89.8282666074971, 38.52358153329049], [-89.83096448056651, 38.52334149644106], [-89.8336793101989, 38.523310289474026], [-89.83940648754941, 38.523465166994754], [-89.84211218108081, 38.52364295945561], [-89.84478269162241, 38.52402817449895], [-89.84739232223569, 38.52461710647779], [-89.84991596001466, 38.52540408935556], [-89.85232931719757, 38.526381551054655], [-89.85460916444764, 38.527540086111365], [-89.85673355407965, 38.528868545947816], [-89.85868203110161, 38.53035414590338], [-89.86421441786476, 38.53500710042859], [-89.86974751605804, 38.53965982009454], [-89.87528132586084, 38.5443123047695], [-89.88081584745248, 38.54896455432161], [-89.88635108101217, 38.55361656861883], [-89.89188702671933, 38.55826834752935], [-89.89742368475332, 38.56291989092123], [-89.90296105529355, 38.567571198662584], [-89.9084991385192, 38.57222227062116], [-89.91174429656705, 38.574947277748365], [-89.91174531059855, 38.57494730452808], [-89.91747701272014, 38.57509853327343], [-89.9232087578033, 38.57524948184527], [-89.92894054576861, 38.57540015023718], [-89.9346723765374, 38.57555053844291], [-89.94040425002937, 38.575700646456035], [-89.94613616616594, 38.575850474270275], [-89.95186812486747, 38.57600002187931], [-89.95760012605474, 38.57614928927685], [-89.96333216964818, 38.57629827645657], [-89.96906425556878, 38.576446983412225], [-89.97479638373702, 38.57659541013755], [-89.98052855407339, 38.576743556626255], [-89.98626076649877, 38.57689142287212], [-89.99199302093378, 38.57703900886892], [-89.99772531729909, 38.57718631461045], [-90.00345765551502, 38.57733334009046], [-90.00383864458685, 38.577343101891664], [-90.00531371259602, 38.57654151407186], [-90.00768877809232, 38.575505070282254], [-90.0101817611332, 38.57465630887495], [-90.01276866993246, 38.57400339785109], [-90.01542461101569, 38.57355262053657], [-90.01812402819536, 38.573308315245036], [-90.02084094784766, 38.573272833609394], [-90.03230528565408, 38.573564315396325], [-90.03803751664378, 38.57370963591229], [-90.04376978891874, 38.57385467616838], [-90.04950210239971, 38.57399943615857], [-90.05523445700669, 38.57414391587664], [-90.06096685266105, 38.57428811531659], [-90.06669928928306, 38.57443203447231], [-90.06940779185332, 38.574604662111604], [-90.07208172632623, 38.57498480427019], [-90.07469536292302, 38.575568804052715], [-90.07722355032266, 38.57635104283287], [-90.07964195713711, 38.57732399414875], [-90.0819273056049, 38.57847829592128], [-90.08405759527628, 38.57980284031038], [-90.08601231455471, 38.58128488035519], [-90.09156377890916, 38.58592777670818], [-90.09711595709261, 38.590570434096705], [-90.1003693740697, 38.59329050955178], [-90.10037038853423, 38.59329053470727], [-90.1030797280503, 38.59346241229778], [-90.10575458333274, 38.59384181717161], [-90.10836921576691, 38.59442509951984], [-90.11089846447676, 38.59520664761411], [-90.11331798789064, 38.59617894163591], [-90.11560449753159, 38.5973326258314], [-90.11773598180419, 38.59865659830675], [-90.11969191764199, 38.60013811761134], [-90.12524703333325, 38.6047795413649], [-90.13080286360662, 38.60942072543884], [-90.13405842073522, 38.6121399373296], [-90.1340594354954, 38.612139962203244], [-90.13676961152015, 38.61231108861166], [-90.13944538736543, 38.61268975500937], [-90.14206101558321, 38.613272318685375], [-90.14459132574285, 38.614053174821095], [-90.14701196608786, 38.61502481025369], [-90.14929963742259, 38.61617787556693], [-90.15143231700098, 38.61750127482592], [-90.1516631853951, 38.617675979968546], [-90.15335494907958, 38.61805257163485], [-90.15588556202792, 38.61883319373389], [-90.1583065263831, 38.61980460644268], [-90.16059453984083, 38.620957462487915], [-90.16200276088175, 38.62183104631822], [-90.1623840391549, 38.621840300955235], [-90.162765317602, 38.62184955435166], [-90.1642396843002, 38.621045932271606], [-90.16661417208775, 38.620006233052635], [-90.16910706739279, 38.61915407339345], [-90.1716943792067, 38.618497653954506], [-90.17318894377344, 38.6182420668363], [-90.17749977716335, 38.61506205445072], [-90.1795696676648, 38.613678666321206], [-90.18180234158571, 38.612461074445534], [-90.18417630636458, 38.611420996618754], [-90.18666871279281, 38.61056844202457], [-90.18925557455134, 38.60991161512261], [-90.19191199856259, 38.609456836869], [-90.19461242396369, 38.609208484020144], [-90.19733086742949, 38.609168947097345], [-90.20306676374199, 38.60930629145969], [-90.20880269910246, 38.6094433550759], [-90.21151305774436, 38.6096127506965], [-90.214189232125, 38.60998971654708], [-90.21680547098101, 38.610570626257584], [-90.21933659803601, 38.61134989090512], [-90.2217582537122, 38.61232001262534], [-90.2240471290907, 38.613471656557174], [-90.2261811898919, 38.614793740438174], [-90.22813988833741, 38.616273540999124], [-90.22990436086693, 38.617896816146185], [-90.2314576098121, 38.61964794176714], [-90.2327846672777, 38.621510061858054], [-90.23387273964492, 38.623465250537045], [-90.2347113312915, 38.62549468439792], [-90.235292346318, 38.627578823553996], [-90.23561016727537, 38.629697599638014], [-90.235661710107, 38.631830608954395], [-90.23544645474344, 38.63395730892828], [-90.23496645102114, 38.636057215961515], [-90.23422629983291, 38.63811010278903], [-90.2332331096577, 38.64009619343225], [-90.23199642885577, 38.64199635386551], [-90.23052815435229, 38.64379227655165], [-90.22884241756417, 38.64546665705907], [-90.22695544864922, 38.64700336104795], [-90.22488542037168, 38.64838758000428], [-90.22265227308128, 38.649605974208434], [-90.2202775224913, 38.65064680154801], [-90.21778405211411, 38.65150003092072], [-90.21519589236664, 38.65215743912318], [-90.21253798849301, 38.65261269028135], [-90.20983595956434, 38.652861397048675], [-90.2071158509062, 38.65290116297529], [-90.20711483550886, 38.65290113871382]]]}}, {"id": "2", "type": "Feature", "properties": {"route_run_id": "stl_midamerica_to_st_louis_union_station_2026-03-09_0076", "route_pair": "midamerica_to_st_louis_union_station", "route_pair_label": "MidAmerica to St. Louis Union Station", "origin_label": "MidAmerica St. Louis Airport", "destination_label": "St. Louis Union Station", "origin_lat": 38.5451731, "origin_lon": -89.8351856, "destination_lat": 38.629167, "destination_lon": -90.2075, "traffic_date": "2026-03-09", "traffic_dataset": "March 9th - Monday", "weight_id": "w_0076", "distance_weight": 0.1, "population_weight": 0.0, "traffic_weight": 0.9, "airspace_weight": 0.0, "path_nodes": 69, "path_node_ids": [8877, 8861, 8864, 8865, 8866, 8863, 7715, 7713, 7714, 9726, 9727, 9729, 9728, 9719, 9718, 9716, 9717, 7794, 7793, 7795, 7796, 7804, 7803, 7805, 7813, 7814, 7811, 7812, 9817, 9816, 9819, 9818, 7905, 7901, 7902, 7903, 7916, 7915, 7914, 7913, 1933, 1931, 1932, 1917, 1943, 1946, 1970, 1983, 1998, 2003, 2000, 2191, 2194, 2193, 2192, 2185, 2184, 2186, 2421, 2205, 2450, 2451, 2369, 2375, 2399, 2401, 2406, 2729, 2715], "elapsed_seconds": 0.018125099973985925, "status": "success", "failure_reason": "", "route_distance_km": 49.00456878084652, "distance_cost_sum": 53.93269703187205, "population_cost_sum": 29.18730134339127, "traffic_cost_sum": 1.8881849111714815, "airspace_cost_sum": 38.6, "total_weighted_score": 7.0926361232415385, "clustering_method": "hierarchical_jaccard", "distance_method": "jaccard", "direct_cluster_number": 6, "hierarchical_jaccard_cluster": "hier_jaccard_006", "hierarchical_jaccard_cluster_source": "hier_jaccard_008", "representative_route_run_id": "stl_midamerica_to_st_louis_union_station_2026-03-09_0076", "representative_mean_frechet_miles": 0.5323096772698488, "cluster_size": 17, "cluster_weight_space_percent": 11.486486486486486, "merged_cluster_id": "frechet_merged_003", "source_jaccard_clusters": "hier_jaccard_006", "corridor_width_m": 4828.0, "corridor_buffer_m": 2414.0}, "geometry": {"type": "Polygon", "coordinates": [[[-90.22168920707114, 38.612292353395], [-90.2217582537122, 38.61232001262534], [-90.2240471290907, 38.613471656557174], [-90.2261811898919, 38.614793740438174], [-90.22813988833741, 38.616273540999124], [-90.22990436086693, 38.617896816146185], [-90.2314576098121, 38.61964794176714], [-90.2327846672777, 38.621510061858054], [-90.23387273964492, 38.623465250537045], [-90.2347113312915, 38.62549468439792], [-90.235292346318, 38.627578823553996], [-90.23561016727537, 38.629697599638014], [-90.235661710107, 38.631830608954395], [-90.23544645474344, 38.63395730892828], [-90.23496645102114, 38.636057215961515], [-90.23422629983291, 38.63811010278903], [-90.2332331096577, 38.64009619343225], [-90.23199642885577, 38.64199635386551], [-90.23052815435229, 38.64379227655165], [-90.22884241756417, 38.64546665705907], [-90.22695544864922, 38.64700336104795], [-90.22488542037168, 38.64838758000428], [-90.22265227308128, 38.649605974208434], [-90.2202775224913, 38.65064680154801], [-90.21778405211411, 38.65150003092072], [-90.21519589236664, 38.65215743912318], [-90.21253798849301, 38.65261269028135], [-90.20983595956434, 38.652861397048675], [-90.2071158509062, 38.65290116297529], [-90.20137646007731, 38.652763887390364], [-90.198664518379, 38.65259419749981], [-90.1959868741721, 38.65221682190732], [-90.19336933644814, 38.65163539898075], [-90.19083713310167, 38.6508555337196], [-90.18841466721845, 38.64988474356068], [-90.18612528142255, 38.64873238571517], [-90.183991032576, 38.64740956674651], [-90.1820324790204, 38.645929035272], [-90.17647051453727, 38.641290079969274], [-90.1747067562562, 38.63966602748174], [-90.17315453337378, 38.63791418859121], [-90.17182878531266, 38.63605144276], [-90.17074226634834, 38.63409573659523], [-90.16990542329518, 38.63206591073101], [-90.16953088654746, 38.630717893257405], [-90.1693228715042, 38.63052630483011], [-90.16777096789382, 38.628774404471315], [-90.16644551706791, 38.62691160668925], [-90.1653592704412, 38.62495585858733], [-90.16452267220922, 38.62292600119941], [-90.16419700969716, 38.62175344557954], [-90.16014420044479, 38.618370925571256], [-90.15458573472604, 38.61373104401922], [-90.14902798398015, 38.609090922235005], [-90.1434709480288, 38.604450560351225], [-90.14021534857086, 38.60173160728497], [-90.14021433395185, 38.60173158247029], [-90.13447935263638, 38.60159118049168], [-90.12874441131086, 38.60145049789743], [-90.12300951005483, 38.6013095346935], [-90.12029979957731, 38.601138106119976], [-90.11762457784454, 38.60075902113448], [-90.11500963043535, 38.60017593459914], [-90.11248016020814, 38.599394467560096], [-90.11006054383365, 38.59842215289784], [-90.10777409640006, 38.59726836251476], [-90.10564284638146, 38.5959442167712], [-90.10541216187626, 38.59576942716662], [-90.10372120945655, 38.59539217015149], [-90.10119204212033, 38.59461046950838], [-90.0987727498021, 38.59363793261749], [-90.09648664445744, 38.59248393352343], [-90.09435575125424, 38.59115959459745], [-90.09240059612323, 38.589677679086755], [-90.08684880148013, 38.58503481164223], [-90.08129772062247, 38.58039170531693], [-90.07574735337182, 38.57574836024324], [-90.07019769954965, 38.57110477655339], [-90.06694642473167, 38.568383936482945], [-90.06694541064758, 38.56838391105147], [-90.06121345332424, 38.56824002285903], [-90.05548153695555, 38.568095854442554], [-90.04974966162038, 38.56795140580811], [-90.04401782739846, 38.567806676961794], [-90.03828603436871, 38.567661667909654], [-90.0355779129956, 38.56748833218714], [-90.03290450091099, 38.567107373164575], [-90.03029156619999, 38.56652246378891], [-90.02776429226193, 38.56573924269219], [-90.02690415388884, 38.565392676650596], [-90.0260172629064, 38.565694831758876], [-90.02343075842859, 38.566348053649506], [-90.020775124201, 38.566799026074186], [-90.018075957413, 38.56704340299548], [-90.01535927576356, 38.567078829765755], [-90.01265126600146, 38.5669049658486], [-90.00997803082346, 38.566523488073805], [-90.00736533660242, 38.56593807439509], [-90.0048383644094, 38.56515436831108], [-90.00242146675976, 38.56417992429773], [-90.00013793245449, 38.56302413478674], [-89.99873290606729, 38.562148717133574], [-89.99835199900721, 38.5621389419395], [-89.99262089478164, 38.561991715034026], [-89.98688983245259, 38.56184420802292], [-89.98115881209924, 38.56169642091244], [-89.97542783380058, 38.56154835370875], [-89.96969689763642, 38.56140000641812], [-89.96396600368567, 38.5612513790468], [-89.9582351520278, 38.561102471601046], [-89.952504342742, 38.56095328408714], [-89.94677357590768, 38.56080381651136], [-89.94104285160381, 38.56065406887998], [-89.93531216991006, 38.56050404119935], [-89.92958153090534, 38.560353733475736], [-89.92385093466928, 38.560203145715526], [-89.91812038128069, 38.56005227792503], [-89.91238987081923, 38.55990113011061], [-89.9066594033639, 38.55974970227863], [-89.90092897899416, 38.55959799443547], [-89.89519859778902, 38.55944600658753], [-89.88946825982782, 38.55929373874119], [-89.88373796518997, 38.5591411909029], [-89.8833571149587, 38.55913104221454], [-89.88188116341252, 38.55993105100071], [-89.87950498923671, 38.56096488621358], [-89.87701113978045, 38.561810817169736], [-89.87442364926042, 38.562460691097705], [-89.87176745656429, 38.562908244844756], [-89.8690681643083, 38.563149165368465], [-89.86635179142228, 38.56318113138374], [-89.86062131469875, 38.56302743904104], [-89.85489088170497, 38.56287346669387], [-89.84916049252055, 38.56271921434877], [-89.84877963602264, 38.562708952373804], [-89.84730325446111, 38.563508504611384], [-89.84492651085046, 38.56454161008748], [-89.84243217938845, 38.56538678012472], [-89.83984429895912, 38.56603586929134], [-89.83718781222616, 38.566482622006404], [-89.83448832465358, 38.56672273295781], [-89.83177185706234, 38.5667538886743], [-89.82906459413968, 38.56657578984688], [-89.82639263135688, 38.56619015418296], [-89.82378172276826, 38.56560069976697], [-89.82125703215453, 38.564813109091325], [-89.81884288993888, 38.56383497411039], [-89.81656255824578, 38.56267572285528], [-89.81443800638898, 38.56134652832641], [-89.81248969896976, 38.55986020055348], [-89.81073639863838, 38.55823106287524], [-89.80919498542428, 38.55647481364426], [-89.80788029437387, 38.5546083747022], [-89.8068049730516, 38.55264972809784], [-89.80597936026236, 38.550617742632674], [-89.80541138714278, 38.5485319919151], [-89.80510650154868, 38.54641256568414], [-89.80506761643686, 38.54427987622659], [-89.80529508270605, 38.54215446175561], [-89.80578668672408, 38.540056788646076], [-89.80653767252987, 38.53800705443006], [-89.80754078846331, 38.536024993445814], [-89.80878635774131, 38.534129687005574], [-89.81026237227276, 38.53233937990215], [-89.81195460878473, 38.53067130501084], [-89.81384676612346, 38.529141517663916], [-89.81977252193757, 38.524798298064376], [-89.8218461417525, 38.523421405549094], [-89.82408149852667, 38.52221076644368], [-89.82645707412495, 38.521178031680236], [-89.82895000404102, 38.52033313985033], [-89.83153629707313, 38.51968422176728], [-89.83419106571694, 38.51923752239027], [-89.83688876508143, 38.5189973408535], [-89.8396034380569, 38.518965989171356], [-89.84533030391898, 38.51912056234706], [-89.85105721364638, 38.51927485596931], [-89.85678416715976, 38.51942887003156], [-89.85716479841751, 38.519439096338786], [-89.85864014327296, 38.51863937150598], [-89.86101515135448, 38.51760590779933], [-89.86350760092203, 38.51676025603658], [-89.8660935053746, 38.51611055433798], [-89.868747980929, 38.51566305519533], [-89.87144548550096, 38.51542206542911], [-89.87416006384642, 38.51538990482015], [-89.87988683628677, 38.5155427760955], [-89.88561365210755, 38.51569536782326], [-89.89134051122969, 38.515847679997], [-89.8970674135744, 38.515999712610345], [-89.90279435906233, 38.516151465656876], [-89.9085213476145, 38.516302939130206], [-89.91424837915196, 38.51645413302398], [-89.91997545359544, 38.516605047331815], [-89.92570257086611, 38.516755682047375], [-89.9314297308846, 38.516906037164304], [-89.9371569335722, 38.51705611267629], [-89.9428841788495, 38.51720590857699], [-89.94861146663769, 38.51735542486013], [-89.95433879685733, 38.51750466151939], [-89.96006616942982, 38.517653618548536], [-89.96579358427567, 38.517802295941244], [-89.97152104131591, 38.51795069369129], [-89.9772485404714, 38.51809881179241], [-89.98297608166325, 38.518246650238396], [-89.98870366481187, 38.51839420902297], [-89.99443128983872, 38.51854148813998], [-90.00015895666436, 38.518688487583226], [-90.0058866652096, 38.51883520734648], [-90.01161441539548, 38.51898164742358], [-90.01432062914351, 38.51915546402042], [-90.01699215431758, 38.51953677539945], [-90.01732225935817, 38.51961075358797], [-90.01765777491073, 38.51955374438387], [-90.02035515461375, 38.519309304016915], [-90.0230700403727, 38.519273688494685], [-90.02879791500568, 38.51941928947641], [-90.03452583096275, 38.519564610747416], [-90.03723215612095, 38.519737900055325], [-90.03990385771156, 38.5201186935476], [-90.04251522738932, 38.520703328065345], [-90.04504113559513, 38.52148617887387], [-90.04745727282457, 38.52245971361686], [-90.04974038311316, 38.523614564591334], [-90.05114534799827, 38.52448936883363], [-90.05152607479829, 38.52449896438592], [-90.05725451100325, 38.524643189849904], [-90.0629829881462, 38.524787135527966], [-90.0687115061484, 38.52493080141405], [-90.07444006493026, 38.52507418750209], [-90.08016866441285, 38.52521729378609], [-90.08287537803041, 38.525389539060235], [-90.08554759463875, 38.52576930691715], [-90.08815960095458, 38.526352944054075], [-90.0906862613161, 38.52713483532292], [-90.09310325900927, 38.528107457592554], [-90.0953873298212, 38.5292614519358], [-90.0975164855956, 38.53058571345588], [-90.09947022565652, 38.532067497899014], [-90.10501900804303, 38.536709674929384], [-90.11056850255187, 38.54135161324444], [-90.11611870936113, 38.545993312712135], [-90.12166962864863, 38.55063477320007], [-90.12571693464938, 38.554018445102045], [-90.12718705683753, 38.554346291703105], [-90.12971515549506, 38.55512739068168], [-90.13213364518215, 38.55609925874786], [-90.13441924736507, 38.55725254423384], [-90.13582593365885, 38.558126391716165], [-90.13620686648045, 38.55813571874888], [-90.14193840188616, 38.55827590385291], [-90.14766997710923, 38.558415808768025], [-90.1534015920702, 38.558555433488316], [-90.15610983347568, 38.55872603720627], [-90.15878376521556, 38.55910419150357], [-90.16139765755005, 38.559686258585614], [-90.16392635672337, 38.560466638398744], [-90.16634552646138, 38.56143782234822], [-90.16863188171055, 38.56259046534597], [-90.17076341239125, 38.56391347550428], [-90.1727195950295, 38.56539412062325], [-90.17827574364745, 38.570033075914246], [-90.18383260574848, 38.574671791007816], [-90.18939018151053, 38.57931026577173], [-90.19494847111147, 38.58394850007346], [-90.20050747472912, 38.58858649378053], [-90.2060671925415, 38.59322424676059], [-90.21162762472636, 38.59786175888094], [-90.21339128326964, 38.59948525705756], [-90.2149437466638, 38.60123657717242], [-90.21627005457287, 38.60309886133968], [-90.21735742059575, 38.605054182087706], [-90.21819535591692, 38.60708371472805], [-90.21857071831657, 38.60843161055483], [-90.21877880958375, 38.608623114458794], [-90.22033159213768, 38.61037437284994], [-90.22165819733515, 38.61223660479344], [-90.22168920707114, 38.612292353395]]]}}, {"id": "3", "type": "Feature", "properties": {"route_run_id": "stl_midamerica_to_st_louis_union_station_2026-03-09_0267", "route_pair": "midamerica_to_st_louis_union_station", "route_pair_label": "MidAmerica to St. Louis Union Station", "origin_label": "MidAmerica St. Louis Airport", "destination_label": "St. Louis Union Station", "origin_lat": 38.5451731, "origin_lon": -89.8351856, "destination_lat": 38.629167, "destination_lon": -90.2075, "traffic_date": "2026-03-09", "traffic_dataset": "March 9th - Monday", "weight_id": "w_0267", "distance_weight": 0.6, "population_weight": 0.4, "traffic_weight": 0.0, "airspace_weight": 0.0, "path_nodes": 67, "path_node_ids": [8877, 8876, 8868, 8869, 8870, 8867, 9753, 9754, 9755, 9744, 9746, 9747, 9745, 9737, 9736, 9734, 9735, 9919, 9921, 9944, 9947, 9940, 9941, 9962, 9955, 9957, 9959, 9994, 9885, 9886, 9884, 9887, 9897, 9895, 9896, 9894, 9902, 9903, 9904, 9909, 2213, 2212, 2214, 1997, 1994, 1995, 1996, 2005, 2004, 2007, 2006, 2191, 2194, 2193, 2192, 2418, 2422, 2425, 2427, 2453, 2455, 2454, 2372, 2399, 2401, 2404, 2715], "elapsed_seconds": 0.012639300024602562, "status": "success", "failure_reason": "", "route_distance_km": 46.66599661404935, "distance_cost_sum": 51.35894712861125, "population_cost_sum": 17.364166724554934, "traffic_cost_sum": 13.818965585036251, "airspace_cost_sum": 38.0, "total_weighted_score": 37.76103496698872, "clustering_method": "hierarchical_jaccard", "distance_method": "jaccard", "direct_cluster_number": 8, "hierarchical_jaccard_cluster": "hier_jaccard_008", "hierarchical_jaccard_cluster_source": "hier_jaccard_005", "representative_route_run_id": "stl_midamerica_to_st_louis_union_station_2026-03-09_0267", "representative_mean_frechet_miles": 0.9462824279120066, "cluster_size": 13, "cluster_weight_space_percent": 8.783783783783784, "merged_cluster_id": "frechet_merged_004", "source_jaccard_clusters": "hier_jaccard_008", "corridor_width_m": 4828.0, "corridor_buffer_m": 2414.0}, "geometry": {"type": "Polygon", "coordinates": [[[-90.1875329351716, 38.587054582410396], [-90.18900405180392, 38.58738168616022], [-90.1915340408775, 38.58816151362197], [-90.19395452544842, 38.589132171397786], [-90.19624220783977, 38.59028431946615], [-90.19837506522681, 38.5916068707083], [-90.20033256139011, 38.59308709734973], [-90.20589259736317, 38.59772486814585], [-90.21145334786792, 38.602362398042615], [-90.21701481308241, 38.60699968690759], [-90.22257699318453, 38.611636734608055], [-90.22813988835246, 38.616273541011665], [-90.22990436088033, 38.617896816159806], [-90.23145760982374, 38.61964794178174], [-90.23278466728746, 38.62151006187347], [-90.23387273965271, 38.62346525055313], [-90.23471133129725, 38.62549468441454], [-90.23529234632164, 38.62757882357098], [-90.23561016727685, 38.62969759965519], [-90.23566171010633, 38.63183060897159], [-90.23544645474063, 38.63395730894535], [-90.2349664510162, 38.63605721597829], [-90.2342262998259, 38.63811010280534], [-90.2332331096487, 38.640096193447945], [-90.23199642884484, 38.641996353880444], [-90.23052815433954, 38.643792276565655], [-90.22884241754973, 38.645466657072035], [-90.22695544863322, 38.64700336105976], [-90.2248854203543, 38.64838758001479], [-90.22265227306265, 38.64960597421758], [-90.22027752247163, 38.65064680155565], [-90.21778405209358, 38.651500030926826], [-90.21519589234545, 38.652157439127684], [-90.21253798847137, 38.652612690284215], [-90.20983595954245, 38.65286139704984], [-90.20711585088425, 38.652901162974764], [-90.20440388234873, 38.652731605634095], [-90.20172619488959, 38.652354360289834], [-90.19910859791699, 38.6517730640528], [-90.19657631989902, 38.65099332069986], [-90.19415376464441, 38.650022646491706], [-90.19186427564227, 38.64887039752114], [-90.18972991075346, 38.647547679301894], [-90.1877712294423, 38.64606723948044], [-90.18220886751362, 38.641428543115836], [-90.17664722160968, 38.63678960581664], [-90.1710862915518, 38.63215042771524], [-90.16703258750663, 38.628768117377284], [-90.16556075294136, 38.628440710659945], [-90.16302969025506, 38.62766028237299], [-90.16060839807004, 38.62668895616934], [-90.15832020767049, 38.6255360944246], [-90.15618716437196, 38.62421280855385], [-90.15422981487534, 38.62273185166659], [-90.14867142863476, 38.61809169348089], [-90.14311375750715, 38.61345129511633], [-90.13755680131388, 38.60881065670524], [-90.1320005598766, 38.60416977838025], [-90.1287454259157, 38.601450522811376], [-90.12874441131086, 38.60145049789743], [-90.12300951005483, 38.6013095346935], [-90.11727464894766, 38.6011682908858], [-90.11153982806923, 38.601026766480324], [-90.10580504749879, 38.60088496148302], [-90.10007030731605, 38.60074287589988], [-90.09433560760034, 38.60060050973689], [-90.08860094843118, 38.60045786300002], [-90.0828663298885, 38.60031493569534], [-90.07713175205136, 38.60017172782886], [-90.07139721499945, 38.60002823940661], [-90.06566271881209, 38.59988447043462], [-90.05992826356902, 38.59974042091898], [-90.05419384934976, 38.59959609086576], [-90.05148446932404, 38.599423075416034], [-90.04880977434375, 38.59904243163961], [-90.04619554488916, 38.598457829443504], [-90.04366697686784, 38.59767490450006], [-90.04124843821602, 38.59670120375531], [-90.03896323358929, 38.59554611248013], [-90.03755709573997, 38.59467112164594], [-90.03717600339402, 38.59466146596749], [-90.03144211109861, 38.594516037103574], [-90.02570826021461, 38.5943703277775], [-90.01997445082087, 38.59422433799525], [-90.01424068299744, 38.594078067763114], [-90.00850695682334, 38.59393151708719], [-90.00277327237818, 38.59378468597365], [-89.99703962974154, 38.59363757442873], [-89.99130602899261, 38.59349018245858], [-89.9855724702109, 38.59334251006942], [-89.98286359395868, 38.5931679194113], [-89.98018959535393, 38.59278572851206], [-89.97757624813975, 38.59219962221053], [-89.97504873968643, 38.59141525069305], [-89.9726314276763, 38.59044017486101], [-89.97034760489538, 38.5892837932465], [-89.9682192744209, 38.587957251190595], [-89.96626693738885, 38.586473333170424], [-89.96072390517934, 38.58182481094322], [-89.95747651008438, 38.57910107809126], [-89.95747549595089, 38.57910105170534], [-89.95174326084168, 38.578951768633004], [-89.94601106822486, 38.578802205319825], [-89.94027891817971, 38.57865236177206], [-89.93757077218267, 38.57847674786736], [-89.93489762370325, 38.578093551910676], [-89.93228523826569, 38.57750646844013], [-89.92975879394048, 38.57672115706979], [-89.92734263812032, 38.57574518776582], [-89.92506005241239, 38.57458796767424], [-89.92293302793517, 38.57326065021591], [-89.92098205320306, 38.571776027335694], [-89.91773666314212, 38.56905126692727], [-89.91773564918773, 38.56905124020288], [-89.91200442611738, 38.56890004398879], [-89.90627324607412, 38.568748567667676], [-89.90054210913706, 38.568596811245925], [-89.89481101538567, 38.56844477472992], [-89.88907996489908, 38.56829245812608], [-89.88334895775657, 38.568139861440805], [-89.8776179940375, 38.56798698468054], [-89.87188707382107, 38.567833827851715], [-89.86615619718646, 38.567680390960774], [-89.86042536421307, 38.56752667401418], [-89.85469457498007, 38.567372677018426], [-89.84896382956691, 38.56721839997999], [-89.8432331280525, 38.56706384290538], [-89.83750247051626, 38.56690900580107], [-89.83177185703757, 38.56675388867363], [-89.82906459411512, 38.5665757898443], [-89.82639263133275, 38.566190154178514], [-89.82378172274481, 38.56560069976069], [-89.82125703213198, 38.56481310908327], [-89.81884288991746, 38.56383497410062], [-89.81656255822567, 38.56267572284393], [-89.81443800637038, 38.56134652831356], [-89.81248969895286, 38.559860200539255], [-89.81073639862333, 38.55823106285978], [-89.80919498541124, 38.55647481362773], [-89.80788029436297, 38.55460837468475], [-89.80680497304293, 38.55264972807962], [-89.805979360256, 38.55061774261388], [-89.8054113871388, 38.54853199189588], [-89.80510650154712, 38.546412565664724], [-89.80506761643771, 38.54427987620715], [-89.80529508270935, 38.54215446173632], [-89.80578668672975, 38.540056788627126], [-89.80653767253787, 38.53800705441165], [-89.80754078847357, 38.536024993428114], [-89.80878635775375, 38.53412968698875], [-89.81026237228723, 38.53233937988635], [-89.81195460880109, 38.53067130499623], [-89.81384676614157, 38.52914151765065], [-89.81592062241492, 38.52776474136825], [-89.81815621044953, 38.52655422641042], [-89.82053200989006, 38.52552162251345], [-89.8230251540819, 38.52467686700904], [-89.82561164976717, 38.52402808939869], [-89.8282666074971, 38.52358153329049], [-89.83096448056651, 38.52334149644106], [-89.8336793101989, 38.523310289474026], [-89.83940648754941, 38.523465166994754], [-89.84513370885492, 38.52361976492388], [-89.85086097403612, 38.523774083254864], [-89.85658828301405, 38.52392812198122], [-89.86231563570983, 38.524081881096485], [-89.8680430320441, 38.52423536059418], [-89.87377047193797, 38.52438856046781], [-89.8794979553122, 38.52454148071096], [-89.88522548208796, 38.52469412131719], [-89.89095305218603, 38.52484648228009], [-89.89668066552721, 38.52499856359321], [-89.90240832203263, 38.52515036525019], [-89.9081360216231, 38.525301887244616], [-89.9138637642194, 38.52545312957011], [-89.91959154974265, 38.52560409222032], [-89.9253193781135, 38.52575477518887], [-89.93104724925311, 38.52590517846945], [-89.9337534029234, 38.52608086263995], [-89.93642463342557, 38.5264640077946], [-89.93903523692212, 38.52705092817699], [-89.94156009118652, 38.52783597708421], [-89.94397489680293, 38.528811601030604], [-89.94625641055664, 38.52996841222503], [-89.94838266879167, 38.531295278673525], [-89.95033319860322, 38.5327794310517], [-89.95357833996354, 38.535503284222095], [-89.95357935348088, 38.53550331061677], [-89.95930814881685, 38.53565236309115], [-89.96503698646714, 38.53580113575033], [-89.97076586635238, 38.53594962858803], [-89.97347255312766, 38.536124412328746], [-89.97614442334554, 38.53650667306132], [-89.97875576703234, 38.53709273352894], [-89.98128145486302, 38.5378769552947], [-89.98369717942798, 38.53885179282638], [-89.98597968869922, 38.54000786589747], [-89.98810700947148, 38.54133404961748], [-89.99005865864515, 38.54281758123603], [-89.9956008402124, 38.54746469377002], [-89.99884839922669, 38.55018738048689], [-89.99884941299261, 38.55018740649799], [-90.00457961277324, 38.55033429081734], [-90.01030985426499, 38.55048089513753], [-90.01604013738837, 38.55062721945237], [-90.0217704620642, 38.55077326375569], [-90.02750082821342, 38.55091902804137], [-90.03323123575632, 38.55106451230321], [-90.03896168461422, 38.551209716535155], [-90.0446921747072, 38.551354640731034], [-90.05042270595632, 38.55149928488477], [-90.05313028681651, 38.55167225457779], [-90.05580326827354, 38.552052733316366], [-90.05841592969628, 38.55263706096889], [-90.0609431291246, 38.5534196157546], [-90.06336054465557, 38.55439286816921], [-90.06564490804696, 38.55554745323258], [-90.06705067563215, 38.55642209446201], [-90.06743157625216, 38.55643164492721], [-90.07316262766005, 38.5565751918341], [-90.07889371983731, 38.55671845862373], [-90.08462485270495, 38.55686144529005], [-90.09035602618337, 38.55700415182708], [-90.09608724019343, 38.5571465782288], [-90.10181849465535, 38.55728872448917], [-90.10754978949026, 38.557430590602216], [-90.11328112461877, 38.55757217656196], [-90.11901249996127, 38.55771348236245], [-90.1247439154387, 38.55785450799774], [-90.13047537097145, 38.55799525346184], [-90.13620686648045, 38.55813571874888], [-90.14193840188616, 38.55827590385291], [-90.14464658912313, 38.55844677172394], [-90.14732043409765, 38.5588251855577], [-90.14993420790134, 38.55940750506557], [-90.15246275791387, 38.5601881277678], [-90.15488174929003, 38.56115954273472], [-90.15716789868512, 38.56231240265671], [-90.15929919799221, 38.56363561355925], [-90.16125512595521, 38.565116441310316], [-90.16681048230686, 38.56975591278921], [-90.17236655210354, 38.57439514425622], [-90.17792333552312, 38.579034135578844], [-90.18348083274367, 38.583672886624825], [-90.1875329351716, 38.587054582410396]]]}}, {"id": "4", "type": "Feature", "properties": {"route_run_id": "stl_midamerica_to_st_louis_union_station_2026-03-09_0241", "route_pair": "midamerica_to_st_louis_union_station", "route_pair_label": "MidAmerica to St. Louis Union Station", "origin_label": "MidAmerica St. Louis Airport", "destination_label": "St. Louis Union Station", "origin_lat": 38.5451731, "origin_lon": -89.8351856, "destination_lat": 38.629167, "destination_lon": -90.2075, "traffic_date": "2026-03-09", "traffic_dataset": "March 9th - Monday", "weight_id": "w_0241", "distance_weight": 0.5, "population_weight": 0.1, "traffic_weight": 0.3, "airspace_weight": 0.1, "path_nodes": 67, "path_node_ids": [8877, 8876, 8868, 8869, 8870, 8867, 9753, 9754, 9755, 9750, 9773, 9779, 9781, 9796, 9799, 10022, 10025, 10007, 10009, 10232, 10238, 10243, 10244, 10242, 10221, 10227, 10229, 10228, 10146, 10144, 10147, 10145, 10157, 10156, 10154, 10155, 10162, 10164, 10163, 10165, 2247, 2272, 2274, 2285, 2283, 2508, 2286, 2298, 2300, 2301, 2307, 2491, 2492, 2493, 2496, 2507, 2506, 2828, 2505, 2809, 2811, 2810, 2728, 2730, 2731, 2729, 2715], "elapsed_seconds": 0.013998899987200275, "status": "success", "failure_reason": "", "route_distance_km": 46.67985536954628, "distance_cost_sum": 51.37419958527094, "population_cost_sum": 21.857247490094956, "traffic_cost_sum": 8.697158050998796, "airspace_cost_sum": 26.00000000000002, "total_weighted_score": 33.08197195694461, "clustering_method": "hierarchical_jaccard", "distance_method": "jaccard", "direct_cluster_number": 12, "hierarchical_jaccard_cluster": "hier_jaccard_012", "hierarchical_jaccard_cluster_source": "hier_jaccard_011", "representative_route_run_id": "stl_midamerica_to_st_louis_union_station_2026-03-09_0241", "representative_mean_frechet_miles": 0.9454236642284757, "cluster_size": 5, "cluster_weight_space_percent": 3.3783783783783785, "merged_cluster_id": "frechet_merged_005", "source_jaccard_clusters": "hier_jaccard_012, hier_jaccard_017", "corridor_width_m": 4828.0, "corridor_buffer_m": 2414.0}, "geometry": {"type": "Polygon", "coordinates": [[[-90.15106391049254, 38.608050798526925], [-90.15144511220467, 38.60806008603352], [-90.15718069326877, 38.60819967615578], [-90.16291631401742, 38.60833898557854], [-90.1686519743712, 38.60847801429595], [-90.17438767425011, 38.608616762302056], [-90.18012341357533, 38.608755229591104], [-90.18585919226658, 38.608893416157215], [-90.19159501024447, 38.60903132199455], [-90.19733086742968, 38.60916894709735], [-90.20306676374199, 38.60930629145969], [-90.20880269910246, 38.6094433550759], [-90.21151305774436, 38.6096127506965], [-90.214189232125, 38.60998971654708], [-90.21680547098101, 38.610570626257584], [-90.21933659803601, 38.61134989090512], [-90.2217582537122, 38.61232001262534], [-90.2240471290907, 38.613471656557174], [-90.2261811898919, 38.614793740438174], [-90.22813988833741, 38.616273540999124], [-90.22990436086693, 38.617896816146185], [-90.2314576098121, 38.61964794176714], [-90.2327846672777, 38.621510061858054], [-90.23387273964492, 38.623465250537045], [-90.2347113312915, 38.62549468439792], [-90.235292346318, 38.627578823553996], [-90.23561016727537, 38.629697599638014], [-90.235661710107, 38.631830608954395], [-90.23544645474344, 38.63395730892828], [-90.23496645102114, 38.636057215961515], [-90.23422629983291, 38.63811010278903], [-90.2332331096577, 38.64009619343225], [-90.23199642885577, 38.64199635386551], [-90.23052815435229, 38.64379227655165], [-90.22884241756417, 38.64546665705907], [-90.22695544864922, 38.64700336104795], [-90.22488542037168, 38.64838758000428], [-90.22265227308128, 38.649605974208434], [-90.2202775224913, 38.65064680154801], [-90.21778405211411, 38.65150003092072], [-90.21519589236664, 38.65215743912318], [-90.21253798849301, 38.65261269028135], [-90.20983595956434, 38.652861397048675], [-90.2071158509062, 38.65290116297529], [-90.20137646007731, 38.652763887390364], [-90.19563710838773, 38.65262633062588], [-90.18989779591683, 38.65248849268764], [-90.18415852274512, 38.652350373581484], [-90.17841928895173, 38.65221197331325], [-90.17268009461674, 38.65207329188875], [-90.16694093982012, 38.65193432931388], [-90.16120182464098, 38.65179508559444], [-90.15546274915985, 38.651655560736394], [-90.14972371345613, 38.651515754745574], [-90.14398471760971, 38.6513756676279], [-90.13824576169998, 38.65123529938926], [-90.13553411772011, 38.65106415168618], [-90.13285695174481, 38.65068534373918], [-90.13024006813662, 38.650102527740756], [-90.12770868845715, 38.64932132213357], [-90.12528720781783, 38.648349257285886], [-90.12299895930519, 38.64719570270303], [-90.12159076400938, 38.6463216511506], [-90.1212093696275, 38.64631225860853], [-90.11547093232153, 38.64617078858263], [-90.11275956622937, 38.6459991215119], [-90.11008274025325, 38.64561980322912], [-90.10746625546791, 38.64503649085192], [-90.10493532957766, 38.644254807612406], [-90.1025143533047, 38.64328228848606], [-90.10022665485755, 38.64212830735848], [-90.09809427477236, 38.64080398644191], [-90.09786347250291, 38.64062917821306], [-90.09617152628832, 38.640251774900754], [-90.09364090402073, 38.63946985771719], [-90.09122025257534, 38.638497116042686], [-90.08893289702063, 38.637342925908165], [-90.08752532765465, 38.6364684860499], [-90.08714399698852, 38.636458984478814], [-90.08443310526552, 38.63628667657246], [-90.08175682859826, 38.635906728569665], [-90.07914096275096, 38.63532280366513], [-90.07661071944332, 38.63454053100057], [-90.07419048279752, 38.63356745123625], [-90.07190357387108, 38.63241294366281], [-90.07049631753236, 38.63153830988068], [-90.07011501878176, 38.63152875382703], [-90.06740437833278, 38.63135605950761], [-90.06472839856637, 38.63097573184053], [-90.0621128723762, 38.630391437684466], [-90.05958300819745, 38.62960880974378], [-90.0571631864859, 38.62863539210549], [-90.05487672428681, 38.62748056731776], [-90.05274565018546, 38.62615546572271], [-90.05079049182552, 38.62467285792817], [-90.04523895358813, 38.62002803694257], [-90.04198657544502, 38.61730647189712], [-90.04198556069512, 38.61730644622218], [-90.036249841052, 38.617161181628646], [-90.03051416279034, 38.617015636342686], [-90.0190429307302, 38.616723703717994], [-90.01330737709088, 38.616577316391606], [-90.0075718651513, 38.61643064839739], [-90.00183639499144, 38.616283699741594], [-89.99610096669021, 38.61613647043033], [-89.99036558032776, 38.615988960469885], [-89.98463023598312, 38.61584116986644], [-89.97889493373617, 38.615693098626224], [-89.97315967366623, 38.615544746755496], [-89.96742445585299, 38.61539611426054], [-89.96168928037567, 38.61524720114755], [-89.95595414731406, 38.61509800742286], [-89.9502190567477, 38.61494853309274], [-89.94448400875596, 38.61479877816352], [-89.9417744910164, 38.61462320630417], [-89.93909998331851, 38.61424005237807], [-89.93648626431713, 38.613653010520714], [-89.93395852496307, 38.61286773994988], [-89.93154112515361, 38.61189181024527], [-89.92925735850297, 38.61073462818002], [-89.92712922752261, 38.609407346818664], [-89.92517723139525, 38.607922757769536], [-89.91963542464364, 38.60327234211912], [-89.91638874786048, 38.60054750009972], [-89.91638773346438, 38.600547473345365], [-89.91367886259486, 38.60037127449124], [-89.91100507263909, 38.599987504664334], [-89.90839213531434, 38.59939986394346], [-89.9058652340153, 38.598614017323435], [-89.90344872053821, 38.59763753993885], [-89.90116587993066, 38.59647984384165], [-89.89903870575564, 38.59515208704828], [-89.89708768795265, 38.59366706574411], [-89.89154882263169, 38.58901542934575], [-89.88601067072405, 38.584363557145835], [-89.88047323204994, 38.57971144927629], [-89.87493650642978, 38.575059105869116], [-89.86940049368391, 38.570406527056385], [-89.866157211072, 38.56768041813113], [-89.86615619718646, 38.567680390960774], [-89.86042536421307, 38.56752667401418], [-89.85469457498007, 38.567372677018426], [-89.84896382956691, 38.56721839997999], [-89.8432331280525, 38.56706384290538], [-89.83750247051626, 38.56690900580107], [-89.83177185703757, 38.56675388867363], [-89.82906459411512, 38.5665757898443], [-89.82639263133275, 38.566190154178514], [-89.82378172274481, 38.56560069976069], [-89.82125703213198, 38.56481310908327], [-89.81884288991746, 38.56383497410062], [-89.81656255822567, 38.56267572284393], [-89.81443800637038, 38.56134652831356], [-89.81248969895286, 38.559860200539255], [-89.81073639862333, 38.55823106285978], [-89.80919498541124, 38.55647481362773], [-89.80788029436297, 38.55460837468475], [-89.80680497304293, 38.55264972807962], [-89.805979360256, 38.55061774261388], [-89.8054113871388, 38.54853199189588], [-89.80510650154712, 38.546412565664724], [-89.80506761643771, 38.54427987620715], [-89.80529508270935, 38.54215446173632], [-89.80578668672975, 38.540056788627126], [-89.80653767253787, 38.53800705441165], [-89.80754078847357, 38.536024993428114], [-89.80878635775375, 38.53412968698875], [-89.81026237228723, 38.53233937988635], [-89.81195460880109, 38.53067130499623], [-89.81384676614157, 38.52914151765065], [-89.81592062241492, 38.52776474136825], [-89.81815621044953, 38.52655422641042], [-89.82053200989006, 38.52552162251345], [-89.8230251540819, 38.52467686700904], [-89.82561164976717, 38.52402808939869], [-89.8282666074971, 38.52358153329049], [-89.83096448056651, 38.52334149644106], [-89.8336793101989, 38.523310289474026], [-89.83940648754941, 38.523465166994754], [-89.84513370885492, 38.52361976492388], [-89.85086097403612, 38.523774083254864], [-89.85658828301405, 38.52392812198122], [-89.86231563570983, 38.524081881096485], [-89.8680430320441, 38.52423536059418], [-89.87377047193797, 38.52438856046781], [-89.8794979553122, 38.52454148071096], [-89.88220385132561, 38.52471835092321], [-89.88487467799469, 38.525102660582775], [-89.8874847353516, 38.525690712742964], [-89.89000890640199, 38.52647684982324], [-89.8924228982753, 38.527453507877], [-89.89470347555348, 38.52861128916868], [-89.89682868355517, 38.529939052371795], [-89.89877805944332, 38.531424019530775], [-89.9043132398761, 38.536075187143105], [-89.90984913188548, 38.54072611924651], [-89.91538573565069, 38.54537681570931], [-89.9209230513506, 38.550027276399376], [-89.92646107916443, 38.55467750118476], [-89.92970620448008, 38.557402011886694], [-89.92970721828226, 38.55740203850066], [-89.9324145440357, 38.557577801684324], [-89.93508692147907, 38.55796102363315], [-89.93769863576274, 38.55854801785543], [-89.9402245539926, 38.559333136943124], [-89.94264036653148, 38.56030882674225], [-89.94492282048688, 38.5614656988362], [-89.9470499431612, 38.5627926206542], [-89.94900125333074, 38.56427682234874], [-89.9545422164234, 38.5689258263225], [-89.95778906182152, 38.57164962146641], [-89.9577900758505, 38.571649647845334], [-89.96352176291101, 38.57179861117775], [-89.96925349228825, 38.57194729433085], [-89.97498526390287, 38.57209569729833], [-89.9807170776758, 38.572243820074], [-89.98644893352734, 38.572391662651576], [-89.99218083137835, 38.572539225024855], [-89.99791277114936, 38.57268650718759], [-90.00364475276136, 38.572833509133616], [-90.00937677613442, 38.572980230856686], [-90.01510884118986, 38.57312667235069], [-90.02084094784766, 38.573272833609394], [-90.03230528565408, 38.573564315396325], [-90.03803751664378, 38.57370963591229], [-90.04376978891874, 38.57385467616838], [-90.04950210239971, 38.57399943615857], [-90.05523445700669, 38.57414391587664], [-90.05794290423668, 38.57431680772194], [-90.06061675076779, 38.57469720940596], [-90.06323026766397, 38.57528146153945], [-90.06575830475086, 38.57606394307076], [-90.0681765320804, 38.577037125204306], [-90.07046167361074, 38.57819164364144], [-90.07259173087526, 38.5795163884577], [-90.07454619450523, 38.58099861076322], [-90.08009686378803, 38.58564202211831], [-90.08334939658157, 38.58836253947873], [-90.08335041096147, 38.588362564779054], [-90.08605950001362, 38.5885348282654], [-90.08873405937507, 38.58891461235214], [-90.09134835326991, 38.58949826358591], [-90.09387722406895, 38.59028016669232], [-90.096296333825, 38.591252798439115], [-90.09858239802864, 38.59240679982366], [-90.09998928204003, 38.59328108385469], [-90.10037038853423, 38.59329053470727], [-90.1030797280503, 38.59346241229778], [-90.10575458333274, 38.59384181717161], [-90.10836921576691, 38.59442509951984], [-90.11089846447676, 38.59520664761411], [-90.11331798789064, 38.59617894163591], [-90.11560449753159, 38.5973326258314], [-90.11773598180419, 38.59865659830675], [-90.11796670658859, 38.598831365025326], [-90.11965782634567, 38.59920842172107], [-90.12218737787754, 38.59998973616537], [-90.1246072252749, 38.60096180785937], [-90.12689407695238, 38.602115283188276], [-90.12830150876282, 38.60298924571241], [-90.12868267611334, 38.60299860634025], [-90.13441774033457, 38.60313929668096], [-90.13712757999735, 38.60331040199859], [-90.13980302642535, 38.603689047916156], [-90.1424183353334, 38.604271591918675], [-90.14494833935736, 38.60505242937535], [-90.14736868968161, 38.60602404730105], [-90.14965608989802, 38.60717709644571], [-90.15106391049254, 38.608050798526925]]]}}]}