{"type": "FeatureCollection", "features": [{"type": "Feature", "properties": {"route_run_id": "stl_st_louis_downtown_airport_to_st_louis_lambert_2026-03-09_0004", "route_pair": "st_louis_downtown_airport_to_st_louis_lambert", "route_pair_label": "St. Louis Downtown Airport to St. Louis Lambert", "origin_label": "St. Louis Downtown Airport", "destination_label": "St. Louis Lambert International Airport", "origin_lat": 38.5703611, "origin_lon": -90.1550833, "destination_lat": 38.7486982, "destination_lon": -90.3700257, "traffic_date": "2026-03-09", "traffic_dataset": "March 9th - Monday", "weight_id": "w_0004", "distance_weight": 0.0, "population_weight": 0.0, "traffic_weight": 0.3, "airspace_weight": 0.7, "path_nodes": 41, "path_node_ids": [2179, 2180, 2174, 2199, 2203, 2207, 2341, 2344, 2368, 2374, 2394, 2397, 2712, 2714, 2750, 2744, 2770, 2772, 2777, 3989, 3993, 4006, 4008, 4021, 4045, 4047, 4058, 4062, 4077, 4079, 5077, 5081, 5083, 5306, 5303, 5318, 5323, 5321, 5357, 5358, 5364], "elapsed_seconds": 0.043134600011399016, "status": "success", "failure_reason": "", "route_distance_km": 35.445569252782064, "distance_cost_sum": 39.01014120095092, "population_cost_sum": 24.462470730578612, "traffic_cost_sum": 12.744666408656366, "airspace_cost_sum": 34.4, "total_weighted_score": 27.90339992259691, "clustering_method": "hierarchical_jaccard", "distance_method": "jaccard", "direct_cluster_number": 1, "hierarchical_jaccard_cluster": "hier_jaccard_001", "hierarchical_jaccard_cluster_source": "hier_jaccard_004", "representative_route_run_id": "stl_st_louis_downtown_airport_to_st_louis_lambert_2026-03-09_0004", "representative_mean_frechet_miles": 0.4494800964591518, "cluster_size": 211, "cluster_weight_space_percent": 77.57352941176471, "merged_cluster_id": "frechet_merged_001", "source_jaccard_clusters": "hier_jaccard_001, hier_jaccard_002, hier_jaccard_004"}, "geometry": {"type": "LineString", "coordinates": [[-90.15289905765549, 38.57128267769979], [-90.15845430205954, 38.57592253965332], [-90.16401026010618, 38.58056216167], [-90.16956693197352, 38.58520154361737], [-90.17512431783956, 38.5898406853631], [-90.18068241788241, 38.5944795867747], [-90.18624123228014, 38.59911824771971], [-90.19180076121087, 38.60375666806568], [-90.19736100485268, 38.60839484768009], [-90.20292196338367, 38.61303278643038], [-90.2084836369821, 38.617670484184025], [-90.21404602582597, 38.62230794080845], [-90.21960913009349, 38.62694515617101], [-90.21943517099498, 38.631445803493165], [-90.22499930993523, 38.636082795146216], [-90.23056416481495, 38.64071954523234], [-90.2361297358124, 38.64535605361884], [-90.24169602310592, 38.649992320172984], [-90.24726302687371, 38.65462834476206], [-90.25283074729404, 38.65926412725328], [-90.2583991845453, 38.663899667513896], [-90.26396833880578, 38.66853496541107], [-90.26953821025378, 38.673170020811966], [-90.2751087990677, 38.67780483358376], [-90.28068010542587, 38.682439403593555], [-90.28625212950666, 38.68707373070842], [-90.29182487148844, 38.69170781479548], [-90.29739833154962, 38.69634165572174], [-90.30297250986867, 38.70097525335427], [-90.30854740662397, 38.70560860756003], [-90.31412302199392, 38.71024171820601], [-90.31969935615703, 38.71487458515916], [-90.32527640929177, 38.719507208286444], [-90.33102172891115, 38.71963859401861], [-90.33659989825608, 38.72427071220935], [-90.34217878694776, 38.72890258621499], [-90.34775839516463, 38.73353421590239], [-90.35350494323681, 38.73366453632395], [-90.35908566820065, 38.73829566025279], [-90.36466711306467, 38.742926539503976], [-90.37024927800739, 38.74755717394432]]}}, {"type": "Feature", "properties": {"route_run_id": "stl_st_louis_downtown_airport_to_st_louis_lambert_2026-03-09_0117", "route_pair": "st_louis_downtown_airport_to_st_louis_lambert", "route_pair_label": "St. Louis Downtown Airport to St. Louis Lambert", "origin_label": "St. Louis Downtown Airport", "destination_label": "St. Louis Lambert International Airport", "origin_lat": 38.5703611, "origin_lon": -90.1550833, "destination_lat": 38.7486982, "destination_lon": -90.3700257, "traffic_date": "2026-03-09", "traffic_dataset": "March 9th - Monday", "weight_id": "w_0117", "distance_weight": 0.1, "population_weight": 0.7, "traffic_weight": 0.1, "airspace_weight": 0.1, "path_nodes": 55, "path_node_ids": [2179, 2181, 2184, 2186, 2419, 2423, 2448, 2453, 2456, 2479, 2482, 2483, 2487, 2809, 2813, 2816, 2858, 2863, 2864, 2889, 3896, 3898, 3901, 3902, 3914, 3948, 3947, 3952, 3940, 3977, 3976, 3941, 4043, 4066, 4067, 4068, 4185, 4187, 4188, 4076, 4075, 4082, 4084, 5080, 5084, 5310, 5311, 5337, 5320, 5322, 5323, 5346, 5357, 5358, 5364], "elapsed_seconds": 0.038081099977716804, "status": "success", "failure_reason": "", "route_distance_km": 42.29837881681064, "distance_cost_sum": 46.552101292196994, "population_cost_sum": 8.785645315278698, "traffic_cost_sum": 25.210666810840415, "airspace_cost_sum": 45.2, "total_weighted_score": 17.846228530998832, "clustering_method": "hierarchical_jaccard", "distance_method": "jaccard", "direct_cluster_number": 3, "hierarchical_jaccard_cluster": "hier_jaccard_003", "hierarchical_jaccard_cluster_source": "hier_jaccard_001", "representative_route_run_id": "stl_st_louis_downtown_airport_to_st_louis_lambert_2026-03-09_0117", "representative_mean_frechet_miles": 0.4874110572279266, "cluster_size": 45, "cluster_weight_space_percent": 16.544117647058822, "merged_cluster_id": "frechet_merged_002", "source_jaccard_clusters": "hier_jaccard_003"}, "geometry": {"type": "LineString", "coordinates": [[-90.15289905765549, 38.57128267769979], [-90.15272128212803, 38.57578310970166], [-90.15254346690519, 38.5802835375409], [-90.1580993457009, 38.58492343582021], [-90.15792180807382, 38.58942387766302], [-90.16347871828971, 38.59406355405304], [-90.1690363428032, 38.598702990254786], [-90.16885940074975, 38.60320346415569], [-90.16868241918205, 38.60770393390031], [-90.16850539809049, 38.61220439948829], [-90.17406469083332, 38.61684364952644], [-90.17388794826633, 38.621344129014695], [-90.17371116622648, 38.62584460434813], [-90.16779691829495, 38.630206220267794], [-90.16761969944088, 38.63470666506797], [-90.17318058317427, 38.63934600541629], [-90.17300364314747, 38.64384646412727], [-90.17856556137721, 38.64848558173427], [-90.17838890046788, 38.65298605432084], [-90.17821220009857, 38.65748652275311], [-90.18377547226044, 38.66212543540375], [-90.18933946118675, 38.666764106898924], [-90.19490416705614, 38.67140253710589], [-90.200645013987, 38.67154018571967], [-90.20621083477218, 38.67617811511645], [-90.21177737287698, 38.68081580286656], [-90.21751905445252, 38.68095265114052], [-90.22308670781703, 38.685589837485246], [-90.22882882604138, 38.685726144608395], [-90.23439759481155, 38.69036282917826], [-90.24014014948251, 38.69049859495047], [-90.24605541323987, 38.68613337677085], [-90.2517976862147, 38.68626855773688], [-90.25736804511756, 38.69090420272148], [-90.26311075393669, 38.69103884211091], [-90.26868222818311, 38.695673984376505], [-90.27425442059507, 38.700308883813186], [-90.27999796237877, 38.700442721166475], [-90.28557127047641, 38.70507711728869], [-90.29148516021279, 38.700709550716724], [-90.297228816103, 38.700842542902386], [-90.30280331580018, 38.70547615766316], [-90.30837853409372, 38.710109528957155], [-90.31395447116216, 38.71474265665128], [-90.31378588266769, 38.71924359100243], [-90.31936286061908, 38.72387649197406], [-90.32494055786266, 38.72850914903958], [-90.330518974577, 38.7331415620659], [-90.33626541075455, 38.733272728767844], [-90.3420118843105, 38.73340361338185], [-90.34775839516463, 38.73353421590239], [-90.35333872308522, 38.73816560113835], [-90.35908566820065, 38.73829566025279], [-90.36466711306467, 38.742926539503976], [-90.37024927800739, 38.74755717394432]]}}, {"type": "Feature", "properties": {"route_run_id": "stl_st_louis_downtown_airport_to_st_louis_lambert_2026-03-09_0155", "route_pair": "st_louis_downtown_airport_to_st_louis_lambert", "route_pair_label": "St. Louis Downtown Airport to St. Louis Lambert", "origin_label": "St. Louis Downtown Airport", "destination_label": "St. Louis Lambert International Airport", "origin_lat": 38.5703611, "origin_lon": -90.1550833, "destination_lat": 38.7486982, "destination_lon": -90.3700257, "traffic_date": "2026-03-09", "traffic_dataset": "March 9th - Monday", "weight_id": "w_0155", "distance_weight": 0.2, "population_weight": 0.4, "traffic_weight": 0.3, "airspace_weight": 0.1, "path_nodes": 54, "path_node_ids": [2179, 2181, 2184, 2186, 2421, 2205, 2448, 2453, 2456, 2479, 2482, 2483, 2487, 2809, 2813, 2816, 2858, 2863, 2864, 2889, 3896, 3898, 3901, 3902, 3914, 3948, 3947, 3945, 3940, 3977, 3976, 3980, 4195, 4199, 4201, 4216, 4229, 4232, 4234, 4266, 4269, 4272, 4586, 5343, 5342, 5341, 5366, 5353, 5352, 5375, 5376, 5588, 5362, 5364], "elapsed_seconds": 0.02811479999218136, "status": "success", "failure_reason": "", "route_distance_km": 42.46106618049611, "distance_cost_sum": 46.73114925680213, "population_cost_sum": 11.677603983272324, "traffic_cost_sum": 18.213700317298382, "airspace_cost_sum": 45.000000000000014, "total_weighted_score": 23.98138153985888, "clustering_method": "hierarchical_jaccard", "distance_method": "jaccard", "direct_cluster_number": 5, "hierarchical_jaccard_cluster": "hier_jaccard_005", "hierarchical_jaccard_cluster_source": "hier_jaccard_003", "representative_route_run_id": "stl_st_louis_downtown_airport_to_st_louis_lambert_2026-03-09_0155", "representative_mean_frechet_miles": 0.5805820695771269, "cluster_size": 16, "cluster_weight_space_percent": 5.882352941176471, "merged_cluster_id": "frechet_merged_003", "source_jaccard_clusters": "hier_jaccard_005"}, "geometry": {"type": "LineString", "coordinates": [[-90.15289905765549, 38.57128267769979], [-90.15272128212803, 38.57578310970166], [-90.15254346690519, 38.5802835375409], [-90.1580993457009, 38.58492343582021], [-90.16365593845713, 38.58956309408333], [-90.16921324535195, 38.59420251219789], [-90.1690363428032, 38.598702990254786], [-90.16885940074975, 38.60320346415569], [-90.16868241918205, 38.60770393390031], [-90.16850539809049, 38.61220439948829], [-90.17406469083332, 38.61684364952644], [-90.17388794826633, 38.621344129014695], [-90.17371116622648, 38.62584460434813], [-90.16779691829495, 38.630206220267794], [-90.16761969944088, 38.63470666506797], [-90.17318058317427, 38.63934600541629], [-90.17300364314747, 38.64384646412727], [-90.17856556137721, 38.64848558173427], [-90.17838890046788, 38.65298605432084], [-90.17821220009857, 38.65748652275311], [-90.18377547226044, 38.66212543540375], [-90.18933946118675, 38.666764106898924], [-90.19490416705614, 38.67140253710589], [-90.200645013987, 38.67154018571967], [-90.20621083477218, 38.67617811511645], [-90.21177737287698, 38.68081580286656], [-90.21751905445252, 38.68095265114052], [-90.22326077498607, 38.681089217940276], [-90.22882882604138, 38.685726144608395], [-90.23439759481155, 38.69036282917826], [-90.24014014948251, 38.69049859495047], [-90.24571003380409, 38.69513477737593], [-90.25128063621666, 38.69977071734434], [-90.25685195689897, 38.704406414722804], [-90.2624239960298, 38.709041869378396], [-90.26799675378774, 38.71367708117809], [-90.27357023035168, 38.71831204998893], [-90.27914442590036, 38.722946775677876], [-90.2847193406125, 38.72758125811188], [-90.29029497466699, 38.7322154971579], [-90.29587132824253, 38.736849492682836], [-90.30144840151804, 38.74148324455354], [-90.3070261946723, 38.7461167526369], [-90.31294237493563, 38.74174820133574], [-90.31885783528352, 38.73737932150475], [-90.32460455631471, 38.7375110734335], [-90.33018361774292, 38.74214352032707], [-90.33576339914136, 38.74677572296801], [-90.34151095257313, 38.74690667038728], [-90.34725854333031, 38.74703733557797], [-90.35283983971358, 38.7516687711157], [-90.35858786502698, 38.75179889263772], [-90.36450153875144, 38.7474276377232], [-90.37024927800739, 38.74755717394432]]}}]}