{"type": "FeatureCollection", "features": [{"type": "Feature", "properties": {"route_run_id": "stl_midamerica_to_st_louis_lambert_2025-07-14_0141", "route_pair": "midamerica_to_st_louis_lambert", "route_pair_label": "MidAmerica to St. Louis Lambert", "origin_label": "MidAmerica St. Louis Airport", "destination_label": "St. Louis Lambert International Airport", "origin_lat": 38.5451731, "origin_lon": -89.8351856, "destination_lat": 38.7486982, "destination_lon": -90.3700257, "traffic_date": "2025-07-14", "traffic_dataset": "July 14th - Monday", "weight_id": "w_0141", "distance_weight": 0.2, "population_weight": 0.2, "traffic_weight": 0.2, "airspace_weight": 0.4, "path_nodes": 97, "path_node_ids": [8877, 8881, 8904, 8922, 8923, 8927, 9145, 10016, 10018, 10062, 10055, 10058, 10094, 10096, 10103, 10104, 10110, 10434, 10520, 10542, 10544, 10543, 10530, 10527, 10531, 10552, 10538, 10539, 10537, 10367, 10364, 10365, 10366, 10376, 10374, 10379, 10378, 10391, 10402, 10403, 10406, 2604, 2605, 2606, 2603, 10715, 10717, 10721, 10729, 10730, 10731, 10728, 2907, 2906, 4109, 4106, 4120, 4146, 4149, 4151, 4175, 4133, 4132, 4134, 3964, 4286, 4285, 3974, 3973, 3972, 3971, 4296, 4298, 4299, 4297, 4198, 4199, 4201, 4216, 4229, 4232, 4230, 4238, 4237, 4235, 4240, 5336, 5342, 5341, 5366, 5349, 5352, 5375, 5354, 5363, 5362, 5364], "elapsed_seconds": 0.0572258000029251, "status": "success", "failure_reason": "", "route_distance_km": 72.30874892553973, "distance_cost_sum": 79.58045434488304, "population_cost_sum": 19.4840581882701, "traffic_cost_sum": 10.109826941847308, "airspace_cost_sum": 51.2, "total_weighted_score": 42.314867895000106, "clustering_method": "hierarchical_jaccard", "distance_method": "jaccard", "direct_cluster_number": 1, "hierarchical_jaccard_cluster": "hier_jaccard_001", "hierarchical_jaccard_cluster_source": "hier_jaccard_001", "representative_route_run_id": "stl_midamerica_to_st_louis_lambert_2025-07-14_0141", "representative_mean_frechet_miles": 1.1797122148907944, "cluster_size": 88, "cluster_weight_space_percent": 45.12820512820513, "merged_cluster_id": "frechet_merged_001", "source_jaccard_clusters": "hier_jaccard_001"}, "geometry": {"type": "LineString", "coordinates": [[-89.83272609742262, 38.54503213945896], [-89.83252853470323, 38.54953126729425], [-89.83806053424684, 38.55418543772932], [-89.84359324582596, 38.558839373542895], [-89.84912666962028, 38.563493074603095], [-89.85466080580946, 38.568146540778045], [-89.86019565457306, 38.572799771935806], [-89.86573121609086, 38.57745276794444], [-89.87126749054252, 38.58210552867199], [-89.8768044781077, 38.58675805398646], [-89.88234217896623, 38.591410343755804], [-89.8878805932977, 38.59606239784802], [-89.89341972128202, 38.600714216131045], [-89.89895956309883, 38.60536579847276], [-89.90450011892796, 38.61001714474108], [-89.91004138894921, 38.614668254803874], [-89.9155833733424, 38.61931912852895], [-89.92112607228734, 38.62396976578414], [-89.92666948596386, 38.62862016643725], [-89.93221361455188, 38.63327033035605], [-89.93795006816568, 38.63342074684104], [-89.94368656455627, 38.63357088255261], [-89.94942310364411, 38.633720737484424], [-89.95515968534956, 38.63387031163015], [-89.9607061301244, 38.63851921137131], [-89.96644315446854, 38.638668247769026], [-89.97218022120177, 38.63881700331695], [-89.97791733024451, 38.63896547800877], [-89.98365448151714, 38.63911367183824], [-89.98939167493998, 38.639261584799115], [-89.9951289104335, 38.63940921688515], [-90.00086618791799, 38.639556568090114], [-90.00660350731387, 38.63970363840778], [-90.01234086854143, 38.63985042783196], [-90.01807827152109, 38.63999693635645], [-90.02362942973669, 38.64464302594129], [-90.02936727381517, 38.644788996000585], [-90.0349195472141, 38.64943458949962], [-90.0406578321926, 38.64958002089252], [-90.04639615854494, 38.6497251712652], [-90.05194994660428, 38.65437001046164], [-90.05750445081951, 38.65901461068064], [-90.06324361700084, 38.65915896413734], [-90.06898282425709, 38.65930303645963], [-90.07472207250845, 38.65944682764147], [-90.08046136167522, 38.65959033767675], [-90.08601817899587, 38.66423366614264], [-90.09157571291051, 38.66887675499398], [-90.0973158409683, 38.669019467207306], [-90.10305600964216, 38.66916189816016], [-90.10879621885215, 38.66930404784649], [-90.11453646851845, 38.66944591626028], [-90.12009631501547, 38.67408773116219], [-90.12583700383547, 38.67422905961967], [-90.13139796616022, 38.67887037549889], [-90.13713909393337, 38.67901116379929], [-90.14270117223384, 38.683651980286214], [-90.14826396796266, 38.68829255606985], [-90.15382748129907, 38.69293289101744], [-90.15956984523434, 38.69307262074979], [-90.1651344750913, 38.69771245548389], [-90.17087727747607, 38.69785164437002], [-90.17662011949652, 38.69799055164876], [-90.18236300107269, 38.69812917731423], [-90.18810592212462, 38.698267521360556], [-90.19384888257228, 38.69840558378194], [-90.1995918823357, 38.69854336457249], [-90.20533492133491, 38.69868086372641], [-90.2110779994899, 38.698818081237896], [-90.21682111672072, 38.69895501710115], [-90.22256427294727, 38.69909167131035], [-90.2281336044467, 38.703728668678], [-90.23387719756693, 38.703864781331006], [-90.23962082945226, 38.70400061226774], [-90.24536450002277, 38.704136161482424], [-90.25110820919835, 38.70427142896936], [-90.25685195689897, 38.704406414722804], [-90.2624239960298, 38.709041869378396], [-90.26799675378774, 38.71367708117809], [-90.27357023035168, 38.71831204998893], [-90.27914442590036, 38.722946775677876], [-90.28488980273018, 38.72308043816236], [-90.29063521764166, 38.723213818699314], [-90.29638067055468, 38.72334691728308], [-90.30212616138907, 38.72347973390806], [-90.30770266654505, 38.72811317357814], [-90.31327989111702, 38.732746369488076], [-90.31885783528352, 38.73737932150475], [-90.32460455631471, 38.7375110734335], [-90.33018361774292, 38.74214352032707], [-90.3359307737393, 38.74227472898667], [-90.34151095257313, 38.74690667038728], [-90.34725854333031, 38.74703733557797], [-90.35300617133261, 38.74716771853452], [-90.35875383649973, 38.747297819251436], [-90.36450153875144, 38.7474276377232], [-90.37024927800739, 38.74755717394432]]}}, {"type": "Feature", "properties": {"route_run_id": "stl_midamerica_to_st_louis_lambert_2025-07-14_0206", "route_pair": "midamerica_to_st_louis_lambert", "route_pair_label": "MidAmerica to St. Louis Lambert", "origin_label": "MidAmerica St. Louis Airport", "destination_label": "St. Louis Lambert International Airport", "origin_lat": 38.5451731, "origin_lon": -89.8351856, "destination_lat": 38.7486982, "destination_lon": -90.3700257, "traffic_date": "2025-07-14", "traffic_dataset": "July 14th - Monday", "weight_id": "w_0206", "distance_weight": 0.4, "population_weight": 0.0, "traffic_weight": 0.2, "airspace_weight": 0.4, "path_nodes": 96, "path_node_ids": [8877, 8879, 8896, 8900, 8924, 8930, 10012, 10013, 10014, 10036, 10052, 10054, 10061, 10051, 10049, 10072, 10079, 10284, 10288, 10286, 10289, 10294, 10295, 10300, 10301, 10311, 10535, 10534, 10363, 10350, 10351, 10362, 10372, 10360, 10361, 10373, 10340, 10382, 10385, 10383, 2569, 2568, 2570, 2557, 2547, 2578, 2579, 2560, 2564, 2588, 2591, 2871, 2875, 2898, 2901, 4088, 4091, 4093, 4117, 4101, 4100, 4099, 3932, 3930, 3929, 3955, 3951, 3954, 3969, 3971, 4296, 4298, 4299, 4297, 4198, 4199, 4201, 4216, 4226, 4227, 4228, 4238, 4241, 4244, 4267, 5343, 5367, 5370, 5369, 5353, 5352, 5375, 5354, 5363, 5362, 5364], "elapsed_seconds": 0.052596199995605275, "status": "success", "failure_reason": "", "route_distance_km": 71.92710003533814, "distance_cost_sum": 79.16042506026994, "population_cost_sum": 30.49122952396397, "traffic_cost_sum": 8.98640832411414, "airspace_cost_sum": 50.00000000000003, "total_weighted_score": 53.46145168893082, "clustering_method": "hierarchical_jaccard", "distance_method": "jaccard", "direct_cluster_number": 4, "hierarchical_jaccard_cluster": "hier_jaccard_004", "hierarchical_jaccard_cluster_source": "hier_jaccard_005", "representative_route_run_id": "stl_midamerica_to_st_louis_lambert_2025-07-14_0206", "representative_mean_frechet_miles": 1.3570120238342471, "cluster_size": 67, "cluster_weight_space_percent": 34.35897435897436, "merged_cluster_id": "frechet_merged_002", "source_jaccard_clusters": "hier_jaccard_003, hier_jaccard_004, hier_jaccard_005, hier_jaccard_018"}, "geometry": {"type": "LineString", "coordinates": [[-89.83272609742262, 38.54503213945896], [-89.83825778508921, 38.54968628939868], [-89.84379018463301, 38.55434020475587], [-89.84932329623358, 38.558993885398685], [-89.85485712007056, 38.56364733119524], [-89.86039165632353, 38.56830054201366], [-89.86592690517212, 38.57295351772198], [-89.87165819944471, 38.57310698340007], [-89.87719456110594, 38.577759468272795], [-89.88273163574308, 38.582411717678575], [-89.88826942353593, 38.58706373148541], [-89.89380792466403, 38.591715509561276], [-89.89934713930707, 38.59636705177409], [-89.90508047722643, 38.59651895818466], [-89.91081385831642, 38.59667058421835], [-89.91635458673171, 38.60132137816604], [-89.92189602906302, 38.60597193580059], [-89.92743818549003, 38.61062225698987], [-89.93298105619242, 38.615272341601674], [-89.93871608023923, 38.61542266184741], [-89.94445114702152, 38.615572701498955], [-89.95018625645967, 38.61572246055001], [-89.95573104146416, 38.620371538547964], [-89.96127654116528, 38.62502037942509], [-89.96701249282155, 38.625169344302385], [-89.97255910725055, 38.62981769100349], [-89.97810643675584, 38.63446580022622], [-89.98384323035556, 38.63461397034711], [-89.98958006609531, 38.63476185964426], [-89.99531694389556, 38.63490946811138], [-90.00105386367663, 38.63505679574229], [-90.0067908253589, 38.63520384253075], [-90.01252782886277, 38.63535060847056], [-90.01826487410864, 38.635497093555536], [-90.02400196101686, 38.63564329777947], [-90.0297390895078, 38.63578922113622], [-90.03547625950182, 38.63593486361964], [-90.04102829936753, 38.64058016133408], [-90.04676590991285, 38.64072526526764], [-90.05250356173228, 38.64087008826461], [-90.05824125474625, 38.64101463031885], [-90.06397898887498, 38.64115889142429], [-90.06971676403892, 38.64130287157482], [-90.07545458015825, 38.64144657076439], [-90.08119243715339, 38.6415899889869], [-90.08693033494461, 38.641733126236325], [-90.09266827345223, 38.64187598250663], [-90.09840625259658, 38.64201855779177], [-90.10396299643912, 38.64666103690741], [-90.10952045629662, 38.651303276287905], [-90.11525927291721, 38.651445053943725], [-90.12081784745767, 38.65608679499798], [-90.1263771383907, 38.66072829595899], [-90.13193714589534, 38.665369556694095], [-90.13749787015065, 38.67001057707068], [-90.14323832090129, 38.67015103903228], [-90.14897881162928, 38.67029121968557], [-90.15454104973756, 38.67493148175755], [-90.16010400499339, 38.67957150301965], [-90.16584533235076, 38.67971088429985], [-90.17158669938539, 38.67984998415831], [-90.17732810601724, 38.679988802589136], [-90.18306955216653, 38.68012733958649], [-90.18881103775325, 38.6802655951445], [-90.1945525626976, 38.680403569257344], [-90.20011862459403, 38.68504179380117], [-90.20586058678872, 38.68517922698935], [-90.21142776429718, 38.68981695033316], [-90.2169956596237, 38.69445443181779], [-90.22256427294727, 38.69909167131035], [-90.2281336044467, 38.703728668678], [-90.23387719756693, 38.703864781331006], [-90.23962082945226, 38.70400061226774], [-90.24536450002277, 38.704136161482424], [-90.25110820919835, 38.70427142896936], [-90.25685195689897, 38.704406414722804], [-90.2624239960298, 38.709041869378396], [-90.26799675378774, 38.71367708117809], [-90.27374133523836, 38.713811264613504], [-90.27931520948262, 38.71844597299539], [-90.28506022676613, 38.71857961410498], [-90.29063521764166, 38.723213818699314], [-90.29621092771761, 38.727847779852645], [-90.30178735717278, 38.73248149743191], [-90.30736450618586, 38.737114971303974], [-90.31294237493563, 38.74174820133574], [-90.31852096360088, 38.74638118739401], [-90.32426840457497, 38.74651298146582], [-90.3300158831152, 38.74664449332567], [-90.33576339914136, 38.74677572296801], [-90.34151095257313, 38.74690667038728], [-90.34725854333031, 38.74703733557797], [-90.35300617133261, 38.74716771853452], [-90.35875383649973, 38.747297819251436], [-90.36450153875144, 38.7474276377232], [-90.37024927800739, 38.74755717394432]]}}, {"type": "Feature", "properties": {"route_run_id": "stl_midamerica_to_st_louis_lambert_2025-07-14_0067", "route_pair": "midamerica_to_st_louis_lambert", "route_pair_label": "MidAmerica to St. Louis Lambert", "origin_label": "MidAmerica St. Louis Airport", "destination_label": "St. Louis Lambert International Airport", "origin_lat": 38.5451731, "origin_lon": -89.8351856, "destination_lat": 38.7486982, "destination_lon": -90.3700257, "traffic_date": "2025-07-14", "traffic_dataset": "July 14th - Monday", "weight_id": "w_0067", "distance_weight": 0.1, "population_weight": 0.0, "traffic_weight": 0.0, "airspace_weight": 0.9, "path_nodes": 96, "path_node_ids": [8877, 8876, 8892, 8897, 8899, 8926, 9788, 10013, 10014, 10036, 10052, 10054, 10061, 10051, 10049, 10048, 10050, 10253, 10252, 10241, 10240, 10248, 10246, 10247, 10245, 10231, 10230, 10262, 10150, 10148, 10149, 10151, 10161, 10159, 10158, 10160, 10166, 10168, 10167, 10169, 2247, 2269, 2268, 2257, 2256, 2254, 2279, 2293, 2296, 2301, 2303, 2491, 2492, 2818, 2496, 2507, 2506, 2828, 2505, 2809, 2811, 2810, 2728, 2730, 2731, 2729, 2715, 2717, 2714, 2716, 2738, 2741, 2745, 2747, 2684, 2687, 3987, 3990, 4016, 4017, 4022, 4029, 4034, 4060, 4064, 5048, 5052, 5076, 5082, 5299, 5304, 5319, 5321, 5357, 5358, 5364], "elapsed_seconds": 0.059803999989526346, "status": "success", "failure_reason": "", "route_distance_km": 71.90057520712594, "distance_cost_sum": 79.13123277148179, "population_cost_sum": 53.29567736851651, "traffic_cost_sum": 22.935593793753135, "airspace_cost_sum": 46.2, "total_weighted_score": 49.49312327714821, "clustering_method": "hierarchical_jaccard", "distance_method": "jaccard", "direct_cluster_number": 6, "hierarchical_jaccard_cluster": "hier_jaccard_006", "hierarchical_jaccard_cluster_source": "hier_jaccard_010", "representative_route_run_id": "stl_midamerica_to_st_louis_lambert_2025-07-14_0067", "representative_mean_frechet_miles": 0.7719810271838591, "cluster_size": 18, "cluster_weight_space_percent": 9.23076923076923, "merged_cluster_id": "frechet_merged_003", "source_jaccard_clusters": "hier_jaccard_006"}, "geometry": {"type": "LineString", "coordinates": [[-89.83272609742262, 38.54503213945896], [-89.83845499191484, 38.54518713674757], [-89.84398707949187, 38.54984103165108], [-89.84951987896733, 38.55449469187918], [-89.85505339052077, 38.559148117300026], [-89.86058761433173, 38.563801307781745], [-89.86612255057987, 38.568454263192415], [-89.87165819944471, 38.57310698340007], [-89.87719456110594, 38.577759468272795], [-89.88273163574308, 38.582411717678575], [-89.88826942353593, 38.58706373148541], [-89.89380792466403, 38.591715509561276], [-89.89934713930707, 38.59636705177409], [-89.90508047722643, 38.59651895818466], [-89.91081385831642, 38.59667058421835], [-89.91654728249756, 38.596821929868824], [-89.92228074969049, 38.59697299512966], [-89.92801425981584, 38.59712377999449], [-89.93374781279411, 38.597274284457015], [-89.93948140854593, 38.5974245085108], [-89.94521504699188, 38.5975744521496], [-89.95094872805251, 38.59772411536704], [-89.95668245164843, 38.59787349815684], [-89.96241621770018, 38.59802260051268], [-89.96815002612831, 38.59817142242828], [-89.9738838768534, 38.59831996389739], [-89.97961776979602, 38.59846822491371], [-89.98535170487666, 38.59861620547102], [-89.99108568201598, 38.59876390556306], [-89.99681970113441, 38.59891132518362], [-90.00255376215256, 38.59905846432648], [-90.00828786499093, 38.59920532298544], [-90.01402200957008, 38.5993519011543], [-90.01975619581054, 38.599498198826886], [-90.02549042363282, 38.599644215997024], [-90.03122469295744, 38.59978995265856], [-90.03695900370492, 38.599935408805365], [-90.0426933557958, 38.60008058443128], [-90.04842774915056, 38.600225479530216], [-90.05416218368977, 38.60037009409603], [-90.05989665933384, 38.60051442812264], [-90.06563117600335, 38.600658481603965], [-90.07136573361876, 38.60080225453393], [-90.07710033210058, 38.60094574690646], [-90.0828349713693, 38.601088958715515], [-90.08856965134538, 38.60123188995506], [-90.0941227455516, 38.605874717602354], [-90.09967655430022, 38.61051730605643], [-90.10523107776994, 38.61515965518486], [-90.11078631613944, 38.61980176485522], [-90.11652262799952, 38.61994338379215], [-90.1220789793104, 38.62458499570804], [-90.12781572923257, 38.62472607564535], [-90.13337319363258, 38.629367189437694], [-90.13911038141684, 38.62950773017495], [-90.14484760917111, 38.62964799001386], [-90.15058487681573, 38.629787968948484], [-90.156322184271, 38.62992766697294], [-90.16205953145733, 38.63006708408134], [-90.16779691829495, 38.630206220267794], [-90.17353434470424, 38.6303450755264], [-90.17927181060547, 38.63048364985134], [-90.185009315919, 38.63062194323676], [-90.1907468605651, 38.6307599556768], [-90.1964844444641, 38.63089768716567], [-90.2022220675363, 38.63103513769752], [-90.20795972970198, 38.63117230726659], [-90.21369743088145, 38.63130919586706], [-90.21943517099498, 38.631445803493165], [-90.22517294996291, 38.63158213013913], [-90.2309107677055, 38.63171817579922], [-90.2364756999938, 38.63635464897752], [-90.2420413482591, 38.64099088040321], [-90.24760771267954, 38.645626869943555], [-90.25317479343335, 38.65026261746583], [-90.25874259069872, 38.654898122837295], [-90.26431110465388, 38.659533385925144], [-90.26988033547711, 38.664168406596616], [-90.27545028334664, 38.66880318471887], [-90.28102094844074, 38.67343772015905], [-90.28659233093768, 38.67807201278429], [-90.29216443101578, 38.68270606246168], [-90.29773724885335, 38.68733986905835], [-90.30331078462868, 38.69197343244128], [-90.30888503852013, 38.69660675247757], [-90.31446001070607, 38.70123982903419], [-90.32003570136486, 38.70587266197814], [-90.32561211067481, 38.710505251176386], [-90.33118923881437, 38.715137596495865], [-90.3367670859619, 38.719769697803464], [-90.34234565229588, 38.724401554966114], [-90.34792493799469, 38.72903316785066], [-90.35350494323681, 38.73366453632395], [-90.35908566820065, 38.73829566025279], [-90.36466711306467, 38.742926539503976], [-90.37024927800739, 38.74755717394432]]}}, {"type": "Feature", "properties": {"route_run_id": "stl_midamerica_to_st_louis_lambert_2025-07-14_0183", "route_pair": "midamerica_to_st_louis_lambert", "route_pair_label": "MidAmerica to St. Louis Lambert", "origin_label": "MidAmerica St. Louis Airport", "destination_label": "St. Louis Lambert International Airport", "origin_lat": 38.5451731, "origin_lon": -89.8351856, "destination_lat": 38.7486982, "destination_lon": -90.3700257, "traffic_date": "2025-07-14", "traffic_dataset": "July 14th - Monday", "weight_id": "w_0183", "distance_weight": 0.3, "population_weight": 0.2, "traffic_weight": 0.0, "airspace_weight": 0.5, "path_nodes": 97, "path_node_ids": [8877, 8881, 8904, 8922, 8923, 8927, 9145, 10016, 10018, 10062, 10055, 10058, 10094, 10096, 10103, 10104, 10110, 10109, 10291, 10512, 10290, 10513, 10298, 10295, 10296, 10297, 10307, 10305, 10306, 10319, 10321, 10320, 10318, 10211, 10210, 10208, 10209, 10326, 10328, 10329, 10327, 2522, 2524, 2523, 2514, 2517, 2515, 2516, 2530, 2534, 2532, 2558, 2840, 2839, 2838, 2827, 2849, 2848, 2850, 2837, 2861, 2866, 2889, 3896, 3898, 3901, 3902, 3914, 3948, 3947, 3952, 3940, 3942, 3943, 3941, 4043, 4042, 4041, 4040, 4051, 4054, 4186, 4080, 4205, 4207, 4212, 5309, 5313, 5335, 5337, 5320, 5322, 5323, 5346, 5357, 5358, 5364], "elapsed_seconds": 0.05681919999187812, "status": "success", "failure_reason": "", "route_distance_km": 72.29260468015718, "distance_cost_sum": 79.56268655880336, "population_cost_sum": 22.4028729657628, "traffic_cost_sum": 35.73018121842219, "airspace_cost_sum": 47.6, "total_weighted_score": 52.14938056079359, "clustering_method": "hierarchical_jaccard", "distance_method": "jaccard", "direct_cluster_number": 7, "hierarchical_jaccard_cluster": "hier_jaccard_007", "hierarchical_jaccard_cluster_source": "hier_jaccard_006", "representative_route_run_id": "stl_midamerica_to_st_louis_lambert_2025-07-14_0183", "representative_mean_frechet_miles": 0.6239213250120216, "cluster_size": 15, "cluster_weight_space_percent": 7.6923076923076925, "merged_cluster_id": "frechet_merged_004", "source_jaccard_clusters": "hier_jaccard_007"}, "geometry": {"type": "LineString", "coordinates": [[-89.83272609742262, 38.54503213945896], [-89.83252853470323, 38.54953126729425], [-89.83806053424684, 38.55418543772932], [-89.84359324582596, 38.558839373542895], [-89.84912666962028, 38.563493074603095], [-89.85466080580946, 38.568146540778045], [-89.86019565457306, 38.572799771935806], [-89.86573121609086, 38.57745276794444], [-89.87126749054252, 38.58210552867199], [-89.8768044781077, 38.58675805398646], [-89.88234217896623, 38.591410343755804], [-89.8878805932977, 38.59606239784802], [-89.89341972128202, 38.600714216131045], [-89.89895956309883, 38.60536579847276], [-89.90450011892796, 38.61001714474108], [-89.91004138894921, 38.614668254803874], [-89.9155833733424, 38.61931912852895], [-89.92131862594731, 38.619470314708934], [-89.92705392153653, 38.61962122026898], [-89.93278926003055, 38.619771845202735], [-89.93852464134986, 38.619922189503846], [-89.9442600654149, 38.62007225316597], [-89.94999553214618, 38.62022203618278], [-89.95573104146416, 38.620371538547964], [-89.96146659328937, 38.6205207602552], [-89.96720218754218, 38.620669701298226], [-89.97293782414316, 38.62081836167072], [-89.97867350301271, 38.62096674136646], [-89.98440922407127, 38.621114840379136], [-89.99014498723932, 38.62126265870254], [-89.99588079243732, 38.621410196330416], [-90.00161663958568, 38.62155745325657], [-90.00735252860491, 38.621704429474754], [-90.01308845941536, 38.6218511249788], [-90.01882443193752, 38.62199753976251], [-90.0245604460918, 38.62214367381969], [-90.03029650179865, 38.62228952714421], [-90.03603259897847, 38.622435099729884], [-90.04176873755169, 38.622580391570615], [-90.04750491743872, 38.62272540266021], [-90.05324113855997, 38.6228701329926], [-90.0589774008359, 38.62301458256169], [-90.06471370418684, 38.62315875136136], [-90.07045004853325, 38.62330263938551], [-90.07618643379548, 38.623446246628106], [-90.08192285989396, 38.62358957308307], [-90.08765932674906, 38.623732618744384], [-90.09339583428118, 38.623875383605984], [-90.09895091075838, 38.62851804648185], [-90.10450670259345, 38.633160469873815], [-90.1102440470662, 38.63330243772981], [-90.11580095263906, 38.63794436326609], [-90.12135857394713, 38.64258604896054], [-90.12709675507955, 38.642727219229855], [-90.13283497637043, 38.64286810847808], [-90.13857323774008, 38.64300871669927], [-90.14431153910874, 38.643149043887504], [-90.15004988039681, 38.64328909003685], [-90.15578826152439, 38.64342885514139], [-90.16152668241186, 38.64356833919522], [-90.16708780535298, 38.6482079745162], [-90.17264964452228, 38.6528473690797], [-90.17821220009857, 38.65748652275311], [-90.18377547226044, 38.66212543540375], [-90.18933946118675, 38.666764106898924], [-90.19490416705614, 38.67140253710589], [-90.200645013987, 38.67154018571967], [-90.20621083477218, 38.67617811511645], [-90.21177737287698, 38.68081580286656], [-90.21751905445252, 38.68095265114052], [-90.22308670781703, 38.685589837485246], [-90.22882882604138, 38.685726144608395], [-90.23457098307328, 38.6858621702009], [-90.24031317883275, 38.68599791425695], [-90.24605541323987, 38.68613337677085], [-90.2517976862147, 38.68626855773688], [-90.25753999767723, 38.686403457149304], [-90.26328234754749, 38.686538075002424], [-90.26902473574555, 38.686672411290566], [-90.27459628650614, 38.69130727605424], [-90.2801685552908, 38.695941897935995], [-90.28574154227802, 38.70057627680287], [-90.29131524764634, 38.705210412521886], [-90.29688967157429, 38.70984430496006], [-90.30246481424038, 38.714477953984364], [-90.30804067582325, 38.71911135946174], [-90.31361725650144, 38.72374452125915], [-90.3191945564535, 38.72837743924346], [-90.3247725758581, 38.73301011328159], [-90.330518974577, 38.7331415620659], [-90.33626541075455, 38.733272728767844], [-90.3420118843105, 38.73340361338185], [-90.34775839516463, 38.73353421590239], [-90.35333872308522, 38.73816560113835], [-90.35908566820065, 38.73829566025279], [-90.36466711306467, 38.742926539503976], [-90.37024927800739, 38.74755717394432]]}}, {"type": "Feature", "properties": {"route_run_id": "stl_midamerica_to_st_louis_lambert_2025-07-14_0257", "route_pair": "midamerica_to_st_louis_lambert", "route_pair_label": "MidAmerica to St. Louis Lambert", "origin_label": "MidAmerica St. Louis Airport", "destination_label": "St. Louis Lambert International Airport", "origin_lat": 38.5451731, "origin_lon": -89.8351856, "destination_lat": 38.7486982, "destination_lon": -90.3700257, "traffic_date": "2025-07-14", "traffic_dataset": "July 14th - Monday", "weight_id": "w_0257", "distance_weight": 0.6, "population_weight": 0.0, "traffic_weight": 0.4, "airspace_weight": 0.0, "path_nodes": 96, "path_node_ids": [8877, 8876, 8868, 8869, 8870, 8871, 9760, 9759, 9761, 9778, 9776, 9779, 9777, 9769, 9766, 9770, 9797, 10002, 10006, 10008, 10233, 10243, 10246, 10272, 10273, 10267, 10271, 10302, 10319, 10345, 10344, 10342, 10355, 10353, 10356, 10373, 10340, 10382, 10385, 10388, 2573, 2572, 2598, 2599, 10715, 10717, 10721, 10729, 10743, 10747, 10751, 4136, 4137, 4114, 4135, 4148, 4150, 4149, 4151, 4131, 4130, 4128, 4129, 3961, 3963, 3962, 3967, 3970, 3969, 3971, 4296, 4298, 4299, 4297, 4198, 4199, 4201, 4216, 4226, 4227, 4228, 4238, 4241, 4244, 4267, 5343, 5367, 5370, 5369, 5353, 5352, 5375, 5354, 5363, 5362, 5364], "elapsed_seconds": 0.020294300018576905, "status": "success", "failure_reason": "", "route_distance_km": 71.92515785668229, "distance_cost_sum": 79.15828756705993, "population_cost_sum": 27.48660225492401, "traffic_cost_sum": 7.850891121741311, "airspace_cost_sum": 55.2, "total_weighted_score": 50.63532898893248, "clustering_method": "hierarchical_jaccard", "distance_method": "jaccard", "direct_cluster_number": 11, "hierarchical_jaccard_cluster": "hier_jaccard_011", "hierarchical_jaccard_cluster_source": "hier_jaccard_013", "representative_route_run_id": "stl_midamerica_to_st_louis_lambert_2025-07-14_0257", "representative_mean_frechet_miles": 0.9225558596321243, "cluster_size": 7, "cluster_weight_space_percent": 3.58974358974359, "merged_cluster_id": "frechet_merged_005", "source_jaccard_clusters": "hier_jaccard_011"}, "geometry": {"type": "LineString", "coordinates": [[-89.83272609742262, 38.54503213945896], [-89.83845499191484, 38.54518713674757], [-89.84418393041321, 38.54534185422887], [-89.8499129128385, 38.54549629189633], [-89.85564193911159, 38.545650449743434], [-89.86117522600853, 38.55030357923106], [-89.86670922486731, 38.55495647376472], [-89.87243909420232, 38.55510984121015], [-89.87816900708947, 38.55526292871994], [-89.88370451737735, 38.55991507726316], [-89.88943487327828, 38.560067629301834], [-89.89516527250416, 38.56021990134085], [-89.90089571497577, 38.56037189337378], [-89.90662620061389, 38.56052360539423], [-89.9123567293393, 38.560675037395804], [-89.91789494911032, 38.56532567191472], [-89.92343388152776, 38.56997607043378], [-89.9289735267709, 38.57462623282101], [-89.93451388501903, 38.57927615894434], [-89.94005495645153, 38.5839258486717], [-89.94559674124768, 38.58857530187098], [-89.95113923958688, 38.593224518410075], [-89.95668245164843, 38.59787349815684], [-89.9622263776118, 38.60252224097911], [-89.96777101765635, 38.607170746744714], [-89.97350558249333, 38.607319335766384], [-89.97905133622174, 38.611967347536606], [-89.9845978044106, 38.61661512189275], [-89.99014498723932, 38.62126265870254], [-89.9956928848873, 38.625909957833684], [-90.00142908950032, 38.62605723832518], [-90.00716533599429, 38.6262042380639], [-90.01290162428964, 38.62635095704363], [-90.01863795430678, 38.62649739525821], [-90.02418816427785, 38.631143427354814], [-90.0297390895078, 38.63578922113622], [-90.03547625950182, 38.63593486361964], [-90.04102829936753, 38.64058016133408], [-90.04676590991285, 38.64072526526764], [-90.05231906456409, 38.64537006654579], [-90.05805711546168, 38.645514631728446], [-90.063795207484, 38.64565891591742], [-90.06934987609858, 38.6503029624316], [-90.07490526076921, 38.654946769728895], [-90.08046136167522, 38.65959033767675], [-90.08601817899587, 38.66423366614264], [-90.09157571291051, 38.66887675499398], [-90.0973158409683, 38.669019467207306], [-90.10287449071356, 38.673662057837305], [-90.10843385743102, 38.67830440849449], [-90.11399394130011, 38.68294651904622], [-90.11955474250016, 38.68758838935982], [-90.12529650724075, 38.68772978565403], [-90.13103831223724, 38.68787090047809], [-90.13678015740965, 38.68801173382603], [-90.14234287310624, 38.69265258692433], [-90.14808515722972, 38.692792879740324], [-90.15382748129907, 38.69293289101744], [-90.15956984523434, 38.69307262074979], [-90.1653122489556, 38.693212068931444], [-90.17105469238292, 38.693351235556555], [-90.1767971754363, 38.69349012061922], [-90.18253969803584, 38.693628724113545], [-90.18828226010154, 38.69376704603371], [-90.19402486155344, 38.69390508637386], [-90.19976750231159, 38.694042845128145], [-90.20551018229601, 38.69418032229077], [-90.2112529014267, 38.694317517855914], [-90.2169956596237, 38.69445443181779], [-90.22256427294727, 38.69909167131035], [-90.2281336044467, 38.703728668678], [-90.23387719756693, 38.703864781331006], [-90.23962082945226, 38.70400061226774], [-90.24536450002277, 38.704136161482424], [-90.25110820919835, 38.70427142896936], [-90.25685195689897, 38.704406414722804], [-90.2624239960298, 38.709041869378396], [-90.26799675378774, 38.71367708117809], [-90.27374133523836, 38.713811264613504], [-90.27931520948262, 38.71844597299539], [-90.28506022676613, 38.71857961410498], [-90.29063521764166, 38.723213818699314], [-90.29621092771761, 38.727847779852645], [-90.30178735717278, 38.73248149743191], [-90.30736450618586, 38.737114971303974], [-90.31294237493563, 38.74174820133574], [-90.31852096360088, 38.74638118739401], [-90.32426840457497, 38.74651298146582], [-90.3300158831152, 38.74664449332567], [-90.33576339914136, 38.74677572296801], [-90.34151095257313, 38.74690667038728], [-90.34725854333031, 38.74703733557797], [-90.35300617133261, 38.74716771853452], [-90.35875383649973, 38.747297819251436], [-90.36450153875144, 38.7474276377232], [-90.37024927800739, 38.74755717394432]]}}]}