{"type": "FeatureCollection", "features": [{"id": "0", "type": "Feature", "properties": {"route_run_id": "stl_midamerica_to_st_louis_union_station_2025-07-14_0183", "route_pair": "midamerica_to_st_louis_union_station", "route_pair_label": "MidAmerica to St. Louis Union Station", "origin_label": "MidAmerica St. Louis Airport", "destination_label": "St. Louis Union Station", "origin_lat": 38.5451731, "origin_lon": -89.8351856, "destination_lat": 38.629167, "destination_lon": -90.2075, "traffic_date": "2025-07-14", "traffic_dataset": "July 14th - Monday", "weight_id": "w_0183", "distance_weight": 0.3, "population_weight": 0.2, "traffic_weight": 0.0, "airspace_weight": 0.5, "path_nodes": 68, "path_node_ids": [8877, 8881, 8904, 8922, 8923, 8927, 9145, 10016, 10018, 10062, 10055, 10058, 10094, 10096, 10103, 10104, 10110, 10109, 10291, 10512, 10290, 10513, 10298, 10295, 10296, 10297, 10307, 10305, 10306, 10319, 10321, 10320, 10318, 10211, 10210, 10208, 10209, 10326, 10328, 10329, 10327, 2522, 2524, 2523, 2514, 2517, 2515, 2516, 2530, 2534, 2532, 2558, 2840, 2839, 2838, 2827, 2849, 2848, 2850, 2837, 2859, 2858, 2860, 2763, 2762, 2737, 2732, 2715], "elapsed_seconds": 0.027136700024129823, "status": "success", "failure_reason": "", "route_distance_km": 48.66685213560263, "distance_cost_sum": 53.561018023900075, "population_cost_sum": 14.998679925723389, "traffic_cost_sum": 11.523898798664598, "airspace_cost_sum": 23.2, "total_weighted_score": 30.668041392314706, "clustering_method": "hierarchical_jaccard", "distance_method": "jaccard", "direct_cluster_number": 6, "hierarchical_jaccard_cluster": "hier_jaccard_006", "hierarchical_jaccard_cluster_source": "hier_jaccard_006", "representative_route_run_id": "stl_midamerica_to_st_louis_union_station_2025-07-14_0183", "representative_mean_frechet_miles": 1.1358675515506482, "cluster_size": 119, "cluster_weight_space_percent": 77.27272727272727, "merged_cluster_id": "frechet_merged_001", "source_jaccard_clusters": "hier_jaccard_002, hier_jaccard_003, hier_jaccard_006, hier_jaccard_007, hier_jaccard_011", "corridor_width_m": 4828.0, "corridor_buffer_m": 2414.0}, "geometry": {"type": "Polygon", "coordinates": [[[-90.17959537146824, 38.62225676936151], [-90.18305988601053, 38.619700904866576], [-90.18897235234628, 38.61533844179615], [-90.19104204292668, 38.61395484245375], [-90.19327454493416, 38.61273702440803], [-90.19564836745323, 38.61169670762987], [-90.19814066263669, 38.61084390360093], [-90.20072744522965, 38.61018681917881], [-90.20338382291123, 38.60973177779478], [-90.20608423526103, 38.60948315873387], [-90.20880269907776, 38.609443355075314], [-90.21151305771986, 38.60961275069401], [-90.2141892321009, 38.60998971654272], [-90.21680547095761, 38.610570626251395], [-90.21933659801348, 38.611349890897166], [-90.22175825369077, 38.612320012615676], [-90.22404712907058, 38.61347165654591], [-90.22618118987329, 38.614793740425434], [-90.22813988832048, 38.616273540985006], [-90.22990436085185, 38.61789681613082], [-90.231457609799, 38.619647941750706], [-90.23278466726673, 38.62151006184069], [-90.23387273963617, 38.62346525051892], [-90.23471133128506, 38.625494684379206], [-90.23529234631391, 38.62757882353488], [-90.23561016727368, 38.62969759961867], [-90.23566171010772, 38.63183060893501], [-90.23544645474661, 38.63395730890906], [-90.2349664510267, 38.636057215942614], [-90.23422629984078, 38.63811010277066], [-90.23323310966785, 38.640096193414564], [-90.23199642886807, 38.64199635384869], [-90.23052815436662, 38.64379227653587], [-90.22884241758042, 38.64546665704446], [-90.22695544866721, 38.64700336103467], [-90.22104244896536, 38.65136771437051], [-90.21512873279056, 38.655731738725365], [-90.20921430000165, 38.660095433962105], [-90.20714355622684, 38.661479308912234], [-90.20490970797614, 38.66269733504633], [-90.20253427773442, 38.663737773795965], [-90.20004015558159, 38.66459059780245], [-90.19745137823404, 38.66524758776953], [-90.19479289690571, 38.665702411855946], [-90.19209033624955, 38.66595068683467], [-90.18936974673039, 38.66599002042221], [-90.18362939855851, 38.66585183500441], [-90.17788908979384, 38.66571336828978], [-90.17214882051638, 38.66557462028419], [-90.16640859080536, 38.66543559099344], [-90.16066840074141, 38.66529628042346], [-90.1549282504039, 38.66515668858011], [-90.14918813987288, 38.66501681546933], [-90.14344806922772, 38.664876661096926], [-90.13770803854882, 38.6647362254689], [-90.1319680479158, 38.66459550859118], [-90.12622809740824, 38.664454510469646], [-90.12048818710622, 38.664313231110285], [-90.11777611936346, 38.664141654065695], [-90.11509858934905, 38.663762424624224], [-90.11248140493949, 38.66317919904759], [-90.10994979059717, 38.66239759973292], [-90.10752814369293, 38.66142516084962], [-90.10523979890961, 38.66027125551386], [-90.10310680302044, 38.65894700521239], [-90.10114970223017, 38.65746517235958], [-90.09709808981209, 38.654080520157045], [-90.09562611813854, 38.653752225791926], [-90.09309503621488, 38.65297028007489], [-90.0906739495017, 38.651997511601834], [-90.08838618726787, 38.65084329666553], [-90.08625379065774, 38.649518759734924], [-90.08429730008721, 38.648036665983696], [-90.08104217330208, 38.645316092016124], [-90.06956489230583, 38.645028911212215], [-90.06382682080365, 38.64488491198588], [-90.05808879034453, 38.644740631767455], [-90.05235080100847, 38.64459607056307], [-90.04661285287541, 38.64445122837885], [-90.04087494602483, 38.6443061052209], [-90.03513708053586, 38.64416070109528], [-90.02939925648919, 38.64401501600821], [-90.02366147396363, 38.64386904996579], [-90.0179237330395, 38.6437228029742], [-90.0121860337958, 38.64357627503957], [-90.0064483763128, 38.64342946616815], [-90.00071076066997, 38.64328237636612], [-89.99497318694647, 38.64313500563961], [-89.98923565522303, 38.64298735399497], [-89.98349816557806, 38.642839421438296], [-89.97776071809227, 38.64269120797596], [-89.97202331284426, 38.64254271361405], [-89.9662859499146, 38.64239393835898], [-89.96054862938246, 38.64224488221695], [-89.9548113513277, 38.642095545194316], [-89.94907411582955, 38.6419459272973], [-89.94333692296806, 38.64179602853227], [-89.93759977282261, 38.64164584890552], [-89.9318626654728, 38.64149538842338], [-89.92612560099847, 38.64134464709225], [-89.92038857947894, 38.64119362491842], [-89.91465160099398, 38.64104232190833], [-89.91194121739004, 38.64086602077448], [-89.9092659473577, 38.64048215135824], [-89.90665157691147, 38.63989441470303], [-89.9041233032864, 38.6391084767353], [-89.90170549152744, 38.63813191347915], [-89.89942143921047, 38.63697413782478], [-89.89729315158456, 38.63564630856724], [-89.89534112932013, 38.634161222602934], [-89.88979944024325, 38.62950940539956], [-89.88425846600967, 38.62485735204231], [-89.87871820643942, 38.62020506266347], [-89.87317866135233, 38.61555253739514], [-89.86763983056835, 38.610899776369436], [-89.86210171390742, 38.606246779718326], [-89.85656431118979, 38.60159354757427], [-89.85102762223508, 38.59694008006892], [-89.84549164686364, 38.59228637733464], [-89.83995638489527, 38.58763243950324], [-89.83442183615014, 38.58297826670677], [-89.8288880004483, 38.57832385907725], [-89.82335487760979, 38.57366921674654], [-89.81782246745469, 38.56901433984653], [-89.81229076980324, 38.56435922850931], [-89.81053737176009, 38.56273008439564], [-89.80899587495975, 38.56097382975332], [-89.8076811152514, 38.55910738647742], [-89.80660574085758, 38.55714873665962], [-89.80578009109041, 38.55511674913331], [-89.80521209743819, 38.55303099752744], [-89.80490720794948, 38.55091157159009], [-89.80486833561342, 38.5487788836054], [-89.80506761643761, 38.54427987620952], [-89.80529508270895, 38.542154461738676], [-89.80578668672905, 38.54005678862944], [-89.8065376725369, 38.53800705441392], [-89.80754078847232, 38.53602499343029], [-89.80878635775223, 38.5341296869908], [-89.81026237228545, 38.53233937988829], [-89.8119546087991, 38.530671304998016], [-89.81384676613935, 38.52914151765227], [-89.81592062241252, 38.52776474136969], [-89.81815621044694, 38.526554226411676], [-89.82053200988736, 38.525521622514496], [-89.82302515407908, 38.52467686700986], [-89.82561164976424, 38.52402808939931], [-89.82826660749411, 38.523581533290866], [-89.8309644805635, 38.52334149644122], [-89.83367931019588, 38.52331028947394], [-89.83638497464992, 38.52348821366765], [-89.83905543988263, 38.52387355802604], [-89.8416650093897, 38.52446261565945], [-89.84418857085059, 38.525249719323696], [-89.84660183723477, 38.52622729577998], [-89.84888158007548, 38.527385938461066], [-89.85100585268815, 38.52871449775372], [-89.8529542012026, 38.5302001880401], [-89.85470786138927, 38.531828710479715], [-89.85624993938957, 38.533584390363266], [-89.85756557460964, 38.53545032772885], [-89.85864208320109, 38.537408559803005], [-89.85946908073285, 38.539440233714394], [-89.85978944215289, 38.54061343155854], [-89.86382331332256, 38.544005640216845], [-89.86935703597892, 38.548658400412144], [-89.87489147056147, 38.553310925538405], [-89.88042661724954, 38.55796321546369], [-89.88596247622252, 38.562615270056], [-89.89149904765986, 38.56726708918345], [-89.89703633174108, 38.571918672714126], [-89.90257432864544, 38.576570020515824], [-89.90811303855276, 38.58122113245688], [-89.91365246164212, 38.585872008404834], [-89.91919259809333, 38.59052264822796], [-89.92473344808583, 38.59517305179404], [-89.92798022761178, 38.597897667081774], [-89.92798124198164, 38.59789769373411], [-89.93371485634863, 38.598048202339584], [-89.93944851349112, 38.59819843052868], [-89.94518221332929, 38.59834837829503], [-89.950915955784, 38.59849804563237], [-89.95664974077579, 38.598647432534335], [-89.96238356822501, 38.598796538994605], [-89.96811743805264, 38.598945365007005], [-89.97385135017885, 38.59909391056518], [-89.97958530452445, 38.59924217566288], [-89.98531930100944, 38.5993901602938], [-89.99105333955535, 38.59953786445183], [-89.99678742008166, 38.59968528813059], [-90.00252154251002, 38.59983243132403], [-90.00825570675974, 38.59997929402579], [-90.01398991275238, 38.6001258762298], [-90.01972416040796, 38.60027217792982], [-90.02545844964688, 38.600418199119666], [-90.03119278039017, 38.600563939793254], [-90.03692715255777, 38.60070939994434], [-90.04266156607083, 38.60085457956689], [-90.04839602084898, 38.60099947865468], [-90.0541305168137, 38.60114409720169], [-90.05986505388503, 38.60128843520181], [-90.06559963198323, 38.601432492648904], [-90.07133425102901, 38.6015762695369], [-90.08853835305753, 38.60200591678598], [-90.09427313509876, 38.60214857137722], [-90.09698278328351, 38.60232060256217], [-90.09965792392171, 38.60270015808697], [-90.10227281565817, 38.60328358669574], [-90.10480229512515, 38.604065275255756], [-90.10722201853217, 38.60503770259994], [-90.10950869547743, 38.60619151169461], [-90.11164031275314, 38.60751559944704], [-90.11359634600862, 38.60899722329989], [-90.11764636417027, 38.61238125778818], [-90.11911761866267, 38.61270924781792], [-90.12164762914296, 38.613490590513734], [-90.12406791128008, 38.6144626886901], [-90.12635516931034, 38.615616188480914], [-90.12848738444836, 38.61693998977155], [-90.13044402660312, 38.61842135276461], [-90.13369995571901, 38.62114058614993], [-90.13370097060562, 38.62114061103154], [-90.13943750456995, 38.62128111066077], [-90.14517407848682, 38.621421329473705], [-90.15091069227637, 38.62156126746435], [-90.15664734585877, 38.62170092462681], [-90.1623840391549, 38.621840300955235], [-90.16812077208472, 38.62197939644372], [-90.1738575445688, 38.62211821108644], [-90.179594356527, 38.622256744877426], [-90.17959537146824, 38.62225676936151]]]}}, {"id": "1", "type": "Feature", "properties": {"route_run_id": "stl_midamerica_to_st_louis_union_station_2025-07-14_0256", "route_pair": "midamerica_to_st_louis_union_station", "route_pair_label": "MidAmerica to St. Louis Union Station", "origin_label": "MidAmerica St. Louis Airport", "destination_label": "St. Louis Union Station", "origin_lat": 38.5451731, "origin_lon": -89.8351856, "destination_lat": 38.629167, "destination_lon": -90.2075, "traffic_date": "2025-07-14", "traffic_dataset": "July 14th - Monday", "weight_id": "w_0256", "distance_weight": 0.6, "population_weight": 0.0, "traffic_weight": 0.3, "airspace_weight": 0.1, "path_nodes": 67, "path_node_ids": [8877, 8876, 8868, 8869, 8870, 8871, 9760, 9759, 9761, 9778, 9776, 9779, 9777, 9769, 9766, 9770, 9792, 9978, 9977, 9976, 9980, 9991, 10216, 10218, 10221, 10227, 10229, 10228, 10146, 10144, 10149, 10175, 10199, 10198, 10196, 10201, 10189, 10190, 10322, 10325, 2522, 2524, 2525, 2526, 2538, 2540, 2539, 2530, 2529, 2528, 2531, 2495, 2497, 2818, 2496, 2507, 2506, 2828, 2505, 2809, 2811, 2810, 2728, 2730, 2731, 2729, 2715], "elapsed_seconds": 0.010014600004069507, "status": "success", "failure_reason": "", "route_distance_km": 46.68183425455876, "distance_cost_sum": 51.37637747620015, "population_cost_sum": 22.585933572910932, "traffic_cost_sum": 5.784730661126035, "airspace_cost_sum": 27.8, "total_weighted_score": 35.341245684057895, "clustering_method": "hierarchical_jaccard", "distance_method": "jaccard", "direct_cluster_number": 9, "hierarchical_jaccard_cluster": "hier_jaccard_009", "hierarchical_jaccard_cluster_source": "hier_jaccard_010", "representative_route_run_id": "stl_midamerica_to_st_louis_union_station_2025-07-14_0256", "representative_mean_frechet_miles": 0.5860826916668588, "cluster_size": 15, "cluster_weight_space_percent": 9.74025974025974, "merged_cluster_id": "frechet_merged_002", "source_jaccard_clusters": "hier_jaccard_009", "corridor_width_m": 4828.0, "corridor_buffer_m": 2414.0}, "geometry": {"type": "Polygon", "coordinates": [[[-90.08224009418693, 38.606353600813684], [-90.08262126380225, 38.6063631121601], [-90.08835636244432, 38.6065060702138], [-90.09409150172573, 38.60664874763941], [-90.09982668156704, 38.606791144430936], [-90.1055619018885, 38.60693326058234], [-90.11129716261085, 38.60707509608768], [-90.11703246365444, 38.60721665094096], [-90.1227678049395, 38.607357925136185], [-90.12850318638667, 38.6074989186674], [-90.13423860791623, 38.60763963152866], [-90.13997406944902, 38.607780063714074], [-90.14570957090508, 38.60792021521766], [-90.15144511220467, 38.60806008603352], [-90.15718069326877, 38.60819967615578], [-90.16291631401742, 38.60833898557854], [-90.1686519743712, 38.60847801429595], [-90.17438767425011, 38.608616762302056], [-90.18012341357533, 38.608755229591104], [-90.18585919226658, 38.608893416157215], [-90.19159501024447, 38.60903132199455], [-90.19733086742968, 38.60916894709735], [-90.20306676374199, 38.60930629145969], [-90.20880269910246, 38.6094433550759], [-90.21151305774436, 38.6096127506965], [-90.214189232125, 38.60998971654708], [-90.21680547098101, 38.610570626257584], [-90.21933659803601, 38.61134989090512], [-90.2217582537122, 38.61232001262534], [-90.2240471290907, 38.613471656557174], [-90.2261811898919, 38.614793740438174], [-90.22813988833741, 38.616273540999124], [-90.22990436086693, 38.617896816146185], [-90.2314576098121, 38.61964794176714], [-90.2327846672777, 38.621510061858054], [-90.23387273964492, 38.623465250537045], [-90.2347113312915, 38.62549468439792], [-90.235292346318, 38.627578823553996], [-90.23561016727537, 38.629697599638014], [-90.235661710107, 38.631830608954395], [-90.23544645474344, 38.63395730892828], [-90.23496645102114, 38.636057215961515], [-90.23422629983291, 38.63811010278903], [-90.2332331096577, 38.64009619343225], [-90.23199642885577, 38.64199635386551], [-90.23052815435229, 38.64379227655165], [-90.22884241756417, 38.64546665705907], [-90.22695544864922, 38.64700336104795], [-90.22488542037168, 38.64838758000428], [-90.22265227308128, 38.649605974208434], [-90.2202775224913, 38.65064680154801], [-90.21778405211411, 38.65150003092072], [-90.21519589236664, 38.65215743912318], [-90.21253798849301, 38.65261269028135], [-90.20983595956434, 38.652861397048675], [-90.2071158509062, 38.65290116297529], [-90.20137646007731, 38.652763887390364], [-90.19563710838773, 38.65262633062588], [-90.18989779591683, 38.65248849268764], [-90.18415852274512, 38.652350373581484], [-90.17841928895173, 38.65221197331325], [-90.17268009461674, 38.65207329188875], [-90.16694093982012, 38.65193432931388], [-90.16120182464098, 38.65179508559444], [-90.15546274915985, 38.651655560736394], [-90.14972371345613, 38.651515754745574], [-90.14398471760971, 38.6513756676279], [-90.13824576169998, 38.65123529938926], [-90.13250684580723, 38.65109465003562], [-90.12676797001113, 38.65095371957292], [-90.121029134391, 38.65081250800706], [-90.11529033902693, 38.650671015344024], [-90.10955158399862, 38.65052924158978], [-90.10381286938598, 38.650387186750336], [-90.09807419526848, 38.650244850831704], [-90.09233556172578, 38.650102233839824], [-90.08659696883792, 38.64995933578075], [-90.08085841668448, 38.64981615666051], [-90.07511990534518, 38.649672696485176], [-90.06938143489974, 38.64952895526078], [-90.06667012088094, 38.649356217748554], [-90.06399348167785, 38.64897584804808], [-90.06137731655416, 38.64839151342532], [-90.05884684011556, 38.64760884697775], [-90.05642643872883, 38.646635393167486], [-90.05413943503312, 38.64548053489614], [-90.05200786283612, 38.64415540283374], [-90.0517771682906, 38.64398050762275], [-90.0500854291591, 38.643602443370355], [-90.047555256818, 38.6428195432551], [-90.04513518068273, 38.64184586719664], [-90.04284852024837, 38.640690800238964], [-90.04071730600505, 38.63936547506276], [-90.04048665501115, 38.639190559126384], [-90.03879509699881, 38.63881233790337], [-90.03626522878832, 38.638029204237014], [-90.03384547791917, 38.63705530605058], [-90.0315591607421, 38.635900030529264], [-90.03015236125108, 38.63502492795279], [-90.02977105790143, 38.63501523968993], [-90.02706044394884, 38.63484160788998], [-90.02438460888612, 38.634460359527374], [-90.02176934420307, 38.633875170347316], [-90.0192398557994, 38.63309168169187], [-90.01682052048876, 38.632117445952936], [-90.01453465060365, 38.630961853570184], [-90.0131281645109, 38.630086557473916], [-90.01274689322901, 38.63007681477047], [-90.01003653160828, 38.62990279688709], [-90.00736099444305, 38.62952116924791], [-90.00474607034292, 38.62893561125847], [-90.00221696191409, 38.62815176781915], [-89.99979804229574, 38.62717719474378], [-89.99751261980079, 38.626021285724505], [-89.99538271295224, 38.62469518155646], [-89.99342883810041, 38.62321166250849], [-89.98788129064859, 38.61856426832053], [-89.98463125065916, 38.61584119603792], [-89.98463023598312, 38.61584116986644], [-89.97889493373617, 38.615693098626224], [-89.97315967366623, 38.615544746755496], [-89.96742445585299, 38.61539611426054], [-89.96471482441692, 38.61522107133415], [-89.96204013760703, 38.614838436785426], [-89.95942617581181, 38.61425189973704], [-89.95689813233257, 38.61346711453536], [-89.95448037001081, 38.61249164607738], [-89.9521961859699, 38.61133489668762], [-89.9500675867607, 38.610008015259254], [-89.94811507609606, 38.608523789546766], [-89.94257166994808, 38.60387439961105], [-89.93702897787693, 38.599224772919754], [-89.93148699970297, 38.594574909604916], [-89.92824022235318, 38.591850391155404], [-89.92823920806806, 38.59185036450881], [-89.9255306157216, 38.59167445257488], [-89.92285706437954, 38.5912909642717], [-89.92024432345599, 38.590703596960154], [-89.9177175744517, 38.58991801299538], [-89.9153011676967, 38.58894178497612], [-89.91301838721424, 38.587784322547], [-89.91089122599432, 38.58645678146915], [-89.91066106891647, 38.58628162782167], [-89.90897154474136, 38.585901603191], [-89.90644510027634, 38.58511578699725], [-89.90402901898545, 38.58413933821478], [-89.90174658174578, 38.582981668616334], [-89.90034245792367, 38.58210510399955], [-89.89996148043377, 38.582095004295724], [-89.89422931726828, 38.58194289475522], [-89.88849719739886, 38.581790504992654], [-89.88276512090505, 38.58163783501444], [-89.88005709389246, 38.58146088931205], [-89.87738423122106, 38.58107638588363], [-89.87477229564564, 38.58048803188688], [-89.87224646087792, 38.57970149919717], [-89.86983106840538, 38.57872436956445], [-89.86754939244179, 38.577566061326934], [-89.8661458141894, 38.576689107005095], [-89.86576487772089, 38.576678897194434], [-89.863057105147, 38.576501566954136], [-89.8603845422092, 38.576116685934544], [-89.85777294876438, 38.575527964937294], [-89.85524749521579, 38.57474107937863], [-89.85283251936448, 38.57376361441204], [-89.85055129139569, 38.57260499160875], [-89.84842578928814, 38.571276377913016], [-89.84647648682741, 38.5697905777604], [-89.84323414190706, 38.56706387027391], [-89.8432331280525, 38.56706384290538], [-89.83750247051626, 38.56690900580107], [-89.83177185703757, 38.56675388867363], [-89.82906459411512, 38.5665757898443], [-89.82639263133275, 38.566190154178514], [-89.82378172274481, 38.56560069976069], [-89.82125703213198, 38.56481310908327], [-89.81884288991746, 38.56383497410062], [-89.81656255822567, 38.56267572284393], [-89.81443800637038, 38.56134652831356], [-89.81248969895286, 38.559860200539255], [-89.81073639862333, 38.55823106285978], [-89.80919498541124, 38.55647481362773], [-89.80788029436297, 38.55460837468475], [-89.80680497304293, 38.55264972807962], [-89.805979360256, 38.55061774261388], [-89.8054113871388, 38.54853199189588], [-89.80510650154712, 38.546412565664724], [-89.80506761643771, 38.54427987620715], [-89.80529508270935, 38.54215446173632], [-89.80578668672975, 38.540056788627126], [-89.80653767253787, 38.53800705441165], [-89.80754078847357, 38.536024993428114], [-89.80878635775375, 38.53412968698875], [-89.81026237228723, 38.53233937988635], [-89.81195460880109, 38.53067130499623], [-89.81384676614157, 38.52914151765065], [-89.81592062241492, 38.52776474136825], [-89.81815621044953, 38.52655422641042], [-89.82053200989006, 38.52552162251345], [-89.8230251540819, 38.52467686700904], [-89.82561164976717, 38.52402808939869], [-89.8282666074971, 38.52358153329049], [-89.83096448056651, 38.52334149644106], [-89.8336793101989, 38.523310289474026], [-89.83940648754941, 38.523465166994754], [-89.84513370885492, 38.52361976492388], [-89.85086097403612, 38.523774083254864], [-89.85658828301405, 38.52392812198122], [-89.85929406354649, 38.52410551921727], [-89.86196470978925, 38.524490346275805], [-89.86457452350345, 38.525078901238174], [-89.86709839002891, 38.525865521691365], [-89.86951201941247, 38.5268426390419], [-89.87179217970925, 38.52800085113746], [-89.87391692023395, 38.529329012507134], [-89.8758657826309, 38.53081434136302], [-89.8791078873135, 38.53354014109951], [-89.87910890073219, 38.53354016813762], [-89.88181513131882, 38.533717061297516], [-89.8844862853169, 38.534101393264784], [-89.88709665961582, 38.53468946687907], [-89.88962113417742, 38.53547562435499], [-89.89203541321534, 38.53645230155161], [-89.89431625855154, 38.53761010055156], [-89.89571947387385, 38.53848670396915], [-89.89610021969956, 38.53849680790495], [-89.90182894332433, 38.538648682499925], [-89.90755771006542, 38.53880027729829], [-89.91328651984347, 38.53895159229364], [-89.9159930900003, 38.539127705892064], [-89.91866467745345, 38.539511272360144], [-89.92127557493568, 38.54009860189401], [-89.92380065739289, 38.54088404386031], [-89.9262156232109, 38.54186004099751], [-89.92849722762716, 38.54301720192905], [-89.93062350610342, 38.544344391300285], [-89.93085358724144, 38.54451950316845], [-89.93254229234101, 38.544899178344565], [-89.93506767853656, 38.54568438837322], [-89.93748296897573, 38.54666016496471], [-89.93976491578131, 38.54781711886446], [-89.94116891078006, 38.54869320637117], [-89.94154972672503, 38.54870316471667], [-89.94425677432638, 38.548878641498014], [-89.9469289133342, 38.549261582445624], [-89.94954043118983, 38.54984830376731], [-89.95206619688848, 38.550633160676604], [-89.95448190226229, 38.55160860153812], [-89.95676429545422, 38.55276524032692], [-89.95889140435797, 38.554091946714045], [-89.96084274789105, 38.555575952922695], [-89.96638388051004, 38.56022440525559], [-89.97192572572435, 38.56487262086291], [-89.97746828371291, 38.56952059961257], [-89.98071606361691, 38.57224379389333], [-89.9807170776758, 38.572243820074], [-89.98644893352734, 38.572391662651576], [-89.99218083137835, 38.572539225024855], [-89.99791277114936, 38.57268650718759], [-90.00062093943802, 38.57286071982696], [-90.00329434406957, 38.573242418779756], [-90.00590726034225, 38.57382793219062], [-90.00843454383562, 38.57461162688567], [-90.01085187182095, 38.57558596240685], [-90.01313597687306, 38.576741563364095], [-90.01526487045803, 38.578067309419005], [-90.01721805436212, 38.57955044204495], [-90.02276474411498, 38.584196425358996], [-90.02601494516364, 38.58691845009112], [-90.02601595947093, 38.58691847588755], [-90.02872477125217, 38.587092060998415], [-90.03139889023468, 38.58747314327638], [-90.03401258486223, 38.58805805679316], [-90.03654070324652, 38.588841174142495], [-90.03895891464833, 38.589814960419176], [-90.04124394316541, 38.59097004551832], [-90.04265005929923, 38.59184499137068], [-90.04303113864269, 38.59185462863515], [-90.04574020194377, 38.59202782817889], [-90.04841461784233, 38.59240853163063], [-90.0510286519339, 38.59299307670278], [-90.05355714907442, 38.593775839530885], [-90.05597577489212, 38.59474928861877], [-90.05826124950985, 38.59590405710517], [-90.06039157125088, 38.59722903266526], [-90.06062214517254, 38.59740390698753], [-90.062312878356, 38.597781780552175], [-90.06484167882569, 38.59856431012252], [-90.06726062906499, 38.59953753730197], [-90.0695464460841, 38.60069209736427], [-90.07167712492051, 38.602016879991005], [-90.07190774229443, 38.602191733602105], [-90.07359865608869, 38.60256945035074], [-90.0761277598544, 38.60335174654697], [-90.07854703450059, 38.604324751697966], [-90.08083319392496, 38.60547910321366], [-90.08224009418693, 38.606353600813684]]]}}, {"id": "2", "type": "Feature", "properties": {"route_run_id": "stl_midamerica_to_st_louis_union_station_2025-07-14_0210", "route_pair": "midamerica_to_st_louis_union_station", "route_pair_label": "MidAmerica to St. Louis Union Station", "origin_label": "MidAmerica St. Louis Airport", "destination_label": "St. Louis Union Station", "origin_lat": 38.5451731, "origin_lon": -89.8351856, "destination_lat": 38.629167, "destination_lon": -90.2075, "traffic_date": "2025-07-14", "traffic_dataset": "July 14th - Monday", "weight_id": "w_0210", "distance_weight": 0.4, "population_weight": 0.0, "traffic_weight": 0.6, "airspace_weight": 0.0, "path_nodes": 67, "path_node_ids": [8877, 8876, 8868, 8869, 8870, 8871, 9760, 9759, 9761, 9778, 9776, 9779, 9777, 9769, 9766, 9770, 9797, 10002, 10006, 10008, 10233, 10243, 10246, 10272, 10273, 10267, 10271, 10302, 10319, 10345, 10344, 10342, 10355, 10353, 10354, 10209, 10331, 10335, 10341, 10334, 2551, 2554, 2552, 2549, 2542, 2541, 2543, 2533, 2534, 2532, 2535, 2819, 2820, 2822, 2821, 2831, 2830, 2832, 2829, 2813, 2811, 2808, 2405, 2407, 2731, 2729, 2715], "elapsed_seconds": 0.011229700001422316, "status": "success", "failure_reason": "", "route_distance_km": 49.35121742079236, "distance_cost_sum": 54.31420627763887, "population_cost_sum": 19.69431503901459, "traffic_cost_sum": 2.9315515665490692, "airspace_cost_sum": 28.4, "total_weighted_score": 23.48461345098499, "clustering_method": "hierarchical_jaccard", "distance_method": "jaccard", "direct_cluster_number": 12, "hierarchical_jaccard_cluster": "hier_jaccard_012", "hierarchical_jaccard_cluster_source": "hier_jaccard_009", "representative_route_run_id": "stl_midamerica_to_st_louis_union_station_2025-07-14_0210", "representative_mean_frechet_miles": 1.0465535266280983, "cluster_size": 7, "cluster_weight_space_percent": 4.545454545454546, "merged_cluster_id": "frechet_merged_003", "source_jaccard_clusters": "hier_jaccard_012", "corridor_width_m": 4828.0, "corridor_buffer_m": 2414.0}, "geometry": {"type": "Polygon", "coordinates": [[[-90.20842147122453, 38.609434254145626], [-90.20880269910246, 38.6094433550759], [-90.21151305774436, 38.6096127506965], [-90.214189232125, 38.60998971654708], [-90.21680547098101, 38.610570626257584], [-90.21933659803601, 38.61134989090512], [-90.2217582537122, 38.61232001262534], [-90.2240471290907, 38.613471656557174], [-90.2261811898919, 38.614793740438174], [-90.22813988833741, 38.616273540999124], [-90.22990436086693, 38.617896816146185], [-90.2314576098121, 38.61964794176714], [-90.2327846672777, 38.621510061858054], [-90.23387273964492, 38.623465250537045], [-90.2347113312915, 38.62549468439792], [-90.235292346318, 38.627578823553996], [-90.23561016727537, 38.629697599638014], [-90.235661710107, 38.631830608954395], [-90.23544645474344, 38.63395730892828], [-90.23496645102114, 38.636057215961515], [-90.23422629983291, 38.63811010278903], [-90.2332331096577, 38.64009619343225], [-90.23199642885577, 38.64199635386551], [-90.23052815435229, 38.64379227655165], [-90.22884241756417, 38.64546665705907], [-90.22695544864922, 38.64700336104795], [-90.22488542037168, 38.64838758000428], [-90.22265227308128, 38.649605974208434], [-90.2202775224913, 38.65064680154801], [-90.21778405211411, 38.65150003092072], [-90.21519589236664, 38.65215743912318], [-90.21253798849301, 38.65261269028135], [-90.20983595956434, 38.652861397048675], [-90.2071158509062, 38.65290116297529], [-90.20137646007731, 38.652763887390364], [-90.19563710838773, 38.65262633062588], [-90.19292519356708, 38.65245650818787], [-90.19024759265213, 38.65207900235199], [-90.18763011421542, 38.65149745274323], [-90.18595305584806, 38.650980866047576], [-90.1845361466963, 38.651927440389535], [-90.18230224852267, 38.65314503267503], [-90.17992684336848, 38.65418501272688], [-90.17743282108333, 38.65503735761292], [-90.17484421742886, 38.65569385266144], [-90.1721859819487, 38.656148170809], [-90.16948373692601, 38.65639593371308], [-90.16676352977917, 38.656434754033874], [-90.16102405638505, 38.65629548803368], [-90.15528462269819, 38.65615594084995], [-90.14954522879835, 38.65601611248852], [-90.14380587476569, 38.65587600295541], [-90.13806656067925, 38.65573561225639], [-90.13232728661976, 38.65559494039752], [-90.1265880526659, 38.65545398738463], [-90.12084885889833, 38.655312753223704], [-90.1151097053967, 38.655171237920776], [-90.10937059224025, 38.65502944148172], [-90.10363151950932, 38.65488736391258], [-90.09789248728315, 38.6547450052193], [-90.092153495642, 38.65460236540795], [-90.08641454466535, 38.65445944448452], [-90.08067563443313, 38.65431624245508], [-90.08029421149338, 38.65430671487642], [-90.07881826704259, 38.655109210295784], [-90.07644142978774, 38.656147024728924], [-90.07394624962328, 38.65699710926361], [-90.07135677353146, 38.6576512710333], [-90.06869795951346, 38.65810320548894], [-90.06599543546338, 38.658348557293046], [-90.06327525150837, 38.65838496237823], [-90.06056362823317, 38.65821207076059], [-90.05788670324804, 38.657831549886545], [-90.05527027857643, 38.65724706848187], [-90.0547114569199, 38.65707421785338], [-90.05413963375234, 38.65721857558676], [-90.05148075270604, 38.65767011446558], [-90.0487782117966, 38.657915066194775], [-90.04605806131626, 38.65795107056865], [-90.04334652152693, 38.65777778147126], [-90.0406697292314, 38.65739687018575], [-90.03805348516876, 38.65681200920594], [-90.03552300470139, 38.65602883671003], [-90.03310267422675, 38.655054902044206], [-90.03081581568884, 38.65389959275004], [-90.02868446148143, 38.652574043848475], [-90.0267291419303, 38.6510910302662], [-90.0234761222584, 38.64836889579354], [-90.02347515308085, 38.64836890842982], [-90.01773705426707, 38.6482226380383], [-90.01199899714393, 38.64807608665886], [-90.00626098179178, 38.6479292542978], [-90.0005230082896, 38.64778214096123], [-89.99478507671733, 38.64763474665539], [-89.99207412624871, 38.64746028748692], [-89.98939806367383, 38.64707822685722], [-89.98678268267514, 38.64649224835236], [-89.98425319026705, 38.645708000933325], [-89.98183396328965, 38.644733044315124], [-89.97954831301368, 38.64357677589356], [-89.97741826014848, 38.642250339933845], [-89.97546432243853, 38.64076651990774], [-89.96991671257278, 38.6361182767029], [-89.96436981799998, 38.63146979600258], [-89.96032634607243, 38.628080705757135], [-89.95885563734522, 38.627750733357026], [-89.9563271359566, 38.62696591823299], [-89.95390894031954, 38.625990421653064], [-89.95162435173883, 38.62483364621632], [-89.94949538066693, 38.623506741070926], [-89.9475425344005, 38.622022494204145], [-89.94199818457415, 38.61737304512919], [-89.93645454930144, 38.612723359180876], [-89.93091162840273, 38.60807343649134], [-89.92536942169849, 38.60342327719302], [-89.9198279290088, 38.598772881417716], [-89.91428715015432, 38.59412224929784], [-89.90874708495532, 38.589471380965406], [-89.90320773323228, 38.58482027655256], [-89.89996249455461, 38.582095031181694], [-89.89996148043377, 38.582095004295724], [-89.89422931726828, 38.58194289475522], [-89.88849719739886, 38.581790504992654], [-89.88276512090505, 38.58163783501444], [-89.88005709389246, 38.58146088931205], [-89.87738423122106, 38.58107638588363], [-89.87477229564564, 38.58048803188688], [-89.87224646087792, 38.57970149919717], [-89.86983106840538, 38.57872436956445], [-89.86754939244179, 38.577566061326934], [-89.8661458141894, 38.576689107005095], [-89.86576487772089, 38.576678897194434], [-89.863057105147, 38.576501566954136], [-89.8603845422092, 38.576116685934544], [-89.85777294876438, 38.575527964937294], [-89.85524749521579, 38.57474107937863], [-89.85283251936448, 38.57376361441204], [-89.85055129139569, 38.57260499160875], [-89.84842578928814, 38.571276377913016], [-89.84647648682741, 38.5697905777604], [-89.84323414190706, 38.56706387027391], [-89.8432331280525, 38.56706384290538], [-89.83750247051626, 38.56690900580107], [-89.83177185703757, 38.56675388867363], [-89.82906459411512, 38.5665757898443], [-89.82639263133275, 38.566190154178514], [-89.82378172274481, 38.56560069976069], [-89.82125703213198, 38.56481310908327], [-89.81884288991746, 38.56383497410062], [-89.81656255822567, 38.56267572284393], [-89.81443800637038, 38.56134652831356], [-89.81248969895286, 38.559860200539255], [-89.81073639862333, 38.55823106285978], [-89.80919498541124, 38.55647481362773], [-89.80788029436297, 38.55460837468475], [-89.80680497304293, 38.55264972807962], [-89.805979360256, 38.55061774261388], [-89.8054113871388, 38.54853199189588], [-89.80510650154712, 38.546412565664724], [-89.80506761643771, 38.54427987620715], [-89.80529508270935, 38.54215446173632], [-89.80578668672975, 38.540056788627126], [-89.80653767253787, 38.53800705441165], [-89.80754078847357, 38.536024993428114], [-89.80878635775375, 38.53412968698875], [-89.81026237228723, 38.53233937988635], [-89.81195460880109, 38.53067130499623], [-89.81384676614157, 38.52914151765065], [-89.81592062241492, 38.52776474136825], [-89.81815621044953, 38.52655422641042], [-89.82053200989006, 38.52552162251345], [-89.8230251540819, 38.52467686700904], [-89.82561164976717, 38.52402808939869], [-89.8282666074971, 38.52358153329049], [-89.83096448056651, 38.52334149644106], [-89.8336793101989, 38.523310289474026], [-89.83940648754941, 38.523465166994754], [-89.84513370885492, 38.52361976492388], [-89.85086097403612, 38.523774083254864], [-89.85658828301405, 38.52392812198122], [-89.85929406354649, 38.52410551921727], [-89.86196470978925, 38.524490346275805], [-89.86457452350345, 38.525078901238174], [-89.86709839002891, 38.525865521691365], [-89.86951201941247, 38.5268426390419], [-89.87179217970925, 38.52800085113746], [-89.87391692023395, 38.529329012507134], [-89.8758657826309, 38.53081434136302], [-89.8791078873135, 38.53354014109951], [-89.87910890073219, 38.53354016813762], [-89.88181513131882, 38.533717061297516], [-89.8844862853169, 38.534101393264784], [-89.88709665961582, 38.53468946687907], [-89.88962113417742, 38.53547562435499], [-89.89203541321534, 38.53645230155161], [-89.89431625855154, 38.53761010055156], [-89.89571947387385, 38.53848670396915], [-89.89610021969956, 38.53849680790495], [-89.90182894332433, 38.538648682499925], [-89.90755771006542, 38.53880027729829], [-89.91328651984347, 38.53895159229364], [-89.9159930900003, 38.539127705892064], [-89.91866467745345, 38.539511272360144], [-89.92127557493568, 38.54009860189401], [-89.92380065739289, 38.54088404386031], [-89.9262156232109, 38.54186004099751], [-89.92849722762716, 38.54301720192905], [-89.93062350610342, 38.544344391300285], [-89.93257398552697, 38.54582883668298], [-89.93811249766968, 38.55047852995165], [-89.94365172198813, 38.55512798703716], [-89.94919165866156, 38.5597772078077], [-89.9547323078689, 38.56442619213113], [-89.96027366978917, 38.56907493987539], [-89.96581574460156, 38.573723450908474], [-89.97135853248501, 38.57837172509814], [-89.97690203361887, 38.58301976231254], [-89.98094393195638, 38.58640823019164], [-89.98241392771561, 38.58673789632666], [-89.98494136603306, 38.58752210564976], [-89.98735876617971, 38.588496930003515], [-89.98964286002601, 38.58965298930043], [-89.9917716591319, 38.5909791587967], [-89.99372466617541, 38.592462675894325], [-89.99927070701547, 38.59710974455169], [-90.00481746184266, 38.60175657561203], [-90.00806770128631, 38.60447909710472], [-90.0080687158241, 38.604479123066575], [-90.01380327891745, 38.60462572873231], [-90.01418441585757, 38.6046354626215], [-90.01565995644978, 38.60383376526641], [-90.01803581306434, 38.60279714552201], [-90.02052965489469, 38.60194819979743], [-90.02311748189972, 38.60129509785864], [-90.02577439178333, 38.600844124860544], [-90.02847481905368, 38.60059962099273], [-90.03119278038861, 38.60056393979321], [-90.03390212397657, 38.60073742552715], [-90.03657678046592, 38.601118409847004], [-90.03919101314052, 38.60170322776693], [-90.04171966494631, 38.60248625280143], [-90.04413840002167, 38.60345995093551], [-90.04642393743391, 38.60461495291518], [-90.04855427489548, 38.605940144172], [-90.05050890032388, 38.60742277152763], [-90.05376123932962, 38.61014413685808], [-90.05376220800234, 38.61014412394981], [-90.05949745951499, 38.61028850815933], [-90.06220727831024, 38.61046135443406], [-90.06488248457, 38.61084171041238], [-90.06521306012698, 38.610915570877125], [-90.06554897680456, 38.61085844031944], [-90.06824970600474, 38.61061302696822], [-90.07096808560173, 38.6105764346444], [-90.07670346001663, 38.61071997690783], [-90.08243887523975, 38.610863238510404], [-90.08817433119155, 38.6110062194461], [-90.09390982779288, 38.61114891970891], [-90.09964536496375, 38.6112913392928], [-90.10538094262473, 38.61143347819177], [-90.11111656069596, 38.611575336399795], [-90.11685221909842, 38.61171691391093], [-90.12258791775197, 38.61185821071916], [-90.12832365657766, 38.611999226818604], [-90.1340594354954, 38.612139962203244], [-90.13979525442541, 38.61228041686714], [-90.14553111328902, 38.612420590804426], [-90.15126701200556, 38.612560484009116], [-90.15700295049635, 38.61270009647538], [-90.15700396528283, 38.61270012115031], [-90.16046875988407, 38.61014493589628], [-90.16253881193124, 38.60876185553171], [-90.16477159626821, 38.60754459334177], [-90.16714561928248, 38.606504863951194], [-90.16963803121453, 38.605652673194164], [-90.17222484569947, 38.60499622203365], [-90.17488117011901, 38.604541827815325], [-90.1775814445703, 38.60429386360592], [-90.18029968717941, 38.60425471619283], [-90.18603510847593, 38.60439288064191], [-90.19177056904961, 38.60453076440707], [-90.19448067907148, 38.604700546730655], [-90.19715655922971, 38.60507789270906], [-90.19977246108328, 38.605659172319044], [-90.20230321158786, 38.606438793081885], [-90.20472445477692, 38.60740925370893], [-90.2070128856879, 38.60856121607891], [-90.20842147122453, 38.609434254145626]]]}}, {"id": "3", "type": "Feature", "properties": {"route_run_id": "stl_midamerica_to_st_louis_union_station_2025-07-14_0153", "route_pair": "midamerica_to_st_louis_union_station", "route_pair_label": "MidAmerica to St. Louis Union Station", "origin_label": "MidAmerica St. Louis Airport", "destination_label": "St. Louis Union Station", "origin_lat": 38.5451731, "origin_lon": -89.8351856, "destination_lat": 38.629167, "destination_lon": -90.2075, "traffic_date": "2025-07-14", "traffic_dataset": "July 14th - Monday", "weight_id": "w_0153", "distance_weight": 0.2, "population_weight": 0.4, "traffic_weight": 0.1, "airspace_weight": 0.3, "path_nodes": 68, "path_node_ids": [8877, 8881, 8904, 8922, 8923, 8927, 9145, 10016, 10018, 10062, 10055, 10058, 10094, 10096, 10103, 10104, 10110, 10434, 10520, 10542, 10544, 10543, 10530, 10527, 10531, 10552, 10538, 10539, 10537, 10367, 10364, 10365, 10366, 10376, 10374, 10379, 10614, 10407, 10405, 10411, 10408, 2604, 2605, 2606, 2603, 10715, 10714, 10713, 10722, 2597, 10723, 2596, 2876, 2875, 2872, 2845, 2878, 2856, 2857, 2851, 2861, 2862, 2863, 2767, 2762, 2737, 2732, 2715], "elapsed_seconds": 0.03394160000607371, "status": "success", "failure_reason": "", "route_distance_km": 50.807803255887286, "distance_cost_sum": 55.91727318546965, "population_cost_sum": 11.77355114228936, "traffic_cost_sum": 6.412160950231241, "airspace_cost_sum": 25.6, "total_weighted_score": 24.214091189032807, "clustering_method": "hierarchical_jaccard", "distance_method": "jaccard", "direct_cluster_number": 13, "hierarchical_jaccard_cluster": "hier_jaccard_013", "hierarchical_jaccard_cluster_source": "hier_jaccard_012", "representative_route_run_id": "stl_midamerica_to_st_louis_union_station_2025-07-14_0153", "representative_mean_frechet_miles": 0.7603919037469051, "cluster_size": 8, "cluster_weight_space_percent": 5.194805194805195, "merged_cluster_id": "frechet_merged_004", "source_jaccard_clusters": "hier_jaccard_013, hier_jaccard_017", "corridor_width_m": 4828.0, "corridor_buffer_m": 2414.0}, "geometry": {"type": "Polygon", "coordinates": [[[-90.17368177073595, 38.62661871024287], [-90.17714670441977, 38.624063038709664], [-90.18305988601053, 38.619700904866576], [-90.18897235234628, 38.61533844179615], [-90.19104204292668, 38.61395484245375], [-90.19327454493416, 38.61273702440803], [-90.19564836745323, 38.61169670762987], [-90.19814066263669, 38.61084390360093], [-90.20072744522965, 38.61018681917881], [-90.20338382291123, 38.60973177779478], [-90.20608423526103, 38.60948315873387], [-90.20880269907776, 38.609443355075314], [-90.21151305771986, 38.60961275069401], [-90.2141892321009, 38.60998971654272], [-90.21680547095761, 38.610570626251395], [-90.21933659801348, 38.611349890897166], [-90.22175825369077, 38.612320012615676], [-90.22404712907058, 38.61347165654591], [-90.22618118987329, 38.614793740425434], [-90.22813988832048, 38.616273540985006], [-90.22990436085185, 38.61789681613082], [-90.231457609799, 38.619647941750706], [-90.23278466726673, 38.62151006184069], [-90.23387273963617, 38.62346525051892], [-90.23471133128506, 38.625494684379206], [-90.23529234631391, 38.62757882353488], [-90.23561016727368, 38.62969759961867], [-90.23566171010772, 38.63183060893501], [-90.23544645474661, 38.63395730890906], [-90.2349664510267, 38.636057215942614], [-90.23422629984078, 38.63811010277066], [-90.23323310966785, 38.640096193414564], [-90.23199642886807, 38.64199635384869], [-90.23052815436662, 38.64379227653587], [-90.22884241758042, 38.64546665704446], [-90.22695544866721, 38.64700336103467], [-90.22104244896536, 38.65136771437051], [-90.21512873279056, 38.655731738725365], [-90.20921430000165, 38.660095433962105], [-90.20329915045812, 38.66445879994315], [-90.20122816809618, 38.66584256013043], [-90.1989940861168, 38.667060463479025], [-90.19661842926271, 38.66810077260273], [-90.19412408980364, 38.66895346139167], [-90.19153510655622, 38.669610311852864], [-90.18887643272461, 38.670064993490264], [-90.18617369482254, 38.67031312445091], [-90.18345294502798, 38.67035231384091], [-90.17771227777989, 38.67021382497202], [-90.17197165002834, 38.670075054767224], [-90.17159011289334, 38.67006582173215], [-90.17011478249285, 38.67086949560113], [-90.16773861380076, 38.67190919610782], [-90.16524383413655, 38.67276124962705], [-90.16265448657836, 38.67341744429322], [-90.15999552785762, 38.67387145593756], [-90.15729258724623, 38.6741189091726], [-90.15457171888417, 38.67415741964568], [-90.14883089140234, 38.674017501774415], [-90.14882987575783, 38.674017476995715], [-90.14536146588001, 38.67657215887409], [-90.14328906625325, 38.677954833337715], [-90.14105368009422, 38.67917157432924], [-90.13867684476052, 38.68021065566388], [-90.13618146392373, 38.681062063068865], [-90.13359158647766, 38.68171759090947], [-90.13093217427993, 38.68217092144955], [-90.12822886098915, 38.68241768587373], [-90.12550770434943, 38.68245550647704], [-90.1197663600207, 38.68231413668735], [-90.11402505601626, 38.68217248548618], [-90.10828379241605, 38.68203055287945], [-90.1025425693, 38.68188833887323], [-90.09680138674766, 38.681745843473436], [-90.09106024483924, 38.68160306668613], [-90.08531914365453, 38.681460008517384], [-90.07957808327332, 38.68131666897316], [-90.07383706377544, 38.68117304805956], [-90.06809608524084, 38.68102914578263], [-90.06235514774946, 38.680884962148475], [-90.05661425138096, 38.68074049716317], [-90.05087339621511, 38.68059575083279], [-90.04513258233213, 38.68045072316348], [-90.04242019949339, 38.68027737960799], [-90.03974258191464, 38.67989641532134], [-90.0371255383071, 38.67931150331081], [-90.03459429175477, 38.67852828225032], [-90.03217323605115, 38.67755430195918], [-90.02988570013865, 38.67639895042457], [-90.027753722944, 38.67507336308121], [-90.02752299608267, 38.67489841916252], [-90.0258306892671, 38.67451998141332], [-90.02329974749391, 38.673736526577294], [-90.02087901772813, 38.67276232395342], [-90.01859182576142, 38.67160676367212], [-90.01646020719635, 38.67028098317931], [-90.01450469489772, 38.66879775963896], [-90.0089523894193, 38.66415120185029], [-90.00569956242505, 38.66142861926788], [-90.00569854708658, 38.66142859325341], [-89.99995949952873, 38.6612814092959], [-89.99422049393134, 38.66113394423454], [-89.98848153037405, 38.660986198075534], [-89.98274260893665, 38.66083817082514], [-89.97700372969871, 38.66068986248959], [-89.97126489274008, 38.66054127307514], [-89.96552609814017, 38.66039240258803], [-89.95978734597924, 38.66024325103461], [-89.95707606024605, 38.66006796386727], [-89.95439977151918, 38.65968509042637], [-89.95178427566042, 38.65909832214408], [-89.94925478078491, 38.65831331560476], [-89.94683566374425, 38.657337637849864], [-89.94455023473196, 38.65618069323376], [-89.9431441838148, 38.65530457227], [-89.94276280354622, 38.65529459606951], [-89.9370245799224, 38.65514434435049], [-89.93128639912536, 38.65499381164156], [-89.9285754245313, 38.65481787359313], [-89.92589952526411, 38.65443436094991], [-89.92328449341916, 38.65384697131303], [-89.9207555326232, 38.65306136726221], [-89.91833701456147, 38.65208512160271], [-89.91605224363377, 38.65092764416496], [-89.91392323203019, 38.64960009087287], [-89.91197048741166, 38.64811525596779], [-89.90642665272422, 38.64346414801929], [-89.90088353342037, 38.63881280352019], [-89.89534112932014, 38.63416122260294], [-89.88979944024325, 38.62950940539956], [-89.88425846600967, 38.62485735204231], [-89.87871820643942, 38.62020506266347], [-89.87317866135233, 38.61555253739514], [-89.86763983056835, 38.610899776369436], [-89.86210171390742, 38.606246779718326], [-89.85656431118979, 38.60159354757427], [-89.85102762223508, 38.59694008006892], [-89.84549164686364, 38.59228637733464], [-89.83995638489527, 38.58763243950324], [-89.83442183615014, 38.58297826670677], [-89.8288880004483, 38.57832385907725], [-89.82335487760979, 38.57366921674654], [-89.81782246745469, 38.56901433984653], [-89.81229076980324, 38.56435922850931], [-89.81053737176009, 38.56273008439564], [-89.80899587495975, 38.56097382975332], [-89.8076811152514, 38.55910738647742], [-89.80660574085758, 38.55714873665962], [-89.80578009109041, 38.55511674913331], [-89.80521209743819, 38.55303099752744], [-89.80490720794948, 38.55091157159009], [-89.80486833561342, 38.5487788836054], [-89.80506761643761, 38.54427987620952], [-89.80529508270895, 38.542154461738676], [-89.80578668672905, 38.54005678862944], [-89.8065376725369, 38.53800705441392], [-89.80754078847232, 38.53602499343029], [-89.80878635775223, 38.5341296869908], [-89.81026237228545, 38.53233937988829], [-89.8119546087991, 38.530671304998016], [-89.81384676613935, 38.52914151765227], [-89.81592062241252, 38.52776474136969], [-89.81815621044694, 38.526554226411676], [-89.82053200988736, 38.525521622514496], [-89.82302515407908, 38.52467686700986], [-89.82561164976424, 38.52402808939931], [-89.82826660749411, 38.523581533290866], [-89.8309644805635, 38.52334149644122], [-89.83367931019588, 38.52331028947394], [-89.83638497464992, 38.52348821366765], [-89.83905543988263, 38.52387355802604], [-89.8416650093897, 38.52446261565945], [-89.84418857085059, 38.525249719323696], [-89.84660183723477, 38.52622729577998], [-89.84888158007548, 38.527385938461066], [-89.85100585268815, 38.52871449775372], [-89.8529542012026, 38.5302001880401], [-89.85470786138927, 38.531828710479715], [-89.85624993938957, 38.533584390363266], [-89.85756557460964, 38.53545032772885], [-89.85864208320109, 38.537408559803005], [-89.85946908073285, 38.539440233714394], [-89.85978944215289, 38.54061343155854], [-89.86382331332256, 38.544005640216845], [-89.86935703597892, 38.548658400412144], [-89.87489147056147, 38.553310925538405], [-89.88042661724954, 38.55796321546369], [-89.88596247622252, 38.562615270056], [-89.89149904765986, 38.56726708918345], [-89.89703633174108, 38.571918672714126], [-89.90257432864544, 38.576570020515824], [-89.90811303855276, 38.58122113245688], [-89.91365246164212, 38.585872008404834], [-89.91919259809333, 38.59052264822796], [-89.92473344808583, 38.59517305179404], [-89.93027501179914, 38.59982321897099], [-89.93581728941275, 38.604473149626564], [-89.9413602811063, 38.609122843628725], [-89.94460831572991, 38.61184704299058], [-89.94460933031193, 38.61184706950681], [-89.95034414397166, 38.61199680871643], [-89.95607900019928, 38.61214626735632], [-89.95878848196585, 38.61232150509115], [-89.96146305380856, 38.61270420970955], [-89.96407697981287, 38.61329069969558], [-89.96660510585136, 38.614075332495396], [-89.96902310108685, 38.61505055864068], [-89.97130769166215, 38.616206994186925], [-89.97271337498788, 38.61708276398627], [-89.97309456344672, 38.6170926343646], [-89.97882994642923, 38.61724099440196], [-89.98456537159257, 38.6173890737934], [-89.99030083885691, 38.61753687253266], [-89.99603634814285, 38.61768439061353], [-90.00177189937072, 38.617831628029755], [-90.00750749246103, 38.61797858477515], [-90.01324312733412, 38.618125260843485], [-90.01897880391071, 38.6182716562286], [-90.0216887639835, 38.618445450253624], [-90.02436399013928, 38.61882673690731], [-90.02697874019067, 38.61941184830013], [-90.02950785211212, 38.620195155128556], [-90.03192698561767, 38.62116912067229], [-90.03421285593988, 38.62232437311028], [-90.03634345758282, 38.623649795469866], [-90.0382982759129, 38.625132632354], [-90.04384971737764, 38.62977777751498], [-90.04789740570968, 38.633164136013015], [-90.04936870498454, 38.63349300763157], [-90.05189857773574, 38.634275857347156], [-90.05431850615517, 38.63524938791482], [-90.05660519784624, 38.636404231699785], [-90.05801236588815, 38.637279029291385], [-90.05839369096039, 38.63728862598246], [-90.06413112881341, 38.63743286797685], [-90.06986860769351, 38.63757682905349], [-90.07560612752091, 38.63772050920632], [-90.0813436882158, 38.63786390842926], [-90.08708128969859, 38.63800702671624], [-90.0928189318897, 38.63814986406123], [-90.09855661470941, 38.638292420458235], [-90.10429433807796, 38.6384346959012], [-90.11003210191562, 38.638576690384106], [-90.11576990614299, 38.638718403901024], [-90.11577092125965, 38.63871842894766], [-90.1192384166492, 38.63616458140365], [-90.12130999661636, 38.63478229641746], [-90.12354426527673, 38.633565884911086], [-90.12591971476952, 38.63252705331651], [-90.1284134816459, 38.6316757988259], [-90.13100156654046, 38.63102031339401], [-90.13365906464674, 38.63056690507855], [-90.13636040480148, 38.63031993746735], [-90.13907959490508, 38.63028178776893], [-90.14481688419387, 38.63042205146852], [-90.14519820226141, 38.63043136383963], [-90.14667293350989, 38.629627978733154], [-90.14904794431868, 38.628588658430395], [-90.1515413284647, 38.62773689400759], [-90.15412909025011, 38.62708088232305], [-90.1567863279643, 38.626626936493516], [-90.15948747293925, 38.626379425272994], [-90.16220653494612, 38.626340731093826], [-90.16794362556058, 38.626479848844866], [-90.1736807557384, 38.626618685705175], [-90.17368177073595, 38.62661871024287]]]}}, {"id": "4", "type": "Feature", "properties": {"route_run_id": "stl_midamerica_to_st_louis_union_station_2025-07-14_0267", "route_pair": "midamerica_to_st_louis_union_station", "route_pair_label": "MidAmerica to St. Louis Union Station", "origin_label": "MidAmerica St. Louis Airport", "destination_label": "St. Louis Union Station", "origin_lat": 38.5451731, "origin_lon": -89.8351856, "destination_lat": 38.629167, "destination_lon": -90.2075, "traffic_date": "2025-07-14", "traffic_dataset": "July 14th - Monday", "weight_id": "w_0267", "distance_weight": 0.6, "population_weight": 0.4, "traffic_weight": 0.0, "airspace_weight": 0.0, "path_nodes": 67, "path_node_ids": [8877, 8876, 8868, 8869, 8870, 8867, 9753, 9754, 9755, 9744, 9746, 9747, 9745, 9737, 9736, 9734, 9735, 9919, 9921, 9944, 9947, 9940, 9941, 9962, 9955, 9957, 9959, 9994, 9885, 9886, 9884, 9887, 9897, 9895, 9896, 9894, 9902, 9903, 9904, 9909, 2213, 2212, 2214, 1997, 1994, 1995, 1996, 2005, 2004, 2007, 2006, 2191, 2194, 2193, 2192, 2418, 2422, 2425, 2427, 2453, 2455, 2454, 2372, 2399, 2401, 2404, 2715], "elapsed_seconds": 0.013491099991369992, "status": "success", "failure_reason": "", "route_distance_km": 46.66599661404935, "distance_cost_sum": 51.35894712861125, "population_cost_sum": 17.364166724554934, "traffic_cost_sum": 16.76937026246102, "airspace_cost_sum": 38.0, "total_weighted_score": 37.76103496698872, "clustering_method": "hierarchical_jaccard", "distance_method": "jaccard", "direct_cluster_number": 14, "hierarchical_jaccard_cluster": "hier_jaccard_014", "hierarchical_jaccard_cluster_source": "hier_jaccard_016", "representative_route_run_id": "stl_midamerica_to_st_louis_union_station_2025-07-14_0267", "representative_mean_frechet_miles": 0.07921369919445036, "cluster_size": 5, "cluster_weight_space_percent": 3.2467532467532467, "merged_cluster_id": "frechet_merged_005", "source_jaccard_clusters": "hier_jaccard_014", "corridor_width_m": 4828.0, "corridor_buffer_m": 2414.0}, "geometry": {"type": "Polygon", "coordinates": [[[-90.1875329351716, 38.587054582410396], [-90.18900405180392, 38.58738168616022], [-90.1915340408775, 38.58816151362197], [-90.19395452544842, 38.589132171397786], [-90.19624220783977, 38.59028431946615], [-90.19837506522681, 38.5916068707083], [-90.20033256139011, 38.59308709734973], [-90.20589259736317, 38.59772486814585], [-90.21145334786792, 38.602362398042615], [-90.21701481308241, 38.60699968690759], [-90.22257699318453, 38.611636734608055], [-90.22813988835246, 38.616273541011665], [-90.22990436088033, 38.617896816159806], [-90.23145760982374, 38.61964794178174], [-90.23278466728746, 38.62151006187347], [-90.23387273965271, 38.62346525055313], [-90.23471133129725, 38.62549468441454], [-90.23529234632164, 38.62757882357098], [-90.23561016727685, 38.62969759965519], [-90.23566171010633, 38.63183060897159], [-90.23544645474063, 38.63395730894535], [-90.2349664510162, 38.63605721597829], [-90.2342262998259, 38.63811010280534], [-90.2332331096487, 38.640096193447945], [-90.23199642884484, 38.641996353880444], [-90.23052815433954, 38.643792276565655], [-90.22884241754973, 38.645466657072035], [-90.22695544863322, 38.64700336105976], [-90.2248854203543, 38.64838758001479], [-90.22265227306265, 38.64960597421758], [-90.22027752247163, 38.65064680155565], [-90.21778405209358, 38.651500030926826], [-90.21519589234545, 38.652157439127684], [-90.21253798847137, 38.652612690284215], [-90.20983595954245, 38.65286139704984], [-90.20711585088425, 38.652901162974764], [-90.20440388234873, 38.652731605634095], [-90.20172619488959, 38.652354360289834], [-90.19910859791699, 38.6517730640528], [-90.19657631989902, 38.65099332069986], [-90.19415376464441, 38.650022646491706], [-90.19186427564227, 38.64887039752114], [-90.18972991075346, 38.647547679301894], [-90.1877712294423, 38.64606723948044], [-90.18220886751362, 38.641428543115836], [-90.17664722160968, 38.63678960581664], [-90.1710862915518, 38.63215042771524], [-90.16703258750663, 38.628768117377284], [-90.16556075294136, 38.628440710659945], [-90.16302969025506, 38.62766028237299], [-90.16060839807004, 38.62668895616934], [-90.15832020767049, 38.6255360944246], [-90.15618716437196, 38.62421280855385], [-90.15422981487534, 38.62273185166659], [-90.14867142863476, 38.61809169348089], [-90.14311375750715, 38.61345129511633], [-90.13755680131388, 38.60881065670524], [-90.1320005598766, 38.60416977838025], [-90.1287454259157, 38.601450522811376], [-90.12874441131086, 38.60145049789743], [-90.12300951005483, 38.6013095346935], [-90.11727464894766, 38.6011682908858], [-90.11153982806923, 38.601026766480324], [-90.10580504749879, 38.60088496148302], [-90.10007030731605, 38.60074287589988], [-90.09433560760034, 38.60060050973689], [-90.08860094843118, 38.60045786300002], [-90.0828663298885, 38.60031493569534], [-90.07713175205136, 38.60017172782886], [-90.07139721499945, 38.60002823940661], [-90.06566271881209, 38.59988447043462], [-90.05992826356902, 38.59974042091898], [-90.05419384934976, 38.59959609086576], [-90.05148446932404, 38.599423075416034], [-90.04880977434375, 38.59904243163961], [-90.04619554488916, 38.598457829443504], [-90.04366697686784, 38.59767490450006], [-90.04124843821602, 38.59670120375531], [-90.03896323358929, 38.59554611248013], [-90.03755709573997, 38.59467112164594], [-90.03717600339402, 38.59466146596749], [-90.03144211109861, 38.594516037103574], [-90.02570826021461, 38.5943703277775], [-90.01997445082087, 38.59422433799525], [-90.01424068299744, 38.594078067763114], [-90.00850695682334, 38.59393151708719], [-90.00277327237818, 38.59378468597365], [-89.99703962974154, 38.59363757442873], [-89.99130602899261, 38.59349018245858], [-89.9855724702109, 38.59334251006942], [-89.98286359395868, 38.5931679194113], [-89.98018959535393, 38.59278572851206], [-89.97757624813975, 38.59219962221053], [-89.97504873968643, 38.59141525069305], [-89.9726314276763, 38.59044017486101], [-89.97034760489538, 38.5892837932465], [-89.9682192744209, 38.587957251190595], [-89.96626693738885, 38.586473333170424], [-89.96072390517934, 38.58182481094322], [-89.95747651008438, 38.57910107809126], [-89.95747549595089, 38.57910105170534], [-89.95174326084168, 38.578951768633004], [-89.94601106822486, 38.578802205319825], [-89.94027891817971, 38.57865236177206], [-89.93757077218267, 38.57847674786736], [-89.93489762370325, 38.578093551910676], [-89.93228523826569, 38.57750646844013], [-89.92975879394048, 38.57672115706979], [-89.92734263812032, 38.57574518776582], [-89.92506005241239, 38.57458796767424], [-89.92293302793517, 38.57326065021591], [-89.92098205320306, 38.571776027335694], [-89.91773666314212, 38.56905126692727], [-89.91773564918773, 38.56905124020288], [-89.91200442611738, 38.56890004398879], [-89.90627324607412, 38.568748567667676], [-89.90054210913706, 38.568596811245925], [-89.89481101538567, 38.56844477472992], [-89.88907996489908, 38.56829245812608], [-89.88334895775657, 38.568139861440805], [-89.8776179940375, 38.56798698468054], [-89.87188707382107, 38.567833827851715], [-89.86615619718646, 38.567680390960774], [-89.86042536421307, 38.56752667401418], [-89.85469457498007, 38.567372677018426], [-89.84896382956691, 38.56721839997999], [-89.8432331280525, 38.56706384290538], [-89.83750247051626, 38.56690900580107], [-89.83177185703757, 38.56675388867363], [-89.82906459411512, 38.5665757898443], [-89.82639263133275, 38.566190154178514], [-89.82378172274481, 38.56560069976069], [-89.82125703213198, 38.56481310908327], [-89.81884288991746, 38.56383497410062], [-89.81656255822567, 38.56267572284393], [-89.81443800637038, 38.56134652831356], [-89.81248969895286, 38.559860200539255], [-89.81073639862333, 38.55823106285978], [-89.80919498541124, 38.55647481362773], [-89.80788029436297, 38.55460837468475], [-89.80680497304293, 38.55264972807962], [-89.805979360256, 38.55061774261388], [-89.8054113871388, 38.54853199189588], [-89.80510650154712, 38.546412565664724], [-89.80506761643771, 38.54427987620715], [-89.80529508270935, 38.54215446173632], [-89.80578668672975, 38.540056788627126], [-89.80653767253787, 38.53800705441165], [-89.80754078847357, 38.536024993428114], [-89.80878635775375, 38.53412968698875], [-89.81026237228723, 38.53233937988635], [-89.81195460880109, 38.53067130499623], [-89.81384676614157, 38.52914151765065], [-89.81592062241492, 38.52776474136825], [-89.81815621044953, 38.52655422641042], [-89.82053200989006, 38.52552162251345], [-89.8230251540819, 38.52467686700904], [-89.82561164976717, 38.52402808939869], [-89.8282666074971, 38.52358153329049], [-89.83096448056651, 38.52334149644106], [-89.8336793101989, 38.523310289474026], [-89.83940648754941, 38.523465166994754], [-89.84513370885492, 38.52361976492388], [-89.85086097403612, 38.523774083254864], [-89.85658828301405, 38.52392812198122], [-89.86231563570983, 38.524081881096485], [-89.8680430320441, 38.52423536059418], [-89.87377047193797, 38.52438856046781], [-89.8794979553122, 38.52454148071096], [-89.88522548208796, 38.52469412131719], [-89.89095305218603, 38.52484648228009], [-89.89668066552721, 38.52499856359321], [-89.90240832203263, 38.52515036525019], [-89.9081360216231, 38.525301887244616], [-89.9138637642194, 38.52545312957011], [-89.91959154974265, 38.52560409222032], [-89.9253193781135, 38.52575477518887], [-89.93104724925311, 38.52590517846945], [-89.9337534029234, 38.52608086263995], [-89.93642463342557, 38.5264640077946], [-89.93903523692212, 38.52705092817699], [-89.94156009118652, 38.52783597708421], [-89.94397489680293, 38.528811601030604], [-89.94625641055664, 38.52996841222503], [-89.94838266879167, 38.531295278673525], [-89.95033319860322, 38.5327794310517], [-89.95357833996354, 38.535503284222095], [-89.95357935348088, 38.53550331061677], [-89.95930814881685, 38.53565236309115], [-89.96503698646714, 38.53580113575033], [-89.97076586635238, 38.53594962858803], [-89.97347255312766, 38.536124412328746], [-89.97614442334554, 38.53650667306132], [-89.97875576703234, 38.53709273352894], [-89.98128145486302, 38.5378769552947], [-89.98369717942798, 38.53885179282638], [-89.98597968869922, 38.54000786589747], [-89.98810700947148, 38.54133404961748], [-89.99005865864515, 38.54281758123603], [-89.9956008402124, 38.54746469377002], [-89.99884839922669, 38.55018738048689], [-89.99884941299261, 38.55018740649799], [-90.00457961277324, 38.55033429081734], [-90.01030985426499, 38.55048089513753], [-90.01604013738837, 38.55062721945237], [-90.0217704620642, 38.55077326375569], [-90.02750082821342, 38.55091902804137], [-90.03323123575632, 38.55106451230321], [-90.03896168461422, 38.551209716535155], [-90.0446921747072, 38.551354640731034], [-90.05042270595632, 38.55149928488477], [-90.05313028681651, 38.55167225457779], [-90.05580326827354, 38.552052733316366], [-90.05841592969628, 38.55263706096889], [-90.0609431291246, 38.5534196157546], [-90.06336054465557, 38.55439286816921], [-90.06564490804696, 38.55554745323258], [-90.06705067563215, 38.55642209446201], [-90.06743157625216, 38.55643164492721], [-90.07316262766005, 38.5565751918341], [-90.07889371983731, 38.55671845862373], [-90.08462485270495, 38.55686144529005], [-90.09035602618337, 38.55700415182708], [-90.09608724019343, 38.5571465782288], [-90.10181849465535, 38.55728872448917], [-90.10754978949026, 38.557430590602216], [-90.11328112461877, 38.55757217656196], [-90.11901249996127, 38.55771348236245], [-90.1247439154387, 38.55785450799774], [-90.13047537097145, 38.55799525346184], [-90.13620686648045, 38.55813571874888], [-90.14193840188616, 38.55827590385291], [-90.14464658912313, 38.55844677172394], [-90.14732043409765, 38.5588251855577], [-90.14993420790134, 38.55940750506557], [-90.15246275791387, 38.5601881277678], [-90.15488174929003, 38.56115954273472], [-90.15716789868512, 38.56231240265671], [-90.15929919799221, 38.56363561355925], [-90.16125512595521, 38.565116441310316], [-90.16681048230686, 38.56975591278921], [-90.17236655210354, 38.57439514425622], [-90.17792333552312, 38.579034135578844], [-90.18348083274367, 38.583672886624825], [-90.1875329351716, 38.587054582410396]]]}}]}