{"type": "FeatureCollection", "features": [{"type": "Feature", "properties": {"route_run_id": "stl_midamerica_to_st_louis_union_station_2025-07-14_0183", "route_pair": "midamerica_to_st_louis_union_station", "route_pair_label": "MidAmerica to St. Louis Union Station", "origin_label": "MidAmerica St. Louis Airport", "destination_label": "St. Louis Union Station", "origin_lat": 38.5451731, "origin_lon": -89.8351856, "destination_lat": 38.629167, "destination_lon": -90.2075, "traffic_date": "2025-07-14", "traffic_dataset": "July 14th - Monday", "weight_id": "w_0183", "distance_weight": 0.3, "population_weight": 0.2, "traffic_weight": 0.0, "airspace_weight": 0.5, "path_nodes": 68, "path_node_ids": [8877, 8881, 8904, 8922, 8923, 8927, 9145, 10016, 10018, 10062, 10055, 10058, 10094, 10096, 10103, 10104, 10110, 10109, 10291, 10512, 10290, 10513, 10298, 10295, 10296, 10297, 10307, 10305, 10306, 10319, 10321, 10320, 10318, 10211, 10210, 10208, 10209, 10326, 10328, 10329, 10327, 2522, 2524, 2523, 2514, 2517, 2515, 2516, 2530, 2534, 2532, 2558, 2840, 2839, 2838, 2827, 2849, 2848, 2850, 2837, 2859, 2858, 2860, 2763, 2762, 2737, 2732, 2715], "elapsed_seconds": 0.027136700024129823, "status": "success", "failure_reason": "", "route_distance_km": 48.66685213560263, "distance_cost_sum": 53.561018023900075, "population_cost_sum": 14.998679925723389, "traffic_cost_sum": 11.523898798664598, "airspace_cost_sum": 23.2, "total_weighted_score": 30.668041392314706, "clustering_method": "hierarchical_jaccard", "distance_method": "jaccard", "direct_cluster_number": 6, "hierarchical_jaccard_cluster": "hier_jaccard_006", "hierarchical_jaccard_cluster_source": "hier_jaccard_006", "representative_route_run_id": "stl_midamerica_to_st_louis_union_station_2025-07-14_0183", "representative_mean_frechet_miles": 1.1358675515506482, "cluster_size": 119, "cluster_weight_space_percent": 77.27272727272727, "merged_cluster_id": "frechet_merged_001", "source_jaccard_clusters": "hier_jaccard_002, hier_jaccard_003, hier_jaccard_006, hier_jaccard_007, hier_jaccard_011"}, "geometry": {"type": "LineString", "coordinates": [[-89.83272609742262, 38.54503213945896], [-89.83252853470323, 38.54953126729425], [-89.83806053424684, 38.55418543772932], [-89.84359324582596, 38.558839373542895], [-89.84912666962028, 38.563493074603095], [-89.85466080580946, 38.568146540778045], [-89.86019565457306, 38.572799771935806], [-89.86573121609086, 38.57745276794444], [-89.87126749054252, 38.58210552867199], [-89.8768044781077, 38.58675805398646], [-89.88234217896623, 38.591410343755804], [-89.8878805932977, 38.59606239784802], [-89.89341972128202, 38.600714216131045], [-89.89895956309883, 38.60536579847276], [-89.90450011892796, 38.61001714474108], [-89.91004138894921, 38.614668254803874], [-89.9155833733424, 38.61931912852895], [-89.92131862594731, 38.619470314708934], [-89.92705392153653, 38.61962122026898], [-89.93278926003055, 38.619771845202735], [-89.93852464134986, 38.619922189503846], [-89.9442600654149, 38.62007225316597], [-89.94999553214618, 38.62022203618278], [-89.95573104146416, 38.620371538547964], [-89.96146659328937, 38.6205207602552], [-89.96720218754218, 38.620669701298226], [-89.97293782414316, 38.62081836167072], [-89.97867350301271, 38.62096674136646], [-89.98440922407127, 38.621114840379136], [-89.99014498723932, 38.62126265870254], [-89.99588079243732, 38.621410196330416], [-90.00161663958568, 38.62155745325657], [-90.00735252860491, 38.621704429474754], [-90.01308845941536, 38.6218511249788], [-90.01882443193752, 38.62199753976251], [-90.0245604460918, 38.62214367381969], [-90.03029650179865, 38.62228952714421], [-90.03603259897847, 38.622435099729884], [-90.04176873755169, 38.622580391570615], [-90.04750491743872, 38.62272540266021], [-90.05324113855997, 38.6228701329926], [-90.0589774008359, 38.62301458256169], [-90.06471370418684, 38.62315875136136], [-90.07045004853325, 38.62330263938551], [-90.07618643379548, 38.623446246628106], [-90.08192285989396, 38.62358957308307], [-90.08765932674906, 38.623732618744384], [-90.09339583428118, 38.623875383605984], [-90.09895091075838, 38.62851804648185], [-90.10450670259345, 38.633160469873815], [-90.1102440470662, 38.63330243772981], [-90.11580095263906, 38.63794436326609], [-90.12135857394713, 38.64258604896054], [-90.12709675507955, 38.642727219229855], [-90.13283497637043, 38.64286810847808], [-90.13857323774008, 38.64300871669927], [-90.14431153910874, 38.643149043887504], [-90.15004988039681, 38.64328909003685], [-90.15578826152439, 38.64342885514139], [-90.16152668241186, 38.64356833919522], [-90.16726514297947, 38.64370754219247], [-90.17300364314747, 38.64384646412727], [-90.17874218283609, 38.64398510499372], [-90.18448076196563, 38.64412346478601], [-90.19021938045634, 38.644261543498274], [-90.19613354616266, 38.639898793950096], [-90.20204699586435, 38.63553571516044], [-90.20795972970198, 38.63117230726659]]}}, {"type": "Feature", "properties": {"route_run_id": "stl_midamerica_to_st_louis_union_station_2025-07-14_0256", "route_pair": "midamerica_to_st_louis_union_station", "route_pair_label": "MidAmerica to St. Louis Union Station", "origin_label": "MidAmerica St. Louis Airport", "destination_label": "St. Louis Union Station", "origin_lat": 38.5451731, "origin_lon": -89.8351856, "destination_lat": 38.629167, "destination_lon": -90.2075, "traffic_date": "2025-07-14", "traffic_dataset": "July 14th - Monday", "weight_id": "w_0256", "distance_weight": 0.6, "population_weight": 0.0, "traffic_weight": 0.3, "airspace_weight": 0.1, "path_nodes": 67, "path_node_ids": [8877, 8876, 8868, 8869, 8870, 8871, 9760, 9759, 9761, 9778, 9776, 9779, 9777, 9769, 9766, 9770, 9792, 9978, 9977, 9976, 9980, 9991, 10216, 10218, 10221, 10227, 10229, 10228, 10146, 10144, 10149, 10175, 10199, 10198, 10196, 10201, 10189, 10190, 10322, 10325, 2522, 2524, 2525, 2526, 2538, 2540, 2539, 2530, 2529, 2528, 2531, 2495, 2497, 2818, 2496, 2507, 2506, 2828, 2505, 2809, 2811, 2810, 2728, 2730, 2731, 2729, 2715], "elapsed_seconds": 0.010014600004069507, "status": "success", "failure_reason": "", "route_distance_km": 46.68183425455876, "distance_cost_sum": 51.37637747620015, "population_cost_sum": 22.585933572910932, "traffic_cost_sum": 5.784730661126035, "airspace_cost_sum": 27.8, "total_weighted_score": 35.341245684057895, "clustering_method": "hierarchical_jaccard", "distance_method": "jaccard", "direct_cluster_number": 9, "hierarchical_jaccard_cluster": "hier_jaccard_009", "hierarchical_jaccard_cluster_source": "hier_jaccard_010", "representative_route_run_id": "stl_midamerica_to_st_louis_union_station_2025-07-14_0256", "representative_mean_frechet_miles": 0.5860826916668588, "cluster_size": 15, "cluster_weight_space_percent": 9.74025974025974, "merged_cluster_id": "frechet_merged_002", "source_jaccard_clusters": "hier_jaccard_009"}, "geometry": {"type": "LineString", "coordinates": [[-89.83272609742262, 38.54503213945896], [-89.83845499191484, 38.54518713674757], [-89.84418393041321, 38.54534185422887], [-89.8499129128385, 38.54549629189633], [-89.85564193911159, 38.545650449743434], [-89.86117522600853, 38.55030357923106], [-89.86670922486731, 38.55495647376472], [-89.87243909420232, 38.55510984121015], [-89.87816900708947, 38.55526292871994], [-89.88370451737735, 38.55991507726316], [-89.88943487327828, 38.560067629301834], [-89.89516527250416, 38.56021990134085], [-89.90089571497577, 38.56037189337378], [-89.90662620061389, 38.56052360539423], [-89.9123567293393, 38.560675037395804], [-89.91789494911032, 38.56532567191472], [-89.92362592006123, 38.56547656801355], [-89.92916525171685, 38.570126710562285], [-89.93489666469688, 38.57027707055698], [-89.94062812038845, 38.57042715041154], [-89.94616896320129, 38.57507654445588], [-89.951710519081, 38.57972570195769], [-89.95725278820683, 38.584374622784885], [-89.96279577075799, 38.58902330680532], [-89.96833946691376, 38.59367175388689], [-89.9740729607021, 38.59382027158407], [-89.97980649669776, 38.593968508873274], [-89.98554007482124, 38.594116465748236], [-89.99127369499321, 38.59426414220273], [-89.99700735713421, 38.594411538230524], [-90.00255376215256, 38.59905846432648], [-90.00810088123565, 38.603705152754664], [-90.01364871456262, 38.60835160338281], [-90.01938361507719, 38.6084979478912], [-90.0251185571937, 38.60864401180754], [-90.03066790261092, 38.61328971002312], [-90.03640328497923, 38.613435236024664], [-90.04213870872088, 38.61358048137086], [-90.04768956620967, 38.61822542646607], [-90.05342542985542, 38.61837013363945], [-90.0589774008359, 38.62301458256169], [-90.06471370418684, 38.62315875136136], [-90.07026678880817, 38.62780270374147], [-90.07600353166524, 38.62794633396657], [-90.08174031536842, 38.6280896833592], [-90.08747713983809, 38.62823275191331], [-90.09321400499459, 38.62837553962287], [-90.09895091075838, 38.62851804648185], [-90.10468785704973, 38.628660272484225], [-90.11042484378899, 38.62880221762402], [-90.11616187089658, 38.62894388189524], [-90.12189893829279, 38.62908526529191], [-90.12763604589804, 38.629226367808045], [-90.13337319363258, 38.629367189437694], [-90.13911038141684, 38.62950773017495], [-90.14484760917111, 38.62964799001386], [-90.15058487681573, 38.629787968948484], [-90.156322184271, 38.62992766697294], [-90.16205953145733, 38.63006708408134], [-90.16779691829495, 38.630206220267794], [-90.17353434470424, 38.6303450755264], [-90.17927181060547, 38.63048364985134], [-90.185009315919, 38.63062194323676], [-90.1907468605651, 38.6307599556768], [-90.1964844444641, 38.63089768716567], [-90.2022220675363, 38.63103513769752], [-90.20795972970198, 38.63117230726659]]}}, {"type": "Feature", "properties": {"route_run_id": "stl_midamerica_to_st_louis_union_station_2025-07-14_0210", "route_pair": "midamerica_to_st_louis_union_station", "route_pair_label": "MidAmerica to St. Louis Union Station", "origin_label": "MidAmerica St. Louis Airport", "destination_label": "St. Louis Union Station", "origin_lat": 38.5451731, "origin_lon": -89.8351856, "destination_lat": 38.629167, "destination_lon": -90.2075, "traffic_date": "2025-07-14", "traffic_dataset": "July 14th - Monday", "weight_id": "w_0210", "distance_weight": 0.4, "population_weight": 0.0, "traffic_weight": 0.6, "airspace_weight": 0.0, "path_nodes": 67, "path_node_ids": [8877, 8876, 8868, 8869, 8870, 8871, 9760, 9759, 9761, 9778, 9776, 9779, 9777, 9769, 9766, 9770, 9797, 10002, 10006, 10008, 10233, 10243, 10246, 10272, 10273, 10267, 10271, 10302, 10319, 10345, 10344, 10342, 10355, 10353, 10354, 10209, 10331, 10335, 10341, 10334, 2551, 2554, 2552, 2549, 2542, 2541, 2543, 2533, 2534, 2532, 2535, 2819, 2820, 2822, 2821, 2831, 2830, 2832, 2829, 2813, 2811, 2808, 2405, 2407, 2731, 2729, 2715], "elapsed_seconds": 0.011229700001422316, "status": "success", "failure_reason": "", "route_distance_km": 49.35121742079236, "distance_cost_sum": 54.31420627763887, "population_cost_sum": 19.69431503901459, "traffic_cost_sum": 2.9315515665490692, "airspace_cost_sum": 28.4, "total_weighted_score": 23.48461345098499, "clustering_method": "hierarchical_jaccard", "distance_method": "jaccard", "direct_cluster_number": 12, "hierarchical_jaccard_cluster": "hier_jaccard_012", "hierarchical_jaccard_cluster_source": "hier_jaccard_009", "representative_route_run_id": "stl_midamerica_to_st_louis_union_station_2025-07-14_0210", "representative_mean_frechet_miles": 1.0465535266280983, "cluster_size": 7, "cluster_weight_space_percent": 4.545454545454546, "merged_cluster_id": "frechet_merged_003", "source_jaccard_clusters": "hier_jaccard_012"}, "geometry": {"type": "LineString", "coordinates": [[-89.83272609742262, 38.54503213945896], [-89.83845499191484, 38.54518713674757], [-89.84418393041321, 38.54534185422887], [-89.8499129128385, 38.54549629189633], [-89.85564193911159, 38.545650449743434], [-89.86117522600853, 38.55030357923106], [-89.86670922486731, 38.55495647376472], [-89.87243909420232, 38.55510984121015], [-89.87816900708947, 38.55526292871994], [-89.88370451737735, 38.55991507726316], [-89.88943487327828, 38.560067629301834], [-89.89516527250416, 38.56021990134085], [-89.90089571497577, 38.56037189337378], [-89.90662620061389, 38.56052360539423], [-89.9123567293393, 38.560675037395804], [-89.91789494911032, 38.56532567191472], [-89.92343388152776, 38.56997607043378], [-89.9289735267709, 38.57462623282101], [-89.93451388501903, 38.57927615894434], [-89.94005495645153, 38.5839258486717], [-89.94559674124768, 38.58857530187098], [-89.95113923958688, 38.593224518410075], [-89.95668245164843, 38.59787349815684], [-89.9622263776118, 38.60252224097911], [-89.96777101765635, 38.607170746744714], [-89.97350558249333, 38.607319335766384], [-89.97905133622174, 38.611967347536606], [-89.9845978044106, 38.61661512189275], [-89.99014498723932, 38.62126265870254], [-89.9956928848873, 38.625909957833684], [-90.00142908950032, 38.62605723832518], [-90.00716533599429, 38.6262042380639], [-90.01290162428964, 38.62635095704363], [-90.01863795430678, 38.62649739525821], [-90.02437432596611, 38.626643552701445], [-90.03029650179865, 38.62228952714421], [-90.035847193893, 38.626935025249225], [-90.04139860112724, 38.63158028489256], [-90.04695072368057, 38.63622530594182], [-90.05287243249526, 38.6318701190574], [-90.05860940998092, 38.63201461486337], [-90.06416272923086, 38.636658862721774], [-90.07008348815737, 38.6323027638919], [-90.07582058868887, 38.63244641710234], [-90.08155773007638, 38.632589789435436], [-90.08729491224024, 38.63273288088516], [-90.0930321351008, 38.63287569144548], [-90.09876939857845, 38.63301822111036], [-90.10450670259345, 38.633160469873815], [-90.1102440470662, 38.63330243772981], [-90.115981431917, 38.63344412467236], [-90.12171885706623, 38.633585530695484], [-90.12745632243416, 38.63372665579325], [-90.13319382794117, 38.633867499959656], [-90.1389313735075, 38.634008063188766], [-90.14466895905358, 38.63414834547469], [-90.15040658449962, 38.63428834681146], [-90.15614424976597, 38.6344280671932], [-90.16188195477298, 38.634567506614], [-90.16761969944088, 38.63470666506797], [-90.17353434470424, 38.6303450755264], [-90.179448274358, 38.625983156498016], [-90.18518542189227, 38.626121427753255], [-90.19092260874959, 38.626259418108006], [-90.1964844444641, 38.63089768716567], [-90.2022220675363, 38.63103513769752], [-90.20795972970198, 38.63117230726659]]}}, {"type": "Feature", "properties": {"route_run_id": "stl_midamerica_to_st_louis_union_station_2025-07-14_0153", "route_pair": "midamerica_to_st_louis_union_station", "route_pair_label": "MidAmerica to St. Louis Union Station", "origin_label": "MidAmerica St. Louis Airport", "destination_label": "St. Louis Union Station", "origin_lat": 38.5451731, "origin_lon": -89.8351856, "destination_lat": 38.629167, "destination_lon": -90.2075, "traffic_date": "2025-07-14", "traffic_dataset": "July 14th - Monday", "weight_id": "w_0153", "distance_weight": 0.2, "population_weight": 0.4, "traffic_weight": 0.1, "airspace_weight": 0.3, "path_nodes": 68, "path_node_ids": [8877, 8881, 8904, 8922, 8923, 8927, 9145, 10016, 10018, 10062, 10055, 10058, 10094, 10096, 10103, 10104, 10110, 10434, 10520, 10542, 10544, 10543, 10530, 10527, 10531, 10552, 10538, 10539, 10537, 10367, 10364, 10365, 10366, 10376, 10374, 10379, 10614, 10407, 10405, 10411, 10408, 2604, 2605, 2606, 2603, 10715, 10714, 10713, 10722, 2597, 10723, 2596, 2876, 2875, 2872, 2845, 2878, 2856, 2857, 2851, 2861, 2862, 2863, 2767, 2762, 2737, 2732, 2715], "elapsed_seconds": 0.03394160000607371, "status": "success", "failure_reason": "", "route_distance_km": 50.807803255887286, "distance_cost_sum": 55.91727318546965, "population_cost_sum": 11.77355114228936, "traffic_cost_sum": 6.412160950231241, "airspace_cost_sum": 25.6, "total_weighted_score": 24.214091189032807, "clustering_method": "hierarchical_jaccard", "distance_method": "jaccard", "direct_cluster_number": 13, "hierarchical_jaccard_cluster": "hier_jaccard_013", "hierarchical_jaccard_cluster_source": "hier_jaccard_012", "representative_route_run_id": "stl_midamerica_to_st_louis_union_station_2025-07-14_0153", "representative_mean_frechet_miles": 0.7603919037469051, "cluster_size": 8, "cluster_weight_space_percent": 5.194805194805195, "merged_cluster_id": "frechet_merged_004", "source_jaccard_clusters": "hier_jaccard_013, hier_jaccard_017"}, "geometry": {"type": "LineString", "coordinates": [[-89.83272609742262, 38.54503213945896], [-89.83252853470323, 38.54953126729425], [-89.83806053424684, 38.55418543772932], [-89.84359324582596, 38.558839373542895], [-89.84912666962028, 38.563493074603095], [-89.85466080580946, 38.568146540778045], [-89.86019565457306, 38.572799771935806], [-89.86573121609086, 38.57745276794444], [-89.87126749054252, 38.58210552867199], [-89.8768044781077, 38.58675805398646], [-89.88234217896623, 38.591410343755804], [-89.8878805932977, 38.59606239784802], [-89.89341972128202, 38.600714216131045], [-89.89895956309883, 38.60536579847276], [-89.90450011892796, 38.61001714474108], [-89.91004138894921, 38.614668254803874], [-89.9155833733424, 38.61931912852895], [-89.92112607228734, 38.62396976578414], [-89.92666948596386, 38.62862016643725], [-89.93221361455188, 38.63327033035605], [-89.93795006816568, 38.63342074684104], [-89.94368656455627, 38.63357088255261], [-89.94942310364411, 38.633720737484424], [-89.95515968534956, 38.63387031163015], [-89.9607061301244, 38.63851921137131], [-89.96644315446854, 38.638668247769026], [-89.97218022120177, 38.63881700331695], [-89.97791733024451, 38.63896547800877], [-89.98365448151714, 38.63911367183824], [-89.98939167493998, 38.639261584799115], [-89.9951289104335, 38.63940921688515], [-90.00086618791799, 38.639556568090114], [-90.00660350731387, 38.63970363840778], [-90.01234086854143, 38.63985042783196], [-90.01807827152109, 38.63999693635645], [-90.02362942973669, 38.64464302594129], [-90.0291813036891, 38.64928887709267], [-90.03473389355781, 38.653934489678136], [-90.04047253654934, 38.65407994433975], [-90.04602624200047, 38.65872506038847], [-90.05176532579277, 38.658869976095644], [-90.05750445081951, 38.65901461068064], [-90.06324361700084, 38.65915896413734], [-90.06898282425709, 38.65930303645963], [-90.07472207250845, 38.65944682764147], [-90.08046136167522, 38.65959033767675], [-90.0862006916776, 38.659733566559446], [-90.09194006243584, 38.659876514283475], [-90.09767947387014, 38.66001918084284], [-90.10341892590075, 38.66016156623149], [-90.1091584184479, 38.66030367044341], [-90.11489795143179, 38.66044549347263], [-90.12063752477266, 38.66058703531315], [-90.1263771383907, 38.66072829595899], [-90.1322963983993, 38.656368989937306], [-90.13821494197643, 38.652009353518125], [-90.14395395948668, 38.652149725619736], [-90.14969301693556, 38.65228981659268], [-90.15543211424334, 38.652429626431044], [-90.16134898671594, 38.648068749243166], [-90.16708780535298, 38.6482079745162], [-90.17282666359999, 38.64834691868183], [-90.17856556137721, 38.64848558173427], [-90.18430449860489, 38.64862396366764], [-90.19021938045634, 38.644261543498274], [-90.19613354616266, 38.639898793950096], [-90.20204699586435, 38.63553571516044], [-90.20795972970198, 38.63117230726659]]}}, {"type": "Feature", "properties": {"route_run_id": "stl_midamerica_to_st_louis_union_station_2025-07-14_0267", "route_pair": "midamerica_to_st_louis_union_station", "route_pair_label": "MidAmerica to St. Louis Union Station", "origin_label": "MidAmerica St. Louis Airport", "destination_label": "St. Louis Union Station", "origin_lat": 38.5451731, "origin_lon": -89.8351856, "destination_lat": 38.629167, "destination_lon": -90.2075, "traffic_date": "2025-07-14", "traffic_dataset": "July 14th - Monday", "weight_id": "w_0267", "distance_weight": 0.6, "population_weight": 0.4, "traffic_weight": 0.0, "airspace_weight": 0.0, "path_nodes": 67, "path_node_ids": [8877, 8876, 8868, 8869, 8870, 8867, 9753, 9754, 9755, 9744, 9746, 9747, 9745, 9737, 9736, 9734, 9735, 9919, 9921, 9944, 9947, 9940, 9941, 9962, 9955, 9957, 9959, 9994, 9885, 9886, 9884, 9887, 9897, 9895, 9896, 9894, 9902, 9903, 9904, 9909, 2213, 2212, 2214, 1997, 1994, 1995, 1996, 2005, 2004, 2007, 2006, 2191, 2194, 2193, 2192, 2418, 2422, 2425, 2427, 2453, 2455, 2454, 2372, 2399, 2401, 2404, 2715], "elapsed_seconds": 0.013491099991369992, "status": "success", "failure_reason": "", "route_distance_km": 46.66599661404935, "distance_cost_sum": 51.35894712861125, "population_cost_sum": 17.364166724554934, "traffic_cost_sum": 16.76937026246102, "airspace_cost_sum": 38.0, "total_weighted_score": 37.76103496698872, "clustering_method": "hierarchical_jaccard", "distance_method": "jaccard", "direct_cluster_number": 14, "hierarchical_jaccard_cluster": "hier_jaccard_014", "hierarchical_jaccard_cluster_source": "hier_jaccard_016", "representative_route_run_id": "stl_midamerica_to_st_louis_union_station_2025-07-14_0267", "representative_mean_frechet_miles": 0.07921369919445036, "cluster_size": 5, "cluster_weight_space_percent": 3.2467532467532467, "merged_cluster_id": "frechet_merged_005", "source_jaccard_clusters": "hier_jaccard_014"}, "geometry": {"type": "LineString", "coordinates": [[-89.83272609742262, 38.54503213945896], [-89.83845499191484, 38.54518713674757], [-89.84418393041321, 38.54534185422887], [-89.8499129128385, 38.54549629189633], [-89.85564193911159, 38.545650449743434], [-89.86137100915332, 38.54580432776372], [-89.86710012288452, 38.545957925950695], [-89.87282928022606, 38.546111244297876], [-89.8785584810987, 38.54626428279884], [-89.88428772542336, 38.54641704144712], [-89.8900170131208, 38.5465695202363], [-89.89574634411186, 38.54672171915994], [-89.90147571831739, 38.546873638211636], [-89.90720513565815, 38.54702527738502], [-89.91293459605497, 38.54717663667367], [-89.91866409942871, 38.54732771607122], [-89.92439364570006, 38.54747851557132], [-89.9301232347899, 38.54762903516762], [-89.93566171159593, 38.55227884253414], [-89.94120090063481, 38.55692841373979], [-89.94693132996858, 38.557078141522354], [-89.9526618018245, 38.55722758928637], [-89.95839231612332, 38.55737675702556], [-89.9641228727858, 38.55752564473363], [-89.96985347173262, 38.5576742524043], [-89.97539536640897, 38.56232230635172], [-89.98093797377864, 38.566970123410094], [-89.98648129402048, 38.57161770344731], [-89.99221313054706, 38.571765261757655], [-89.99794500899198, 38.571912539865146], [-90.00367692927587, 38.5720595377636], [-90.00940889131944, 38.572206255446844], [-90.01514089504332, 38.57235269290866], [-90.02087294036811, 38.5724988501429], [-90.02660502721452, 38.572644727143405], [-90.03233715550313, 38.57279032390402], [-90.0380693251546, 38.572935640418635], [-90.04380153608955, 38.57308067668109], [-90.04953378822863, 38.57322543268529], [-90.05508220119658, 38.57786994989744], [-90.06081489219632, 38.57801416845261], [-90.06654762417196, 38.57815810668649], [-90.072280397044, 38.57830176459299], [-90.07801321073313, 38.57844514216606], [-90.0837460651599, 38.578588239399664], [-90.08947896024489, 38.57873105628777], [-90.09521189590866, 38.57887359282438], [-90.10094487207182, 38.57901584900345], [-90.10667788865496, 38.579157824818985], [-90.11241094557855, 38.579299520265025], [-90.11814404276322, 38.57944093533558], [-90.12387718012955, 38.579582070024706], [-90.1296103575981, 38.57972292432643], [-90.13534357508938, 38.579863498234836], [-90.14107683252396, 38.580003791744], [-90.14663191796852, 38.58464420615243], [-90.15218771733517, 38.589284380730234], [-90.15774423080212, 38.593924315345014], [-90.16330145854758, 38.59856400986431], [-90.16885940074975, 38.60320346415569], [-90.17441805758689, 38.60784267808668], [-90.18015373543601, 38.6079811415637], [-90.18571350391167, 38.61261985640587], [-90.19127398739786, 38.61725833052981], [-90.19683518607279, 38.62189656380297], [-90.20239710011477, 38.62653455609276], [-90.20795972970198, 38.63117230726659]]}}]}