{"type": "FeatureCollection", "features": [{"type": "Feature", "properties": {"route_run_id": "stl_st_louis_downtown_airport_to_st_louis_lambert_2025-07-14_0001", "route_pair": "st_louis_downtown_airport_to_st_louis_lambert", "route_pair_label": "St. Louis Downtown Airport to St. Louis Lambert", "origin_label": "St. Louis Downtown Airport", "destination_label": "St. Louis Lambert International Airport", "origin_lat": 38.5703611, "origin_lon": -90.1550833, "destination_lat": 38.7486982, "destination_lon": -90.3700257, "traffic_date": "2025-07-14", "traffic_dataset": "July 14th - Monday", "weight_id": "w_0001", "distance_weight": 0.0, "population_weight": 0.0, "traffic_weight": 0.0, "airspace_weight": 1.0, "path_nodes": 40, "path_node_ids": [2179, 2147, 2172, 2176, 2200, 2204, 2317, 2340, 2346, 2371, 2391, 2395, 2708, 2713, 2738, 2741, 2745, 2747, 2684, 2687, 3987, 3990, 4016, 4017, 4022, 4029, 4034, 4060, 4064, 5048, 5052, 5076, 5082, 5299, 5304, 5319, 5321, 5357, 5358, 5364], "elapsed_seconds": 0.043986600008793175, "status": "success", "failure_reason": "", "route_distance_km": 35.06847425714207, "distance_cost_sum": 38.5951237717998, "population_cost_sum": 26.02381511715049, "traffic_cost_sum": 11.28979340591204, "airspace_cost_sum": 33.4, "total_weighted_score": 33.400000000000006, "clustering_method": "hierarchical_jaccard", "distance_method": "jaccard", "direct_cluster_number": 1, "hierarchical_jaccard_cluster": "hier_jaccard_001", "hierarchical_jaccard_cluster_source": "hier_jaccard_002", "representative_route_run_id": "stl_st_louis_downtown_airport_to_st_louis_lambert_2025-07-14_0001", "representative_mean_frechet_miles": 0.36909966097238417, "cluster_size": 166, "cluster_weight_space_percent": 65.61264822134387, "merged_cluster_id": "frechet_merged_001", "source_jaccard_clusters": "hier_jaccard_001, hier_jaccard_004"}, "geometry": {"type": "LineString", "coordinates": [[-90.15289905765549, 38.57128267769979], [-90.15863172081019, 38.571422085329914], [-90.16418736160693, 38.57606168922697], [-90.16974371606538, 38.58070105309441], [-90.17530078436367, 38.58534017679984], [-90.1808585666797, 38.58997906021084], [-90.18641706319154, 38.594617703194956], [-90.1919762740773, 38.599256105619745], [-90.19753619951499, 38.60389426735269], [-90.20309683968271, 38.60853218826128], [-90.20865819475857, 38.61316986821297], [-90.21422026492066, 38.617807307075225], [-90.21978305034705, 38.62244450471542], [-90.22534655121595, 38.62708146100096], [-90.2309107677055, 38.63171817579922], [-90.2364756999938, 38.63635464897752], [-90.2420413482591, 38.64099088040321], [-90.24760771267954, 38.645626869943555], [-90.25317479343335, 38.65026261746583], [-90.25874259069872, 38.654898122837295], [-90.26431110465388, 38.659533385925144], [-90.26988033547711, 38.664168406596616], [-90.27545028334664, 38.66880318471887], [-90.28102094844074, 38.67343772015905], [-90.28659233093768, 38.67807201278429], [-90.29216443101578, 38.68270606246168], [-90.29773724885335, 38.68733986905835], [-90.30331078462868, 38.69197343244128], [-90.30888503852013, 38.69660675247757], [-90.31446001070607, 38.70123982903419], [-90.32003570136486, 38.70587266197814], [-90.32561211067481, 38.710505251176386], [-90.33118923881437, 38.715137596495865], [-90.3367670859619, 38.719769697803464], [-90.34234565229588, 38.724401554966114], [-90.34792493799469, 38.72903316785066], [-90.35350494323681, 38.73366453632395], [-90.35908566820065, 38.73829566025279], [-90.36466711306467, 38.742926539503976], [-90.37024927800739, 38.74755717394432]]}}, {"type": "Feature", "properties": {"route_run_id": "stl_st_louis_downtown_airport_to_st_louis_lambert_2025-07-14_0159", "route_pair": "st_louis_downtown_airport_to_st_louis_lambert", "route_pair_label": "St. Louis Downtown Airport to St. Louis Lambert", "origin_label": "St. Louis Downtown Airport", "destination_label": "St. Louis Lambert International Airport", "origin_lat": 38.5703611, "origin_lon": -90.1550833, "destination_lat": 38.7486982, "destination_lon": -90.3700257, "traffic_date": "2025-07-14", "traffic_dataset": "July 14th - Monday", "weight_id": "w_0159", "distance_weight": 0.2, "population_weight": 0.5, "traffic_weight": 0.2, "airspace_weight": 0.1, "path_nodes": 56, "path_node_ids": [2179, 2180, 2183, 2186, 2419, 2423, 2427, 2453, 2455, 2478, 2481, 2485, 2808, 2811, 2812, 2816, 2858, 2863, 2864, 2889, 2892, 3900, 3904, 3925, 3929, 3955, 3951, 3954, 3953, 3966, 3944, 3978, 3983, 4297, 4198, 4199, 4201, 4216, 4229, 4232, 4234, 4266, 4269, 4272, 4586, 5343, 5342, 5341, 5366, 5349, 5352, 5375, 5354, 5363, 5362, 5364], "elapsed_seconds": 0.025908300012815744, "status": "success", "failure_reason": "", "route_distance_km": 42.67809565503688, "distance_cost_sum": 46.97000422866688, "population_cost_sum": 10.713820300617856, "traffic_cost_sum": 10.511884795824146, "airspace_cost_sum": 45.8, "total_weighted_score": 21.43328795520713, "clustering_method": "hierarchical_jaccard", "distance_method": "jaccard", "direct_cluster_number": 2, "hierarchical_jaccard_cluster": "hier_jaccard_002", "hierarchical_jaccard_cluster_source": "hier_jaccard_001", "representative_route_run_id": "stl_st_louis_downtown_airport_to_st_louis_lambert_2025-07-14_0159", "representative_mean_frechet_miles": 0.827469010262645, "cluster_size": 56, "cluster_weight_space_percent": 22.134387351778656, "merged_cluster_id": "frechet_merged_002", "source_jaccard_clusters": "hier_jaccard_002"}, "geometry": {"type": "LineString", "coordinates": [[-90.15289905765549, 38.57128267769979], [-90.15845430205954, 38.57592253965332], [-90.15827684369297, 38.58042298981685], [-90.1580993457009, 38.58492343582021], [-90.15792180807382, 38.58942387766302], [-90.16347871828971, 38.59406355405304], [-90.16330145854758, 38.59856400986431], [-90.16885940074975, 38.60320346415569], [-90.17441805758689, 38.60784267808668], [-90.174241393937, 38.61234316588366], [-90.17980108366437, 38.616982157334434], [-90.1796246987078, 38.62148265899229], [-90.179448274358, 38.625983156498016], [-90.17353434470424, 38.6303450755264], [-90.17335748369, 38.63484554254923], [-90.17318058317427, 38.63934600541629], [-90.17300364314747, 38.64384646412727], [-90.17856556137721, 38.64848558173427], [-90.17838890046788, 38.65298605432084], [-90.17821220009857, 38.65748652275311], [-90.17803546025965, 38.66198698703078], [-90.18359905135976, 38.6666259176785], [-90.18342259105025, 38.67112639580074], [-90.1889872182426, 38.67576510321293], [-90.1945525626976, 38.680403569257344], [-90.20011862459403, 38.68504179380117], [-90.20586058678872, 38.68517922698935], [-90.21142776429718, 38.68981695033316], [-90.2171701635404, 38.68995384239636], [-90.2229126017605, 38.690090452895454], [-90.22865507887754, 38.69022678182468], [-90.23422416781283, 38.694863484025944], [-90.23979397480163, 38.69949994395616], [-90.24536450002277, 38.704136161482424], [-90.25110820919835, 38.70427142896936], [-90.25685195689897, 38.704406414722804], [-90.2624239960298, 38.709041869378396], [-90.26799675378774, 38.71367708117809], [-90.27357023035168, 38.71831204998893], [-90.27914442590036, 38.722946775677876], [-90.2847193406125, 38.72758125811188], [-90.29029497466699, 38.7322154971579], [-90.29587132824253, 38.736849492682836], [-90.30144840151804, 38.74148324455354], [-90.3070261946723, 38.7461167526369], [-90.31294237493563, 38.74174820133574], [-90.31885783528352, 38.73737932150475], [-90.32460455631471, 38.7375110734335], [-90.33018361774292, 38.74214352032707], [-90.3359307737393, 38.74227472898667], [-90.34151095257313, 38.74690667038728], [-90.34725854333031, 38.74703733557797], [-90.35300617133261, 38.74716771853452], [-90.35875383649973, 38.747297819251436], [-90.36450153875144, 38.7474276377232], [-90.37024927800739, 38.74755717394432]]}}, {"type": "Feature", "properties": {"route_run_id": "stl_st_louis_downtown_airport_to_st_louis_lambert_2025-07-14_0119", "route_pair": "st_louis_downtown_airport_to_st_louis_lambert", "route_pair_label": "St. Louis Downtown Airport to St. Louis Lambert", "origin_label": "St. Louis Downtown Airport", "destination_label": "St. Louis Lambert International Airport", "origin_lat": 38.5703611, "origin_lon": -90.1550833, "destination_lat": 38.7486982, "destination_lon": -90.3700257, "traffic_date": "2025-07-14", "traffic_dataset": "July 14th - Monday", "weight_id": "w_0119", "distance_weight": 0.1, "population_weight": 0.8, "traffic_weight": 0.0, "airspace_weight": 0.1, "path_nodes": 55, "path_node_ids": [2179, 2180, 2183, 2186, 2419, 2423, 2448, 2452, 2455, 2478, 2482, 2483, 2487, 2811, 2812, 2816, 2858, 2863, 2864, 2889, 3896, 3898, 3901, 3927, 3946, 3949, 3953, 3966, 3944, 3977, 3976, 3941, 4043, 4066, 4067, 4068, 4185, 4187, 4188, 4076, 4075, 4082, 4084, 5080, 5084, 5310, 5311, 5337, 5320, 5322, 5323, 5346, 5357, 5358, 5364], "elapsed_seconds": 0.03466669999761507, "status": "success", "failure_reason": "", "route_distance_km": 41.77074742931658, "distance_cost_sum": 45.971408828735385, "population_cost_sum": 8.67777235752909, "traffic_cost_sum": 26.047956031283334, "airspace_cost_sum": 45.2, "total_weighted_score": 16.059358768896814, "clustering_method": "hierarchical_jaccard", "distance_method": "jaccard", "direct_cluster_number": 3, "hierarchical_jaccard_cluster": "hier_jaccard_003", "hierarchical_jaccard_cluster_source": "hier_jaccard_003", "representative_route_run_id": "stl_st_louis_downtown_airport_to_st_louis_lambert_2025-07-14_0119", "representative_mean_frechet_miles": 0.5661214343545402, "cluster_size": 30, "cluster_weight_space_percent": 11.857707509881424, "merged_cluster_id": "frechet_merged_003", "source_jaccard_clusters": "hier_jaccard_003"}, "geometry": {"type": "LineString", "coordinates": [[-90.15289905765549, 38.57128267769979], [-90.15845430205954, 38.57592253965332], [-90.15827684369297, 38.58042298981685], [-90.1580993457009, 38.58492343582021], [-90.15792180807382, 38.58942387766302], [-90.16347871828971, 38.59406355405304], [-90.1690363428032, 38.598702990254786], [-90.17459468179258, 38.60334218613583], [-90.17441805758689, 38.60784267808668], [-90.174241393937, 38.61234316588366], [-90.17406469083332, 38.61684364952644], [-90.17388794826633, 38.621344129014695], [-90.17371116622648, 38.62584460434813], [-90.17353434470424, 38.6303450755264], [-90.17335748369, 38.63484554254923], [-90.17318058317427, 38.63934600541629], [-90.17300364314747, 38.64384646412727], [-90.17856556137721, 38.64848558173427], [-90.17838890046788, 38.65298605432084], [-90.17821220009857, 38.65748652275311], [-90.18377547226044, 38.66212543540375], [-90.18933946118675, 38.666764106898924], [-90.19490416705614, 38.67140253710589], [-90.20046959004746, 38.676040725891895], [-90.20603573033937, 38.68067867312418], [-90.21160258811075, 38.68531637866994], [-90.2171701635404, 38.68995384239636], [-90.2229126017605, 38.690090452895454], [-90.22865507887754, 38.69022678182468], [-90.23439759481155, 38.69036282917826], [-90.24014014948251, 38.69049859495047], [-90.24605541323987, 38.68613337677085], [-90.2517976862147, 38.68626855773688], [-90.25736804511756, 38.69090420272148], [-90.26311075393669, 38.69103884211091], [-90.26868222818311, 38.695673984376505], [-90.27425442059507, 38.700308883813186], [-90.27999796237877, 38.700442721166475], [-90.28557127047641, 38.70507711728869], [-90.29148516021279, 38.700709550716724], [-90.297228816103, 38.700842542902386], [-90.30280331580018, 38.70547615766316], [-90.30837853409372, 38.710109528957155], [-90.31395447116216, 38.71474265665128], [-90.31378588266769, 38.71924359100243], [-90.31936286061908, 38.72387649197406], [-90.32494055786266, 38.72850914903958], [-90.330518974577, 38.7331415620659], [-90.33626541075455, 38.733272728767844], [-90.3420118843105, 38.73340361338185], [-90.34775839516463, 38.73353421590239], [-90.35333872308522, 38.73816560113835], [-90.35908566820065, 38.73829566025279], [-90.36466711306467, 38.742926539503976], [-90.37024927800739, 38.74755717394432]]}}, {"type": "Feature", "properties": {"route_run_id": "stl_st_louis_downtown_airport_to_st_louis_lambert_2025-07-14_0182", "route_pair": "st_louis_downtown_airport_to_st_louis_lambert", "route_pair_label": "St. Louis Downtown Airport to St. Louis Lambert", "origin_label": "St. Louis Downtown Airport", "destination_label": "St. Louis Lambert International Airport", "origin_lat": 38.5703611, "origin_lon": -90.1550833, "destination_lat": 38.7486982, "destination_lon": -90.3700257, "traffic_date": "2025-07-14", "traffic_dataset": "July 14th - Monday", "weight_id": "w_0182", "distance_weight": 0.3, "population_weight": 0.1, "traffic_weight": 0.6, "airspace_weight": 0.0, "path_nodes": 58, "path_node_ids": [2179, 2181, 2184, 2187, 2422, 2424, 2438, 2442, 2447, 2470, 2475, 2499, 2501, 2506, 2830, 2834, 2848, 2852, 2857, 2881, 2883, 2893, 4095, 4096, 3932, 3933, 3958, 3962, 3974, 3973, 3972, 3971, 4296, 4298, 4299, 4297, 4198, 4199, 4201, 4216, 4226, 4227, 4228, 4238, 4237, 4235, 4240, 5336, 5342, 5341, 5366, 5349, 5352, 5375, 5376, 5363, 5362, 5364], "elapsed_seconds": 0.015914999996311963, "status": "success", "failure_reason": "", "route_distance_km": 42.895630714340896, "distance_cost_sum": 47.209415629259404, "population_cost_sum": 16.678187969258804, "traffic_cost_sum": 6.797173275207359, "airspace_cost_sum": 47.4, "total_weighted_score": 19.90894745082812, "clustering_method": "hierarchical_jaccard", "distance_method": "jaccard", "direct_cluster_number": 13, "hierarchical_jaccard_cluster": "hier_jaccard_013", "hierarchical_jaccard_cluster_source": "hier_jaccard_013", "representative_route_run_id": "stl_st_louis_downtown_airport_to_st_louis_lambert_2025-07-14_0182", "representative_mean_frechet_miles": 0.0, "cluster_size": 1, "cluster_weight_space_percent": 0.3952569169960474, "merged_cluster_id": "frechet_merged_004", "source_jaccard_clusters": "hier_jaccard_013"}, "geometry": {"type": "LineString", "coordinates": [[-90.15289905765549, 38.57128267769979], [-90.15272128212803, 38.57578310970166], [-90.15254346690519, 38.5802835375409], [-90.15236561197744, 38.5847839612172], [-90.15218771733517, 38.589284380730234], [-90.15200978296876, 38.5937847960797], [-90.15183180886861, 38.59828520726528], [-90.15165379502511, 38.60278561428661], [-90.15147574142868, 38.60728601714343], [-90.14556181083432, 38.61164652648178], [-90.1453833202203, 38.61614689861747], [-90.15094134202556, 38.62078720072356], [-90.15076312932118, 38.625287586919086], [-90.15058487681573, 38.629787968948484], [-90.15040658449962, 38.63428834681146], [-90.15022825236318, 38.638788720507684], [-90.15004988039681, 38.64328909003685], [-90.14987146859082, 38.647789455398616], [-90.15543211424334, 38.652429626431044], [-90.16099347624521, 38.65706955685217], [-90.16081566145125, 38.66156995441258], [-90.16637805865126, 38.66620966221335], [-90.17194117271791, 38.67084912909773], [-90.17750500383, 38.67548835493302], [-90.18306955216653, 38.68012733958649], [-90.18863481790633, 38.68476608292537], [-90.19420080122836, 38.68940458481685], [-90.19976750231159, 38.694042845128145], [-90.20533492133491, 38.69868086372641], [-90.2110779994899, 38.698818081237896], [-90.21682111672072, 38.69895501710115], [-90.22256427294727, 38.69909167131035], [-90.2281336044467, 38.703728668678], [-90.23387719756693, 38.703864781331006], [-90.23962082945226, 38.70400061226774], [-90.24536450002277, 38.704136161482424], [-90.25110820919835, 38.70427142896936], [-90.25685195689897, 38.704406414722804], [-90.2624239960298, 38.709041869378396], [-90.26799675378774, 38.71367708117809], [-90.27374133523836, 38.713811264613504], [-90.27931520948262, 38.71844597299539], [-90.28506022676613, 38.71857961410498], [-90.29063521764166, 38.723213818699314], [-90.29638067055468, 38.72334691728308], [-90.30212616138907, 38.72347973390806], [-90.30770266654505, 38.72811317357814], [-90.31327989111702, 38.732746369488076], [-90.31885783528352, 38.73737932150475], [-90.32460455631471, 38.7375110734335], [-90.33018361774292, 38.74214352032707], [-90.3359307737393, 38.74227472898667], [-90.34151095257313, 38.74690667038728], [-90.34725854333031, 38.74703733557797], [-90.35283983971358, 38.7516687711157], [-90.35875383649973, 38.747297819251436], [-90.36450153875144, 38.7474276377232], [-90.37024927800739, 38.74755717394432]]}}]}