{"type": "FeatureCollection", "features": [{"type": "Feature", "properties": {"route_run_id": "stl_midamerica_to_st_louis_lambert_2026-01-10_0133", "route_pair": "midamerica_to_st_louis_lambert", "route_pair_label": "MidAmerica to St. Louis Lambert", "origin_label": "MidAmerica St. Louis Airport", "destination_label": "St. Louis Lambert International Airport", "origin_lat": 38.5451731, "origin_lon": -89.8351856, "destination_lat": 38.7486982, "destination_lon": -90.3700257, "traffic_date": "2026-01-10", "traffic_dataset": "January 10th - Saturday", "weight_id": "w_0133", "distance_weight": 0.2, "population_weight": 0.1, "traffic_weight": 0.2, "airspace_weight": 0.5, "path_nodes": 96, "path_node_ids": [8877, 8879, 8896, 8900, 8924, 8930, 10012, 10015, 10019, 10053, 10057, 10060, 10092, 10076, 10080, 10105, 10109, 10291, 10512, 10286, 10289, 10294, 10281, 10292, 10293, 10304, 10303, 10302, 10315, 10316, 10317, 10314, 10207, 10206, 10204, 10205, 10323, 10324, 10322, 10325, 2520, 2521, 2519, 2510, 2512, 2515, 2516, 2530, 2534, 2559, 2561, 2844, 2847, 2872, 2873, 2887, 4091, 4093, 4117, 4102, 4125, 4128, 4134, 4288, 4289, 4287, 4307, 4310, 4309, 4312, 4303, 4300, 4302, 4301, 4202, 4215, 4220, 4223, 4255, 4233, 4234, 4242, 4265, 4244, 4243, 5336, 5338, 5341, 5366, 5353, 5377, 5379, 5376, 5588, 5362, 5364], "elapsed_seconds": 0.054764599975897, "status": "success", "failure_reason": "", "route_distance_km": 72.99215841467418, "distance_cost_sum": 80.3325906832524, "population_cost_sum": 24.748661126318023, "traffic_cost_sum": 13.762400085148052, "airspace_cost_sum": 48.8, "total_weighted_score": 45.69386426631191, "clustering_method": "hierarchical_jaccard", "distance_method": "jaccard", "direct_cluster_number": 1, "hierarchical_jaccard_cluster": "hier_jaccard_001", "hierarchical_jaccard_cluster_source": "hier_jaccard_002", "representative_route_run_id": "stl_midamerica_to_st_louis_lambert_2026-01-10_0133", "representative_mean_frechet_miles": 0.8756175161285904, "cluster_size": 63, "cluster_weight_space_percent": 39.130434782608695, "merged_cluster_id": "frechet_merged_001", "source_jaccard_clusters": "hier_jaccard_001, hier_jaccard_014"}, "geometry": {"type": "LineString", "coordinates": [[-89.83272609742262, 38.54503213945896], [-89.83825778508921, 38.54968628939868], [-89.84379018463301, 38.55434020475587], [-89.84932329623358, 38.558993885398685], [-89.85485712007056, 38.56364733119524], [-89.86039165632353, 38.56830054201366], [-89.86592690517212, 38.57295351772198], [-89.871462866796, 38.577606258188254], [-89.87699954137483, 38.582258763280514], [-89.88253692908823, 38.586911032866766], [-89.88807503011597, 38.59156306681497], [-89.8936138446377, 38.59621486499309], [-89.89915337283315, 38.600866427269025], [-89.90469361488212, 38.60551775351072], [-89.91023457096428, 38.610168843586045], [-89.91577624125941, 38.61481969736282], [-89.92131862594731, 38.619470314708934], [-89.92705392153653, 38.61962122026898], [-89.93278926003055, 38.619771845202735], [-89.93871608023923, 38.61542266184741], [-89.94445114702152, 38.615572701498955], [-89.95018625645967, 38.61572246055001], [-89.9559214084743, 38.61587193899423], [-89.9616566029858, 38.61602113682532], [-89.96739183991471, 38.61617005403699], [-89.97312711918148, 38.61631869062297], [-89.97886244070665, 38.616467046576965], [-89.9845978044106, 38.61661512189275], [-89.9903332102139, 38.61676291656407], [-89.99606865803695, 38.61691043058469], [-90.00180414780024, 38.61705766394838], [-90.00753967942423, 38.617204616648934], [-90.01327525282936, 38.61735128868017], [-90.01901086793612, 38.61749768003589], [-90.02474652466493, 38.617643790709906], [-90.03048222293627, 38.617789620696094], [-90.03621796267052, 38.617935169988264], [-90.0419537437882, 38.61808043858029], [-90.04768956620967, 38.61822542646607], [-90.05342542985542, 38.61837013363945], [-90.05916133464585, 38.61851456009435], [-90.06489728050143, 38.618658705824664], [-90.07063326734246, 38.618802570824315], [-90.07636929508949, 38.61894615508724], [-90.08210536366288, 38.61908945860739], [-90.08765932674906, 38.623732618744384], [-90.09339583428118, 38.623875383605984], [-90.09895091075838, 38.62851804648185], [-90.10450670259345, 38.633160469873815], [-90.11006320996535, 38.6378026536494], [-90.11562043305292, 38.64244459767609], [-90.12117837203515, 38.64708630182135], [-90.12673702709097, 38.65172776595263], [-90.1322963983993, 38.656368989937306], [-90.13785648613919, 38.66100997364278], [-90.14341729048948, 38.665650716936426], [-90.14897881162928, 38.67029121968557], [-90.15454104973756, 38.67493148175755], [-90.16010400499339, 38.67957150301965], [-90.16566767757574, 38.684211283339124], [-90.17123206766368, 38.68885082258324], [-90.1767971754363, 38.69349012061922], [-90.18236300107269, 38.69812917731423], [-90.18792954475192, 38.70276799253548], [-90.19367286427534, 38.702906077040794], [-90.19941622312405, 38.70304387987032], [-90.20515962121809, 38.703181401018284], [-90.21072807837955, 38.707819195578296], [-90.21647191391787, 38.707956175252406], [-90.22221578847089, 38.70809287318253], [-90.2279597019586, 38.70822928936292], [-90.23370365430087, 38.7083654237878], [-90.23944764541775, 38.708501276451386], [-90.24519167522915, 38.70863684734796], [-90.25093574365499, 38.70877213647181], [-90.25650770587707, 38.713407868791336], [-90.2620803868679, 38.71804335830804], [-90.26765378680629, 38.72267860488892], [-90.27322790587108, 38.727313608400934], [-90.27897360415623, 38.72744757424986], [-90.2847193406125, 38.72758125811188], [-90.29046511515969, 38.72771465998137], [-90.29604114694997, 38.73234863831933], [-90.30178735717278, 38.73248149743191], [-90.30753360525517, 38.73261407449003], [-90.31327989111702, 38.732746369488076], [-90.31902621467803, 38.73287838242046], [-90.32460455631471, 38.7375110734335], [-90.33018361774292, 38.74214352032707], [-90.33576339914136, 38.74677572296801], [-90.34134390068866, 38.75140768122309], [-90.34709185157405, 38.75153836730899], [-90.35283983971358, 38.7516687711157], [-90.35858786502698, 38.75179889263772], [-90.36450153875144, 38.7474276377232], [-90.37024927800739, 38.74755717394432]]}}, {"type": "Feature", "properties": {"route_run_id": "stl_midamerica_to_st_louis_lambert_2026-01-10_0158", "route_pair": "midamerica_to_st_louis_lambert", "route_pair_label": "MidAmerica to St. Louis Lambert", "origin_label": "MidAmerica St. Louis Airport", "destination_label": "St. Louis Lambert International Airport", "origin_lat": 38.5451731, "origin_lon": -89.8351856, "destination_lat": 38.7486982, "destination_lon": -90.3700257, "traffic_date": "2026-01-10", "traffic_dataset": "January 10th - Saturday", "weight_id": "w_0158", "distance_weight": 0.2, "population_weight": 0.5, "traffic_weight": 0.1, "airspace_weight": 0.2, "path_nodes": 100, "path_node_ids": [8877, 8881, 8905, 8906, 8933, 8929, 9143, 9146, 9173, 10020, 10063, 10068, 10070, 10095, 10099, 10422, 10424, 10111, 10108, 10110, 10109, 10516, 10515, 10514, 10521, 10526, 10523, 10524, 10525, 10311, 10532, 10533, 10363, 10350, 10351, 10366, 10376, 10374, 10379, 10378, 10391, 10402, 10403, 10390, 2600, 2605, 10732, 2607, 10716, 10719, 10721, 10729, 10730, 10731, 10745, 2907, 4107, 4109, 4112, 4145, 4150, 4149, 4153, 4175, 4177, 4176, 4179, 4288, 4289, 4287, 4307, 4306, 4305, 4308, 4296, 4298, 4299, 4297, 4198, 4199, 4201, 4216, 4229, 4232, 4230, 4242, 4265, 4244, 4243, 5336, 5338, 5341, 5366, 5353, 5377, 5379, 5376, 5588, 5362, 5364], "elapsed_seconds": 0.05102479999186471, "status": "success", "failure_reason": "", "route_distance_km": 73.96790237425417, "distance_cost_sum": 81.40646001139703, "population_cost_sum": 17.340839835285504, "traffic_cost_sum": 19.611947955208972, "airspace_cost_sum": 52.2, "total_weighted_score": 37.35290671544306, "clustering_method": "hierarchical_jaccard", "distance_method": "jaccard", "direct_cluster_number": 3, "hierarchical_jaccard_cluster": "hier_jaccard_003", "hierarchical_jaccard_cluster_source": "hier_jaccard_003", "representative_route_run_id": "stl_midamerica_to_st_louis_lambert_2026-01-10_0158", "representative_mean_frechet_miles": 0.7672850288011108, "cluster_size": 29, "cluster_weight_space_percent": 18.012422360248447, "merged_cluster_id": "frechet_merged_002", "source_jaccard_clusters": "hier_jaccard_003"}, "geometry": {"type": "LineString", "coordinates": [[-89.83272609742262, 38.54503213945896], [-89.83252853470323, 38.54953126729425], [-89.83233092788802, 38.55403039080605], [-89.83786323937711, 38.55868458173916], [-89.83766590046945, 38.563183721427826], [-89.84319923632499, 38.56783769816219], [-89.84873328471264, 38.57249144006519], [-89.8542680458121, 38.5771449470049], [-89.85980351980317, 38.58179821884939], [-89.86533970686553, 38.58645125546666], [-89.87087660717904, 38.591104056724724], [-89.87641422092351, 38.59575662249155], [-89.88195254827868, 38.600408952635085], [-89.8874915894244, 38.605061047023284], [-89.88729702234833, 38.60956036516477], [-89.89283709113381, 38.614212243778354], [-89.89837787422846, 38.61886388633325], [-89.90411299740347, 38.6190159143347], [-89.90984816380127, 38.619167661735425], [-89.9155833733424, 38.61931912852895], [-89.92131862594731, 38.619470314708934], [-89.9268617252078, 38.624120695492145], [-89.93259742104341, 38.62427134452904], [-89.93833315971467, 38.6244217128885], [-89.9438777741926, 38.62907134369313], [-89.94961395574867, 38.62922117465033], [-89.95535017991209, 38.629370724866256], [-89.96108644660326, 38.62951999433463], [-89.96682275574257, 38.629668983049136], [-89.97255910725055, 38.62981769100349], [-89.9782955010475, 38.62996611819141], [-89.98403193705393, 38.63011426460664], [-89.98958006609531, 38.63476185964426], [-89.99531694389556, 38.63490946811138], [-90.00105386367663, 38.63505679574229], [-90.00660350731387, 38.63970363840778], [-90.01234086854143, 38.63985042783196], [-90.01807827152109, 38.63999693635645], [-90.02362942973669, 38.64464302594129], [-90.02936727381517, 38.644788996000585], [-90.0349195472141, 38.64943458949962], [-90.0406578321926, 38.64958002089252], [-90.04639615854494, 38.6497251712652], [-90.0521345261914, 38.64987004061157], [-90.05768871350824, 38.65451462190967], [-90.06324361700084, 38.65915896413734], [-90.06879923684859, 38.66380306716205], [-90.07453884333233, 38.663946881349034], [-90.08027849074135, 38.66409041434458], [-90.08583562554844, 38.668733761526155], [-90.09157571291051, 38.66887675499398], [-90.0973158409683, 38.669019467207306], [-90.10305600964216, 38.66916189816016], [-90.10879621885215, 38.66930404784649], [-90.1143556665019, 38.67394612137533], [-90.12009631501547, 38.67408773116219], [-90.1256568785435, 38.67872930581226], [-90.13139796616022, 38.67887037549889], [-90.13695964571467, 38.683511450900546], [-90.14252204267808, 38.68815228569193], [-90.14808515722972, 38.692792879740324], [-90.15382748129907, 38.69293289101744], [-90.15939171242222, 38.69757298499622], [-90.1651344750913, 38.69771245548389], [-90.17069982293353, 38.702352049023325], [-90.17644302400102, 38.702490978520885], [-90.18218626463384, 38.702629626360235], [-90.18792954475192, 38.70276799253548], [-90.19367286427534, 38.702906077040794], [-90.19941622312405, 38.70304387987032], [-90.20515962121809, 38.703181401018284], [-90.21090305847734, 38.7033186404788], [-90.2166465348219, 38.703455598246116], [-90.2223900501717, 38.70359227431444], [-90.2281336044467, 38.703728668678], [-90.23387719756693, 38.703864781331006], [-90.23962082945226, 38.70400061226774], [-90.24536450002277, 38.704136161482424], [-90.25110820919835, 38.70427142896936], [-90.25685195689897, 38.704406414722804], [-90.2624239960298, 38.709041869378396], [-90.26799675378774, 38.71367708117809], [-90.27357023035168, 38.71831204998893], [-90.27914442590036, 38.722946775677876], [-90.28488980273018, 38.72308043816236], [-90.29046511515969, 38.72771465998137], [-90.29604114694997, 38.73234863831933], [-90.30178735717278, 38.73248149743191], [-90.30753360525517, 38.73261407449003], [-90.31327989111702, 38.732746369488076], [-90.31902621467803, 38.73287838242046], [-90.32460455631471, 38.7375110734335], [-90.33018361774292, 38.74214352032707], [-90.33576339914136, 38.74677572296801], [-90.34134390068866, 38.75140768122309], [-90.34709185157405, 38.75153836730899], [-90.35283983971358, 38.7516687711157], [-90.35858786502698, 38.75179889263772], [-90.36450153875144, 38.7474276377232], [-90.37024927800739, 38.74755717394432]]}}, {"type": "Feature", "properties": {"route_run_id": "stl_midamerica_to_st_louis_lambert_2026-01-10_0226", "route_pair": "midamerica_to_st_louis_lambert", "route_pair_label": "MidAmerica to St. Louis Lambert", "origin_label": "MidAmerica St. Louis Airport", "destination_label": "St. Louis Lambert International Airport", "origin_lat": 38.5451731, "origin_lon": -89.8351856, "destination_lat": 38.7486982, "destination_lon": -90.3700257, "traffic_date": "2026-01-10", "traffic_dataset": "January 10th - Saturday", "weight_id": "w_0226", "distance_weight": 0.4, "population_weight": 0.4, "traffic_weight": 0.0, "airspace_weight": 0.2, "path_nodes": 98, "path_node_ids": [8877, 8881, 8904, 8922, 8923, 8927, 9145, 10016, 10018, 10062, 10055, 10058, 10094, 10096, 10103, 10104, 10110, 10109, 10516, 10515, 10514, 10517, 10522, 10299, 10300, 10301, 10309, 10308, 10533, 10363, 10350, 10351, 10366, 10376, 10374, 10379, 10614, 10407, 10410, 10411, 10408, 2604, 2605, 2606, 2603, 10715, 10714, 10713, 10722, 2597, 10723, 2596, 2876, 2875, 2874, 2873, 2885, 2886, 2884, 2883, 2890, 2891, 2895, 3904, 3925, 3926, 3931, 3951, 3954, 3953, 3966, 3944, 3977, 3976, 3941, 4043, 4066, 4067, 4068, 4185, 4187, 4186, 4076, 4075, 4082, 4084, 5080, 5084, 5310, 5311, 5337, 5320, 5322, 5323, 5346, 5357, 5358, 5364], "elapsed_seconds": 0.04542449998552911, "status": "success", "failure_reason": "", "route_distance_km": 73.20963090489165, "distance_cost_sum": 80.57193322251891, "population_cost_sum": 16.535156841253748, "traffic_cost_sum": 44.496787145317036, "airspace_cost_sum": 51.4, "total_weighted_score": 49.12283602550907, "clustering_method": "hierarchical_jaccard", "distance_method": "jaccard", "direct_cluster_number": 4, "hierarchical_jaccard_cluster": "hier_jaccard_004", "hierarchical_jaccard_cluster_source": "hier_jaccard_004", "representative_route_run_id": "stl_midamerica_to_st_louis_lambert_2026-01-10_0226", "representative_mean_frechet_miles": 0.999128075167868, "cluster_size": 24, "cluster_weight_space_percent": 14.906832298136646, "merged_cluster_id": "frechet_merged_003", "source_jaccard_clusters": "hier_jaccard_004"}, "geometry": {"type": "LineString", "coordinates": [[-89.83272609742262, 38.54503213945896], [-89.83252853470323, 38.54953126729425], [-89.83806053424684, 38.55418543772932], [-89.84359324582596, 38.558839373542895], [-89.84912666962028, 38.563493074603095], [-89.85466080580946, 38.568146540778045], [-89.86019565457306, 38.572799771935806], [-89.86573121609086, 38.57745276794444], [-89.87126749054252, 38.58210552867199], [-89.8768044781077, 38.58675805398646], [-89.88234217896623, 38.591410343755804], [-89.8878805932977, 38.59606239784802], [-89.89341972128202, 38.600714216131045], [-89.89895956309883, 38.60536579847276], [-89.90450011892796, 38.61001714474108], [-89.91004138894921, 38.614668254803874], [-89.9155833733424, 38.61931912852895], [-89.92131862594731, 38.619470314708934], [-89.9268617252078, 38.624120695492145], [-89.93259742104341, 38.62427134452904], [-89.93833315971467, 38.6244217128885], [-89.94406894114202, 38.62457180056415], [-89.94980476524591, 38.62472160754967], [-89.95554063194687, 38.62487113383877], [-89.96127654116528, 38.62502037942509], [-89.96701249282155, 38.625169344302385], [-89.97274848683627, 38.62531802846435], [-89.97848452312972, 38.62546643190471], [-89.98403193705393, 38.63011426460664], [-89.98958006609531, 38.63476185964426], [-89.99531694389556, 38.63490946811138], [-90.00105386367663, 38.63505679574229], [-90.00660350731387, 38.63970363840778], [-90.01234086854143, 38.63985042783196], [-90.01807827152109, 38.63999693635645], [-90.02362942973669, 38.64464302594129], [-90.0291813036891, 38.64928887709267], [-90.03473389355781, 38.653934489678136], [-90.04028719952224, 38.658579863565194], [-90.04602624200047, 38.65872506038847], [-90.05176532579277, 38.658869976095644], [-90.05750445081951, 38.65901461068064], [-90.06324361700084, 38.65915896413734], [-90.06898282425709, 38.65930303645963], [-90.07472207250845, 38.65944682764147], [-90.08046136167522, 38.65959033767675], [-90.0862006916776, 38.659733566559446], [-90.09194006243584, 38.659876514283475], [-90.09767947387014, 38.66001918084284], [-90.10341892590075, 38.66016156623149], [-90.1091584184479, 38.66030367044341], [-90.11489795143179, 38.66044549347263], [-90.12063752477266, 38.66058703531315], [-90.1263771383907, 38.66072829595899], [-90.1321167922061, 38.660869275404174], [-90.13785648613919, 38.66100997364278], [-90.14359622011, 38.661150390668844], [-90.14933599403881, 38.66129052647644], [-90.15507580784583, 38.66143038105964], [-90.16081566145125, 38.66156995441258], [-90.16655555477524, 38.661709246529334], [-90.17229548773797, 38.66184825740402], [-90.17785868094164, 38.666487447153536], [-90.18342259105025, 38.67112639580074], [-90.1889872182426, 38.67576510321293], [-90.19472838451095, 38.67590305525546], [-90.2002941269196, 38.68054126191918], [-90.20586058678872, 38.68517922698935], [-90.21142776429718, 38.68981695033316], [-90.2171701635404, 38.68995384239636], [-90.2229126017605, 38.690090452895454], [-90.22865507887754, 38.69022678182468], [-90.23439759481155, 38.69036282917826], [-90.24014014948251, 38.69049859495047], [-90.24605541323987, 38.68613337677085], [-90.2517976862147, 38.68626855773688], [-90.25736804511756, 38.69090420272148], [-90.26311075393669, 38.69103884211091], [-90.26868222818311, 38.695673984376505], [-90.27425442059507, 38.700308883813186], [-90.27999796237877, 38.700442721166475], [-90.28574154227802, 38.70057627680287], [-90.29148516021279, 38.700709550716724], [-90.297228816103, 38.700842542902386], [-90.30280331580018, 38.70547615766316], [-90.30837853409372, 38.710109528957155], [-90.31395447116216, 38.71474265665128], [-90.31378588266769, 38.71924359100243], [-90.31936286061908, 38.72387649197406], [-90.32494055786266, 38.72850914903958], [-90.330518974577, 38.7331415620659], [-90.33626541075455, 38.733272728767844], [-90.3420118843105, 38.73340361338185], [-90.34775839516463, 38.73353421590239], [-90.35333872308522, 38.73816560113835], [-90.35908566820065, 38.73829566025279], [-90.36466711306467, 38.742926539503976], [-90.37024927800739, 38.74755717394432]]}}, {"type": "Feature", "properties": {"route_run_id": "stl_midamerica_to_st_louis_lambert_2026-01-10_0183", "route_pair": "midamerica_to_st_louis_lambert", "route_pair_label": "MidAmerica to St. Louis Lambert", "origin_label": "MidAmerica St. Louis Airport", "destination_label": "St. Louis Lambert International Airport", "origin_lat": 38.5451731, "origin_lon": -89.8351856, "destination_lat": 38.7486982, "destination_lon": -90.3700257, "traffic_date": "2026-01-10", "traffic_dataset": "January 10th - Saturday", "weight_id": "w_0183", "distance_weight": 0.3, "population_weight": 0.2, "traffic_weight": 0.0, "airspace_weight": 0.5, "path_nodes": 97, "path_node_ids": [8877, 8881, 8904, 8922, 8923, 8927, 9145, 10016, 10018, 10062, 10055, 10058, 10094, 10096, 10103, 10104, 10110, 10109, 10291, 10512, 10290, 10513, 10298, 10295, 10296, 10297, 10307, 10305, 10306, 10319, 10321, 10320, 10318, 10211, 10210, 10208, 10209, 10326, 10328, 10329, 10327, 2522, 2524, 2523, 2514, 2517, 2515, 2516, 2530, 2534, 2532, 2558, 2840, 2839, 2838, 2827, 2849, 2848, 2850, 2837, 2861, 2866, 2889, 3896, 3898, 3901, 3902, 3914, 3948, 3947, 3952, 3940, 3942, 3943, 3941, 4043, 4042, 4041, 4040, 4051, 4054, 4186, 4080, 4205, 4207, 4212, 5309, 5313, 5335, 5337, 5320, 5322, 5323, 5346, 5357, 5358, 5364], "elapsed_seconds": 0.053649399982532486, "status": "success", "failure_reason": "", "route_distance_km": 72.29260468015718, "distance_cost_sum": 79.56268655880336, "population_cost_sum": 22.4028729657628, "traffic_cost_sum": 41.31713795002357, "airspace_cost_sum": 47.6, "total_weighted_score": 52.14938056079359, "clustering_method": "hierarchical_jaccard", "distance_method": "jaccard", "direct_cluster_number": 5, "hierarchical_jaccard_cluster": "hier_jaccard_005", "hierarchical_jaccard_cluster_source": "hier_jaccard_007", "representative_route_run_id": "stl_midamerica_to_st_louis_lambert_2026-01-10_0183", "representative_mean_frechet_miles": 0.6239213250120216, "cluster_size": 15, "cluster_weight_space_percent": 9.316770186335404, "merged_cluster_id": "frechet_merged_004", "source_jaccard_clusters": "hier_jaccard_005"}, "geometry": {"type": "LineString", "coordinates": [[-89.83272609742262, 38.54503213945896], [-89.83252853470323, 38.54953126729425], [-89.83806053424684, 38.55418543772932], [-89.84359324582596, 38.558839373542895], [-89.84912666962028, 38.563493074603095], [-89.85466080580946, 38.568146540778045], [-89.86019565457306, 38.572799771935806], [-89.86573121609086, 38.57745276794444], [-89.87126749054252, 38.58210552867199], [-89.8768044781077, 38.58675805398646], [-89.88234217896623, 38.591410343755804], [-89.8878805932977, 38.59606239784802], [-89.89341972128202, 38.600714216131045], [-89.89895956309883, 38.60536579847276], [-89.90450011892796, 38.61001714474108], [-89.91004138894921, 38.614668254803874], [-89.9155833733424, 38.61931912852895], [-89.92131862594731, 38.619470314708934], [-89.92705392153653, 38.61962122026898], [-89.93278926003055, 38.619771845202735], [-89.93852464134986, 38.619922189503846], [-89.9442600654149, 38.62007225316597], [-89.94999553214618, 38.62022203618278], [-89.95573104146416, 38.620371538547964], [-89.96146659328937, 38.6205207602552], [-89.96720218754218, 38.620669701298226], [-89.97293782414316, 38.62081836167072], [-89.97867350301271, 38.62096674136646], [-89.98440922407127, 38.621114840379136], [-89.99014498723932, 38.62126265870254], [-89.99588079243732, 38.621410196330416], [-90.00161663958568, 38.62155745325657], [-90.00735252860491, 38.621704429474754], [-90.01308845941536, 38.6218511249788], [-90.01882443193752, 38.62199753976251], [-90.0245604460918, 38.62214367381969], [-90.03029650179865, 38.62228952714421], [-90.03603259897847, 38.622435099729884], [-90.04176873755169, 38.622580391570615], [-90.04750491743872, 38.62272540266021], [-90.05324113855997, 38.6228701329926], [-90.0589774008359, 38.62301458256169], [-90.06471370418684, 38.62315875136136], [-90.07045004853325, 38.62330263938551], [-90.07618643379548, 38.623446246628106], [-90.08192285989396, 38.62358957308307], [-90.08765932674906, 38.623732618744384], [-90.09339583428118, 38.623875383605984], [-90.09895091075838, 38.62851804648185], [-90.10450670259345, 38.633160469873815], [-90.1102440470662, 38.63330243772981], [-90.11580095263906, 38.63794436326609], [-90.12135857394713, 38.64258604896054], [-90.12709675507955, 38.642727219229855], [-90.13283497637043, 38.64286810847808], [-90.13857323774008, 38.64300871669927], [-90.14431153910874, 38.643149043887504], [-90.15004988039681, 38.64328909003685], [-90.15578826152439, 38.64342885514139], [-90.16152668241186, 38.64356833919522], [-90.16708780535298, 38.6482079745162], [-90.17264964452228, 38.6528473690797], [-90.17821220009857, 38.65748652275311], [-90.18377547226044, 38.66212543540375], [-90.18933946118675, 38.666764106898924], [-90.19490416705614, 38.67140253710589], [-90.200645013987, 38.67154018571967], [-90.20621083477218, 38.67617811511645], [-90.21177737287698, 38.68081580286656], [-90.21751905445252, 38.68095265114052], [-90.22308670781703, 38.685589837485246], [-90.22882882604138, 38.685726144608395], [-90.23457098307328, 38.6858621702009], [-90.24031317883275, 38.68599791425695], [-90.24605541323987, 38.68613337677085], [-90.2517976862147, 38.68626855773688], [-90.25753999767723, 38.686403457149304], [-90.26328234754749, 38.686538075002424], [-90.26902473574555, 38.686672411290566], [-90.27459628650614, 38.69130727605424], [-90.2801685552908, 38.695941897935995], [-90.28574154227802, 38.70057627680287], [-90.29131524764634, 38.705210412521886], [-90.29688967157429, 38.70984430496006], [-90.30246481424038, 38.714477953984364], [-90.30804067582325, 38.71911135946174], [-90.31361725650144, 38.72374452125915], [-90.3191945564535, 38.72837743924346], [-90.3247725758581, 38.73301011328159], [-90.330518974577, 38.7331415620659], [-90.33626541075455, 38.733272728767844], [-90.3420118843105, 38.73340361338185], [-90.34775839516463, 38.73353421590239], [-90.35333872308522, 38.73816560113835], [-90.35908566820065, 38.73829566025279], [-90.36466711306467, 38.742926539503976], [-90.37024927800739, 38.74755717394432]]}}, {"type": "Feature", "properties": {"route_run_id": "stl_midamerica_to_st_louis_lambert_2026-01-10_0067", "route_pair": "midamerica_to_st_louis_lambert", "route_pair_label": "MidAmerica to St. Louis Lambert", "origin_label": "MidAmerica St. Louis Airport", "destination_label": "St. Louis Lambert International Airport", "origin_lat": 38.5451731, "origin_lon": -89.8351856, "destination_lat": 38.7486982, "destination_lon": -90.3700257, "traffic_date": "2026-01-10", "traffic_dataset": "January 10th - Saturday", "weight_id": "w_0067", "distance_weight": 0.1, "population_weight": 0.0, "traffic_weight": 0.0, "airspace_weight": 0.9, "path_nodes": 96, "path_node_ids": [8877, 8876, 8892, 8897, 8899, 8926, 9788, 10013, 10014, 10036, 10052, 10054, 10061, 10051, 10049, 10048, 10050, 10253, 10252, 10241, 10240, 10248, 10246, 10247, 10245, 10231, 10230, 10262, 10150, 10148, 10149, 10151, 10161, 10159, 10158, 10160, 10166, 10168, 10167, 10169, 2247, 2269, 2268, 2257, 2256, 2254, 2279, 2293, 2296, 2301, 2303, 2491, 2492, 2818, 2496, 2507, 2506, 2828, 2505, 2809, 2811, 2810, 2728, 2730, 2731, 2729, 2715, 2717, 2714, 2716, 2738, 2741, 2745, 2747, 2684, 2687, 3987, 3990, 4016, 4017, 4022, 4029, 4034, 4060, 4064, 5048, 5052, 5076, 5082, 5299, 5304, 5319, 5321, 5357, 5358, 5364], "elapsed_seconds": 0.05629639999824576, "status": "success", "failure_reason": "", "route_distance_km": 71.90057520712594, "distance_cost_sum": 79.13123277148179, "population_cost_sum": 53.29567736851651, "traffic_cost_sum": 28.073460986003575, "airspace_cost_sum": 46.2, "total_weighted_score": 49.49312327714821, "clustering_method": "hierarchical_jaccard", "distance_method": "jaccard", "direct_cluster_number": 6, "hierarchical_jaccard_cluster": "hier_jaccard_006", "hierarchical_jaccard_cluster_source": "hier_jaccard_013", "representative_route_run_id": "stl_midamerica_to_st_louis_lambert_2026-01-10_0067", "representative_mean_frechet_miles": 0.4490798702110864, "cluster_size": 15, "cluster_weight_space_percent": 9.316770186335404, "merged_cluster_id": "frechet_merged_005", "source_jaccard_clusters": "hier_jaccard_006"}, "geometry": {"type": "LineString", "coordinates": [[-89.83272609742262, 38.54503213945896], [-89.83845499191484, 38.54518713674757], [-89.84398707949187, 38.54984103165108], [-89.84951987896733, 38.55449469187918], [-89.85505339052077, 38.559148117300026], [-89.86058761433173, 38.563801307781745], [-89.86612255057987, 38.568454263192415], [-89.87165819944471, 38.57310698340007], [-89.87719456110594, 38.577759468272795], [-89.88273163574308, 38.582411717678575], [-89.88826942353593, 38.58706373148541], [-89.89380792466403, 38.591715509561276], [-89.89934713930707, 38.59636705177409], [-89.90508047722643, 38.59651895818466], [-89.91081385831642, 38.59667058421835], [-89.91654728249756, 38.596821929868824], [-89.92228074969049, 38.59697299512966], [-89.92801425981584, 38.59712377999449], [-89.93374781279411, 38.597274284457015], [-89.93948140854593, 38.5974245085108], [-89.94521504699188, 38.5975744521496], [-89.95094872805251, 38.59772411536704], [-89.95668245164843, 38.59787349815684], [-89.96241621770018, 38.59802260051268], [-89.96815002612831, 38.59817142242828], [-89.9738838768534, 38.59831996389739], [-89.97961776979602, 38.59846822491371], [-89.98535170487666, 38.59861620547102], [-89.99108568201598, 38.59876390556306], [-89.99681970113441, 38.59891132518362], [-90.00255376215256, 38.59905846432648], [-90.00828786499093, 38.59920532298544], [-90.01402200957008, 38.5993519011543], [-90.01975619581054, 38.599498198826886], [-90.02549042363282, 38.599644215997024], [-90.03122469295744, 38.59978995265856], [-90.03695900370492, 38.599935408805365], [-90.0426933557958, 38.60008058443128], [-90.04842774915056, 38.600225479530216], [-90.05416218368977, 38.60037009409603], [-90.05989665933384, 38.60051442812264], [-90.06563117600335, 38.600658481603965], [-90.07136573361876, 38.60080225453393], [-90.07710033210058, 38.60094574690646], [-90.0828349713693, 38.601088958715515], [-90.08856965134538, 38.60123188995506], [-90.0941227455516, 38.605874717602354], [-90.09967655430022, 38.61051730605643], [-90.10523107776994, 38.61515965518486], [-90.11078631613944, 38.61980176485522], [-90.11652262799952, 38.61994338379215], [-90.1220789793104, 38.62458499570804], [-90.12781572923257, 38.62472607564535], [-90.13337319363258, 38.629367189437694], [-90.13911038141684, 38.62950773017495], [-90.14484760917111, 38.62964799001386], [-90.15058487681573, 38.629787968948484], [-90.156322184271, 38.62992766697294], [-90.16205953145733, 38.63006708408134], [-90.16779691829495, 38.630206220267794], [-90.17353434470424, 38.6303450755264], [-90.17927181060547, 38.63048364985134], [-90.185009315919, 38.63062194323676], [-90.1907468605651, 38.6307599556768], [-90.1964844444641, 38.63089768716567], [-90.2022220675363, 38.63103513769752], [-90.20795972970198, 38.63117230726659], [-90.21369743088145, 38.63130919586706], [-90.21943517099498, 38.631445803493165], [-90.22517294996291, 38.63158213013913], [-90.2309107677055, 38.63171817579922], [-90.2364756999938, 38.63635464897752], [-90.2420413482591, 38.64099088040321], [-90.24760771267954, 38.645626869943555], [-90.25317479343335, 38.65026261746583], [-90.25874259069872, 38.654898122837295], [-90.26431110465388, 38.659533385925144], [-90.26988033547711, 38.664168406596616], [-90.27545028334664, 38.66880318471887], [-90.28102094844074, 38.67343772015905], [-90.28659233093768, 38.67807201278429], [-90.29216443101578, 38.68270606246168], [-90.29773724885335, 38.68733986905835], [-90.30331078462868, 38.69197343244128], [-90.30888503852013, 38.69660675247757], [-90.31446001070607, 38.70123982903419], [-90.32003570136486, 38.70587266197814], [-90.32561211067481, 38.710505251176386], [-90.33118923881437, 38.715137596495865], [-90.3367670859619, 38.719769697803464], [-90.34234565229588, 38.724401554966114], [-90.34792493799469, 38.72903316785066], [-90.35350494323681, 38.73366453632395], [-90.35908566820065, 38.73829566025279], [-90.36466711306467, 38.742926539503976], [-90.37024927800739, 38.74755717394432]]}}, {"type": "Feature", "properties": {"route_run_id": "stl_midamerica_to_st_louis_lambert_2026-01-10_0209", "route_pair": "midamerica_to_st_louis_lambert", "route_pair_label": "MidAmerica to St. Louis Lambert", "origin_label": "MidAmerica St. Louis Airport", "destination_label": "St. Louis Lambert International Airport", "origin_lat": 38.5451731, "origin_lon": -89.8351856, "destination_lat": 38.7486982, "destination_lon": -90.3700257, "traffic_date": "2026-01-10", "traffic_dataset": "January 10th - Saturday", "weight_id": "w_0209", "distance_weight": 0.4, "population_weight": 0.0, "traffic_weight": 0.5, "airspace_weight": 0.1, "path_nodes": 96, "path_node_ids": [8877, 8879, 8896, 8900, 8924, 8930, 10012, 10015, 10019, 10053, 10057, 10060, 10092, 10076, 10080, 10105, 10109, 10291, 10512, 10290, 10513, 10298, 10295, 10296, 10297, 10307, 10305, 10306, 10319, 10345, 10344, 10342, 10355, 10353, 10356, 10357, 10336, 10338, 10385, 10388, 2577, 2601, 2606, 2607, 10720, 10762, 10765, 10750, 10776, 10778, 10803, 4168, 4170, 4172, 4171, 4160, 4385, 4391, 4392, 4414, 4413, 4425, 4412, 4339, 4340, 4341, 4331, 4333, 4358, 4360, 4353, 4351, 4350, 4352, 4253, 4251, 4250, 4252, 4257, 4256, 4258, 4266, 4265, 4244, 4243, 5336, 5338, 5341, 5366, 5353, 5377, 5379, 5376, 5588, 5362, 5364], "elapsed_seconds": 0.041297299991128966, "status": "success", "failure_reason": "", "route_distance_km": 72.4722063486134, "distance_cost_sum": 79.76034980964404, "population_cost_sum": 30.0483365331939, "traffic_cost_sum": 13.285239543639669, "airspace_cost_sum": 52.00000000000003, "total_weighted_score": 43.746759695677454, "clustering_method": "hierarchical_jaccard", "distance_method": "jaccard", "direct_cluster_number": 11, "hierarchical_jaccard_cluster": "hier_jaccard_011", "hierarchical_jaccard_cluster_source": "hier_jaccard_020", "representative_route_run_id": "stl_midamerica_to_st_louis_lambert_2026-01-10_0209", "representative_mean_frechet_miles": 0.3555188199818289, "cluster_size": 8, "cluster_weight_space_percent": 4.968944099378882, "merged_cluster_id": "frechet_merged_006", "source_jaccard_clusters": "hier_jaccard_011"}, "geometry": {"type": "LineString", "coordinates": [[-89.83272609742262, 38.54503213945896], [-89.83825778508921, 38.54968628939868], [-89.84379018463301, 38.55434020475587], [-89.84932329623358, 38.558993885398685], [-89.85485712007056, 38.56364733119524], [-89.86039165632353, 38.56830054201366], [-89.86592690517212, 38.57295351772198], [-89.871462866796, 38.577606258188254], [-89.87699954137483, 38.582258763280514], [-89.88253692908823, 38.586911032866766], [-89.88807503011597, 38.59156306681497], [-89.8936138446377, 38.59621486499309], [-89.89915337283315, 38.600866427269025], [-89.90469361488212, 38.60551775351072], [-89.91023457096428, 38.610168843586045], [-89.91577624125941, 38.61481969736282], [-89.92131862594731, 38.619470314708934], [-89.92705392153653, 38.61962122026898], [-89.93278926003055, 38.619771845202735], [-89.93852464134986, 38.619922189503846], [-89.9442600654149, 38.62007225316597], [-89.94999553214618, 38.62022203618278], [-89.95573104146416, 38.620371538547964], [-89.96146659328937, 38.6205207602552], [-89.96720218754218, 38.620669701298226], [-89.97293782414316, 38.62081836167072], [-89.97867350301271, 38.62096674136646], [-89.98440922407127, 38.621114840379136], [-89.99014498723932, 38.62126265870254], [-89.9956928848873, 38.625909957833684], [-90.00142908950032, 38.62605723832518], [-90.00716533599429, 38.6262042380639], [-90.01290162428964, 38.62635095704363], [-90.01863795430678, 38.62649739525821], [-90.02418816427785, 38.631143427354814], [-90.02992493509446, 38.631289327364605], [-90.03566174740413, 38.6314349465459], [-90.04121347091932, 38.63608022522354], [-90.04676590991285, 38.64072526526764], [-90.05231906456409, 38.64537006654579], [-90.05787293505232, 38.6500146289255], [-90.06342752155686, 38.65465895227427], [-90.06898282425709, 38.65930303645963], [-90.07453884333233, 38.663946881349034], [-90.08009557896197, 38.668590486809904], [-90.08565303132539, 38.67323385270967], [-90.09121120060205, 38.67787697891571], [-90.09677008697126, 38.68251986529543], [-90.10232969061249, 38.68716251171613], [-90.10789001170522, 38.691804918045165], [-90.11345105042888, 38.69644708414981], [-90.11901280696291, 38.70108900989735], [-90.1245752814869, 38.70573069515504], [-90.13031852220197, 38.70587190028737], [-90.13606180313201, 38.7060128237638], [-90.14180512419694, 38.7061534655784], [-90.14736951474222, 38.71079413271027], [-90.15293462369478, 38.715434558807445], [-90.15850045123396, 38.720074743737044], [-90.16424500984216, 38.720214325795986], [-90.16998960821417, 38.72035362602857], [-90.17573424626995, 38.7204926444289], [-90.18147892392946, 38.720631380991115], [-90.18722364111258, 38.720769835709326], [-90.19296839773925, 38.72090800857769], [-90.19871319372936, 38.72104589959038], [-90.2044580290029, 38.72118350874153], [-90.21020290347968, 38.72132083602537], [-90.21577304006003, 38.72595844188451], [-90.22134389575808, 38.730595805472426], [-90.22708960651028, 38.73073233077739], [-90.2328353561642, 38.73086857410187], [-90.23858114463975, 38.731004535440086], [-90.24432697185681, 38.7311402147863], [-90.25007283773516, 38.73127561213477], [-90.25581874219465, 38.73141072747979], [-90.26156468515516, 38.73154556081561], [-90.26731066653653, 38.73168011213655], [-90.27305668625854, 38.73181438143693], [-90.27880274424109, 38.73194836871106], [-90.28454884040397, 38.73208207395327], [-90.29029497466699, 38.7322154971579], [-90.29604114694997, 38.73234863831933], [-90.30178735717278, 38.73248149743191], [-90.30753360525517, 38.73261407449003], [-90.31327989111702, 38.732746369488076], [-90.31902621467803, 38.73287838242046], [-90.32460455631471, 38.7375110734335], [-90.33018361774292, 38.74214352032707], [-90.33576339914136, 38.74677572296801], [-90.34134390068866, 38.75140768122309], [-90.34709185157405, 38.75153836730899], [-90.35283983971358, 38.7516687711157], [-90.35858786502698, 38.75179889263772], [-90.36450153875144, 38.7474276377232], [-90.37024927800739, 38.74755717394432]]}}, {"type": "Feature", "properties": {"route_run_id": "stl_midamerica_to_st_louis_lambert_2026-01-10_0112", "route_pair": "midamerica_to_st_louis_lambert", "route_pair_label": "MidAmerica to St. Louis Lambert", "origin_label": "MidAmerica St. Louis Airport", "destination_label": "St. Louis Lambert International Airport", "origin_lat": 38.5451731, "origin_lon": -89.8351856, "destination_lat": 38.7486982, "destination_lon": -90.3700257, "traffic_date": "2026-01-10", "traffic_dataset": "January 10th - Saturday", "weight_id": "w_0112", "distance_weight": 0.1, "population_weight": 0.6, "traffic_weight": 0.0, "airspace_weight": 0.3, "path_nodes": 119, "path_node_ids": [8877, 8880, 8902, 8917, 8943, 8947, 8951, 9043, 9047, 9051, 9252, 9279, 9280, 9292, 9316, 9320, 9447, 9470, 9473, 9498, 9488, 9466, 9467, 9489, 9480, 9481, 9485, 9487, 10502, 10504, 10508, 10823, 10833, 10832, 10501, 10817, 10815, 10816, 10814, 10597, 10598, 10599, 10596, 10591, 10602, 10603, 10604, 10913, 10914, 10580, 10399, 10392, 10369, 10370, 10381, 10380, 10379, 10614, 10407, 10410, 10411, 10408, 2604, 2605, 2606, 2603, 10715, 10714, 10713, 10722, 2597, 10723, 2596, 2876, 2875, 2874, 2873, 2885, 2886, 2884, 2883, 2893, 4095, 4096, 3932, 3933, 3958, 3962, 3967, 3954, 3953, 3966, 3944, 3977, 3976, 3941, 4043, 4066, 4067, 4068, 4185, 4187, 4188, 4076, 4075, 4082, 4084, 5080, 5084, 5310, 5311, 5337, 5320, 5322, 5323, 5346, 5357, 5358, 5364], "elapsed_seconds": 0.05540720000863075, "status": "success", "failure_reason": "", "route_distance_km": 90.0929044869205, "distance_cost_sum": 99.15306762812693, "population_cost_sum": 12.288917930016117, "traffic_cost_sum": 39.50515006038042, "airspace_cost_sum": 50.4, "total_weighted_score": 32.40865752082237, "clustering_method": "hierarchical_jaccard", "distance_method": "jaccard", "direct_cluster_number": 12, "hierarchical_jaccard_cluster": "hier_jaccard_012", "hierarchical_jaccard_cluster_source": "hier_jaccard_010", "representative_route_run_id": "stl_midamerica_to_st_louis_lambert_2026-01-10_0112", "representative_mean_frechet_miles": 1.7336231820962498, "cluster_size": 7, "cluster_weight_space_percent": 4.3478260869565215, "merged_cluster_id": "frechet_merged_007", "source_jaccard_clusters": "hier_jaccard_012"}, "geometry": {"type": "LineString", "coordinates": [[-89.83272609742262, 38.54503213945896], [-89.82679932841316, 38.54937596534434], [-89.82087184756911, 38.5537194572955], [-89.81494365475342, 38.55806261517538], [-89.80901474982912, 38.56240543884689], [-89.80308513265928, 38.5667479281729], [-89.79715480310698, 38.57109008301633], [-89.79122376103525, 38.57543190324002], [-89.78529200630723, 38.57977338870683], [-89.77935953878595, 38.584114539279575], [-89.77342635833462, 38.58845535482108], [-89.76749246481631, 38.592795835194096], [-89.77302317248059, 38.59745301778382], [-89.77855459352905, 38.60210996638523], [-89.78408672814213, 38.60676668086644], [-89.78961957650024, 38.61142316109546], [-89.7951531387839, 38.616079406940315], [-89.80068741517351, 38.62073541826901], [-89.80622240584958, 38.62539119494952], [-89.81175811099261, 38.63004673684979], [-89.81749364791803, 38.630203048093044], [-89.82322922929045, 38.630359078698575], [-89.82896485503045, 38.63051482865979], [-89.8347005250585, 38.63067029797015], [-89.8404362392951, 38.630825486623074], [-89.84617199766075, 38.63098039461205], [-89.85171082737938, 38.63563416678366], [-89.85725037205434, 38.6402877033523], [-89.86279063186602, 38.64494100418581], [-89.86833160699481, 38.649594069151966], [-89.87387329762107, 38.65424689811857], [-89.87941570392526, 38.65889949095339], [-89.8851539151411, 38.659052580980976], [-89.89089216991299, 38.65920539002373], [-89.89663046816118, 38.65935791807517], [-89.9023688098061, 38.65951016512888], [-89.90810719476802, 38.659662131178436], [-89.91384562296734, 38.65981381621741], [-89.91958409432429, 38.65996522023942], [-89.92532260875927, 38.66011634323806], [-89.93106116619256, 38.660267185206955], [-89.93679976654445, 38.66041774613974], [-89.94253840973533, 38.66056802603007], [-89.94827709568544, 38.660718024871585], [-89.95401582431515, 38.66086774265796], [-89.95975459554465, 38.6610171793829], [-89.96549340929431, 38.661166335040065], [-89.97123226548442, 38.66131520962318], [-89.97697116403525, 38.66146380312594], [-89.98289906455885, 38.6571124353027], [-89.98882624900955, 38.65276073478186], [-89.99475271752624, 38.64840870170082], [-90.00067847024802, 38.64405633619701], [-90.00641614743708, 38.64420343004679], [-90.01215386646798, 38.64435024295822], [-90.0178916272611, 38.64449677492512], [-90.02362942973669, 38.64464302594129], [-90.0291813036891, 38.64928887709267], [-90.03473389355781, 38.653934489678136], [-90.04028719952224, 38.658579863565194], [-90.04602624200047, 38.65872506038847], [-90.05176532579277, 38.658869976095644], [-90.05750445081951, 38.65901461068064], [-90.06324361700084, 38.65915896413734], [-90.06898282425709, 38.65930303645963], [-90.07472207250845, 38.65944682764147], [-90.08046136167522, 38.65959033767675], [-90.0862006916776, 38.659733566559446], [-90.09194006243584, 38.659876514283475], [-90.09767947387014, 38.66001918084284], [-90.10341892590075, 38.66016156623149], [-90.1091584184479, 38.66030367044341], [-90.11489795143179, 38.66044549347263], [-90.12063752477266, 38.66058703531315], [-90.1263771383907, 38.66072829595899], [-90.1321167922061, 38.660869275404174], [-90.13785648613919, 38.66100997364278], [-90.14359622011, 38.661150390668844], [-90.14933599403881, 38.66129052647644], [-90.15507580784583, 38.66143038105964], [-90.16081566145125, 38.66156995441258], [-90.16637805865126, 38.66620966221335], [-90.17194117271791, 38.67084912909773], [-90.17750500383, 38.67548835493302], [-90.18306955216653, 38.68012733958649], [-90.18863481790633, 38.68476608292537], [-90.19420080122836, 38.68940458481685], [-90.19976750231159, 38.694042845128145], [-90.20551018229601, 38.69418032229077], [-90.21142776429718, 38.68981695033316], [-90.2171701635404, 38.68995384239636], [-90.2229126017605, 38.690090452895454], [-90.22865507887754, 38.69022678182468], [-90.23439759481155, 38.69036282917826], [-90.24014014948251, 38.69049859495047], [-90.24605541323987, 38.68613337677085], [-90.2517976862147, 38.68626855773688], [-90.25736804511756, 38.69090420272148], [-90.26311075393669, 38.69103884211091], [-90.26868222818311, 38.695673984376505], [-90.27425442059507, 38.700308883813186], [-90.27999796237877, 38.700442721166475], [-90.28557127047641, 38.70507711728869], [-90.29148516021279, 38.700709550716724], [-90.297228816103, 38.700842542902386], [-90.30280331580018, 38.70547615766316], [-90.30837853409372, 38.710109528957155], [-90.31395447116216, 38.71474265665128], [-90.31378588266769, 38.71924359100243], [-90.31936286061908, 38.72387649197406], [-90.32494055786266, 38.72850914903958], [-90.330518974577, 38.7331415620659], [-90.33626541075455, 38.733272728767844], [-90.3420118843105, 38.73340361338185], [-90.34775839516463, 38.73353421590239], [-90.35333872308522, 38.73816560113835], [-90.35908566820065, 38.73829566025279], [-90.36466711306467, 38.742926539503976], [-90.37024927800739, 38.74755717394432]]}}]}