{"type": "FeatureCollection", "features": [{"type": "Feature", "properties": {"route_run_id": "stl_midamerica_to_st_louis_union_station_2026-01-10_0070", "route_pair": "midamerica_to_st_louis_union_station", "route_pair_label": "MidAmerica to St. Louis Union Station", "origin_label": "MidAmerica St. Louis Airport", "destination_label": "St. Louis Union Station", "origin_lat": 38.5451731, "origin_lon": -89.8351856, "destination_lat": 38.629167, "destination_lon": -90.2075, "traffic_date": "2026-01-10", "traffic_dataset": "January 10th - Saturday", "weight_id": "w_0070", "distance_weight": 0.1, "population_weight": 0.0, "traffic_weight": 0.3, "airspace_weight": 0.6, "path_nodes": 67, "path_node_ids": [8877, 8879, 8896, 8900, 8924, 8930, 10012, 10015, 10019, 10053, 10057, 10060, 10092, 10076, 10080, 10105, 10109, 10291, 10512, 10286, 10289, 10294, 10281, 10292, 10293, 10304, 10303, 10302, 10315, 10316, 10317, 10314, 10207, 10206, 10204, 10205, 10323, 10324, 10322, 10325, 2520, 2521, 2519, 2510, 2512, 2515, 2516, 2305, 2306, 2301, 2303, 2491, 2497, 2818, 2496, 2507, 2506, 2828, 2505, 2809, 2811, 2810, 2728, 2730, 2406, 2404, 2715], "elapsed_seconds": 0.04350749999866821, "status": "success", "failure_reason": "", "route_distance_km": 48.288224159333815, "distance_cost_sum": 53.14431345043024, "population_cost_sum": 20.73504662085314, "traffic_cost_sum": 13.985592259123923, "airspace_cost_sum": 23.2, "total_weighted_score": 23.430109022780208, "clustering_method": "hierarchical_jaccard", "distance_method": "jaccard", "direct_cluster_number": 1, "hierarchical_jaccard_cluster": "hier_jaccard_001", "hierarchical_jaccard_cluster_source": "hier_jaccard_001", "representative_route_run_id": "stl_midamerica_to_st_louis_union_station_2026-01-10_0070", "representative_mean_frechet_miles": 0.8657931451465466, "cluster_size": 126, "cluster_weight_space_percent": 80.76923076923077, "merged_cluster_id": "frechet_merged_001", "source_jaccard_clusters": "hier_jaccard_001, hier_jaccard_006, hier_jaccard_007"}, "geometry": {"type": "LineString", "coordinates": [[-89.83272609742262, 38.54503213945896], [-89.83825778508921, 38.54968628939868], [-89.84379018463301, 38.55434020475587], [-89.84932329623358, 38.558993885398685], [-89.85485712007056, 38.56364733119524], [-89.86039165632353, 38.56830054201366], [-89.86592690517212, 38.57295351772198], [-89.871462866796, 38.577606258188254], [-89.87699954137483, 38.582258763280514], [-89.88253692908823, 38.586911032866766], [-89.88807503011597, 38.59156306681497], [-89.8936138446377, 38.59621486499309], [-89.89915337283315, 38.600866427269025], [-89.90469361488212, 38.60551775351072], [-89.91023457096428, 38.610168843586045], [-89.91577624125941, 38.61481969736282], [-89.92131862594731, 38.619470314708934], [-89.92705392153653, 38.61962122026898], [-89.93278926003055, 38.619771845202735], [-89.93871608023923, 38.61542266184741], [-89.94445114702152, 38.615572701498955], [-89.95018625645967, 38.61572246055001], [-89.9559214084743, 38.61587193899423], [-89.9616566029858, 38.61602113682532], [-89.96739183991471, 38.61617005403699], [-89.97312711918148, 38.61631869062297], [-89.97886244070665, 38.616467046576965], [-89.9845978044106, 38.61661512189275], [-89.9903332102139, 38.61676291656407], [-89.99606865803695, 38.61691043058469], [-90.00180414780024, 38.61705766394838], [-90.00753967942423, 38.617204616648934], [-90.01327525282936, 38.61735128868017], [-90.01901086793612, 38.61749768003589], [-90.02474652466493, 38.617643790709906], [-90.03048222293627, 38.617789620696094], [-90.03621796267052, 38.617935169988264], [-90.0419537437882, 38.61808043858029], [-90.04768956620967, 38.61822542646607], [-90.05342542985542, 38.61837013363945], [-90.05916133464585, 38.61851456009435], [-90.06489728050143, 38.618658705824664], [-90.07063326734246, 38.618802570824315], [-90.07636929508949, 38.61894615508724], [-90.08210536366288, 38.61908945860739], [-90.08765932674906, 38.623732618744384], [-90.09339583428118, 38.623875383605984], [-90.09913238241074, 38.624017867661856], [-90.10486897105802, 38.624160070905994], [-90.11078631613944, 38.61980176485522], [-90.11652262799952, 38.61994338379215], [-90.1220789793104, 38.62458499570804], [-90.12763604589804, 38.629226367808045], [-90.13337319363258, 38.629367189437694], [-90.13911038141684, 38.62950773017495], [-90.14484760917111, 38.62964799001386], [-90.15058487681573, 38.629787968948484], [-90.156322184271, 38.62992766697294], [-90.16205953145733, 38.63006708408134], [-90.16779691829495, 38.630206220267794], [-90.17353434470424, 38.6303450755264], [-90.17927181060547, 38.63048364985134], [-90.185009315919, 38.63062194323676], [-90.1907468605651, 38.6307599556768], [-90.19665983485031, 38.626397127556444], [-90.20239710011477, 38.62653455609276], [-90.20795972970198, 38.63117230726659]]}}, {"type": "Feature", "properties": {"route_run_id": "stl_midamerica_to_st_louis_union_station_2026-01-10_0242", "route_pair": "midamerica_to_st_louis_union_station", "route_pair_label": "MidAmerica to St. Louis Union Station", "origin_label": "MidAmerica St. Louis Airport", "destination_label": "St. Louis Union Station", "origin_lat": 38.5451731, "origin_lon": -89.8351856, "destination_lat": 38.629167, "destination_lon": -90.2075, "traffic_date": "2026-01-10", "traffic_dataset": "January 10th - Saturday", "weight_id": "w_0242", "distance_weight": 0.5, "population_weight": 0.1, "traffic_weight": 0.4, "airspace_weight": 0.0, "path_nodes": 67, "path_node_ids": [8877, 8876, 8868, 8869, 8870, 8867, 9753, 9754, 9755, 9744, 9746, 9747, 9745, 9737, 9736, 9734, 9735, 9919, 9916, 9918, 9917, 9935, 9934, 9936, 9926, 9927, 9924, 9925, 9835, 9837, 9836, 9838, 9855, 9853, 9854, 9852, 9850, 9851, 9863, 9862, 1962, 1961, 1960, 1968, 1969, 1971, 1970, 1978, 1980, 1981, 1979, 2159, 2166, 2188, 2192, 2418, 2422, 2425, 2423, 2448, 2452, 2454, 2372, 2399, 2401, 2404, 2715], "elapsed_seconds": 0.017015199991874397, "status": "success", "failure_reason": "", "route_distance_km": 46.66127985787609, "distance_cost_sum": 51.353756033413525, "population_cost_sum": 19.148571706004937, "traffic_cost_sum": 14.165346231241386, "airspace_cost_sum": 38.0, "total_weighted_score": 33.257873679803815, "clustering_method": "hierarchical_jaccard", "distance_method": "jaccard", "direct_cluster_number": 8, "hierarchical_jaccard_cluster": "hier_jaccard_008", "hierarchical_jaccard_cluster_source": "hier_jaccard_007", "representative_route_run_id": "stl_midamerica_to_st_louis_union_station_2026-01-10_0242", "representative_mean_frechet_miles": 0.5072687965076583, "cluster_size": 14, "cluster_weight_space_percent": 8.974358974358974, "merged_cluster_id": "frechet_merged_002", "source_jaccard_clusters": "hier_jaccard_008"}, "geometry": {"type": "LineString", "coordinates": [[-89.83272609742262, 38.54503213945896], [-89.83845499191484, 38.54518713674757], [-89.84418393041321, 38.54534185422887], [-89.8499129128385, 38.54549629189633], [-89.85564193911159, 38.545650449743434], [-89.86137100915332, 38.54580432776372], [-89.86710012288452, 38.545957925950695], [-89.87282928022606, 38.546111244297876], [-89.8785584810987, 38.54626428279884], [-89.88428772542336, 38.54641704144712], [-89.8900170131208, 38.5465695202363], [-89.89574634411186, 38.54672171915994], [-89.90147571831739, 38.546873638211636], [-89.90720513565815, 38.54702527738502], [-89.91293459605497, 38.54717663667367], [-89.91866409942871, 38.54732771607122], [-89.92439364570006, 38.54747851557132], [-89.9301232347899, 38.54762903516762], [-89.93585286661902, 38.54777927485379], [-89.94158254110822, 38.54792923462347], [-89.94731225817821, 38.548078914470366], [-89.95304201774988, 38.54822831438818], [-89.95877181974393, 38.548377434370614], [-89.96450166408115, 38.54852627441138], [-89.97023155068236, 38.54867483450422], [-89.9759614794683, 38.54882311464288], [-89.9816914503597, 38.548971114821086], [-89.98742146327739, 38.54911883503266], [-89.99315151814207, 38.549266275271336], [-89.99888161487452, 38.549413435530916], [-90.0046117533955, 38.549560315805195], [-90.01015540846471, 38.55420679242369], [-90.0156997760314, 38.558853031674964], [-90.02143075196999, 38.55899911872885], [-90.0271617694001, 38.55914492568329], [-90.03289282824241, 38.5592904525321], [-90.0386239284176, 38.5594356992692], [-90.04435506984643, 38.55958066588843], [-90.0500862524495, 38.5597253523837], [-90.05581747614751, 38.55986975874894], [-90.06154874086116, 38.56001388497803], [-90.0672800465111, 38.56015773106491], [-90.073011393018, 38.560301297003505], [-90.07874278030255, 38.56044458278779], [-90.08447420828541, 38.56058758841172], [-90.09020567688721, 38.56073031386926], [-90.09593718602859, 38.5608727591544], [-90.10166873563026, 38.56101492426115], [-90.10740032561284, 38.561156809183515], [-90.11313195589696, 38.5612984139155], [-90.11886362640328, 38.561439738451156], [-90.12441585794114, 38.56608111085856], [-90.12996880268844, 38.57072224396472], [-90.13552246082332, 38.57536313763731], [-90.14107683252396, 38.580003791744], [-90.14663191796852, 38.58464420615243], [-90.15218771733517, 38.589284380730234], [-90.15774423080212, 38.593924315345014], [-90.16347871828971, 38.59406355405304], [-90.1690363428032, 38.598702990254786], [-90.17459468179258, 38.60334218613583], [-90.18015373543601, 38.6079811415637], [-90.18571350391167, 38.61261985640587], [-90.19127398739786, 38.61725833052981], [-90.19683518607279, 38.62189656380297], [-90.20239710011477, 38.62653455609276], [-90.20795972970198, 38.63117230726659]]}}, {"type": "Feature", "properties": {"route_run_id": "stl_midamerica_to_st_louis_union_station_2026-01-10_0267", "route_pair": "midamerica_to_st_louis_union_station", "route_pair_label": "MidAmerica to St. Louis Union Station", "origin_label": "MidAmerica St. Louis Airport", "destination_label": "St. Louis Union Station", "origin_lat": 38.5451731, "origin_lon": -89.8351856, "destination_lat": 38.629167, "destination_lon": -90.2075, "traffic_date": "2026-01-10", "traffic_dataset": "January 10th - Saturday", "weight_id": "w_0267", "distance_weight": 0.6, "population_weight": 0.4, "traffic_weight": 0.0, "airspace_weight": 0.0, "path_nodes": 67, "path_node_ids": [8877, 8876, 8868, 8869, 8870, 8867, 9753, 9754, 9755, 9744, 9746, 9747, 9745, 9737, 9736, 9734, 9735, 9919, 9921, 9944, 9947, 9940, 9941, 9962, 9955, 9957, 9959, 9994, 9885, 9886, 9884, 9887, 9897, 9895, 9896, 9894, 9902, 9903, 9904, 9909, 2213, 2212, 2214, 1997, 1994, 1995, 1996, 2005, 2004, 2007, 2006, 2191, 2194, 2193, 2192, 2418, 2422, 2425, 2427, 2453, 2455, 2454, 2372, 2399, 2401, 2404, 2715], "elapsed_seconds": 0.012483800004702061, "status": "success", "failure_reason": "", "route_distance_km": 46.66599661404935, "distance_cost_sum": 51.35894712861125, "population_cost_sum": 17.364166724554934, "traffic_cost_sum": 15.970011865514557, "airspace_cost_sum": 38.0, "total_weighted_score": 37.76103496698872, "clustering_method": "hierarchical_jaccard", "distance_method": "jaccard", "direct_cluster_number": 9, "hierarchical_jaccard_cluster": "hier_jaccard_009", "hierarchical_jaccard_cluster_source": "hier_jaccard_009", "representative_route_run_id": "stl_midamerica_to_st_louis_union_station_2026-01-10_0267", "representative_mean_frechet_miles": 0.4155656314381902, "cluster_size": 12, "cluster_weight_space_percent": 7.6923076923076925, "merged_cluster_id": "frechet_merged_003", "source_jaccard_clusters": "hier_jaccard_009"}, "geometry": {"type": "LineString", "coordinates": [[-89.83272609742262, 38.54503213945896], [-89.83845499191484, 38.54518713674757], [-89.84418393041321, 38.54534185422887], [-89.8499129128385, 38.54549629189633], [-89.85564193911159, 38.545650449743434], [-89.86137100915332, 38.54580432776372], [-89.86710012288452, 38.545957925950695], [-89.87282928022606, 38.546111244297876], [-89.8785584810987, 38.54626428279884], [-89.88428772542336, 38.54641704144712], [-89.8900170131208, 38.5465695202363], [-89.89574634411186, 38.54672171915994], [-89.90147571831739, 38.546873638211636], [-89.90720513565815, 38.54702527738502], [-89.91293459605497, 38.54717663667367], [-89.91866409942871, 38.54732771607122], [-89.92439364570006, 38.54747851557132], [-89.9301232347899, 38.54762903516762], [-89.93566171159593, 38.55227884253414], [-89.94120090063481, 38.55692841373979], [-89.94693132996858, 38.557078141522354], [-89.9526618018245, 38.55722758928637], [-89.95839231612332, 38.55737675702556], [-89.9641228727858, 38.55752564473363], [-89.96985347173262, 38.5576742524043], [-89.97539536640897, 38.56232230635172], [-89.98093797377864, 38.566970123410094], [-89.98648129402048, 38.57161770344731], [-89.99221313054706, 38.571765261757655], [-89.99794500899198, 38.571912539865146], [-90.00367692927587, 38.5720595377636], [-90.00940889131944, 38.572206255446844], [-90.01514089504332, 38.57235269290866], [-90.02087294036811, 38.5724988501429], [-90.02660502721452, 38.572644727143405], [-90.03233715550313, 38.57279032390402], [-90.0380693251546, 38.572935640418635], [-90.04380153608955, 38.57308067668109], [-90.04953378822863, 38.57322543268529], [-90.05508220119658, 38.57786994989744], [-90.06081489219632, 38.57801416845261], [-90.06654762417196, 38.57815810668649], [-90.072280397044, 38.57830176459299], [-90.07801321073313, 38.57844514216606], [-90.0837460651599, 38.578588239399664], [-90.08947896024489, 38.57873105628777], [-90.09521189590866, 38.57887359282438], [-90.10094487207182, 38.57901584900345], [-90.10667788865496, 38.579157824818985], [-90.11241094557855, 38.579299520265025], [-90.11814404276322, 38.57944093533558], [-90.12387718012955, 38.579582070024706], [-90.1296103575981, 38.57972292432643], [-90.13534357508938, 38.579863498234836], [-90.14107683252396, 38.580003791744], [-90.14663191796852, 38.58464420615243], [-90.15218771733517, 38.589284380730234], [-90.15774423080212, 38.593924315345014], [-90.16330145854758, 38.59856400986431], [-90.16885940074975, 38.60320346415569], [-90.17441805758689, 38.60784267808668], [-90.18015373543601, 38.6079811415637], [-90.18571350391167, 38.61261985640587], [-90.19127398739786, 38.61725833052981], [-90.19683518607279, 38.62189656380297], [-90.20239710011477, 38.62653455609276], [-90.20795972970198, 38.63117230726659]]}}, {"type": "Feature", "properties": {"route_run_id": "stl_midamerica_to_st_louis_union_station_2026-01-10_0198", "route_pair": "midamerica_to_st_louis_union_station", "route_pair_label": "MidAmerica to St. Louis Union Station", "origin_label": "MidAmerica St. Louis Airport", "destination_label": "St. Louis Union Station", "origin_lat": 38.5451731, "origin_lon": -89.8351856, "destination_lat": 38.629167, "destination_lon": -90.2075, "traffic_date": "2026-01-10", "traffic_dataset": "January 10th - Saturday", "weight_id": "w_0198", "distance_weight": 0.3, "population_weight": 0.5, "traffic_weight": 0.0, "airspace_weight": 0.2, "path_nodes": 71, "path_node_ids": [8877, 8881, 8905, 8906, 8933, 8929, 9143, 9146, 9173, 10020, 10063, 10068, 10070, 10095, 10099, 10422, 10101, 10106, 10104, 10110, 10109, 10516, 10515, 10514, 10517, 10522, 10299, 10300, 10301, 10309, 10308, 10533, 10363, 10350, 10351, 10366, 10376, 10374, 10379, 10614, 10407, 10410, 10411, 10408, 2604, 2605, 2606, 2603, 10715, 10714, 10713, 10722, 2597, 10723, 2596, 2876, 2875, 2874, 2873, 2885, 2879, 2857, 2851, 2861, 2862, 2863, 2763, 2762, 2737, 2732, 2715], "elapsed_seconds": 0.026356999995186925, "status": "success", "failure_reason": "", "route_distance_km": 51.93172241795522, "distance_cost_sum": 57.15421890633103, "population_cost_sum": 10.48185737943066, "traffic_cost_sum": 28.848925185660196, "airspace_cost_sum": 26.6, "total_weighted_score": 27.707194361614643, "clustering_method": "hierarchical_jaccard", "distance_method": "jaccard", "direct_cluster_number": 13, "hierarchical_jaccard_cluster": "hier_jaccard_013", "hierarchical_jaccard_cluster_source": "hier_jaccard_013", "representative_route_run_id": "stl_midamerica_to_st_louis_union_station_2026-01-10_0198", "representative_mean_frechet_miles": 0.3126661332678431, "cluster_size": 3, "cluster_weight_space_percent": 1.9230769230769231, "merged_cluster_id": "frechet_merged_004", "source_jaccard_clusters": "hier_jaccard_013"}, "geometry": {"type": "LineString", "coordinates": [[-89.83272609742262, 38.54503213945896], [-89.83252853470323, 38.54953126729425], [-89.83233092788802, 38.55403039080605], [-89.83786323937711, 38.55868458173916], [-89.83766590046945, 38.563183721427826], [-89.84319923632499, 38.56783769816219], [-89.84873328471264, 38.57249144006519], [-89.8542680458121, 38.5771449470049], [-89.85980351980317, 38.58179821884939], [-89.86533970686553, 38.58645125546666], [-89.87087660717904, 38.591104056724724], [-89.87641422092351, 38.59575662249155], [-89.88195254827868, 38.600408952635085], [-89.8874915894244, 38.605061047023284], [-89.88729702234833, 38.60956036516477], [-89.89283709113381, 38.614212243778354], [-89.89857181380691, 38.614364528005225], [-89.90430657977188, 38.61451653168253], [-89.91004138894921, 38.614668254803874], [-89.9155833733424, 38.61931912852895], [-89.92131862594731, 38.619470314708934], [-89.9268617252078, 38.624120695492145], [-89.93259742104341, 38.62427134452904], [-89.93833315971467, 38.6244217128885], [-89.94406894114202, 38.62457180056415], [-89.94980476524591, 38.62472160754967], [-89.95554063194687, 38.62487113383877], [-89.96127654116528, 38.62502037942509], [-89.96701249282155, 38.625169344302385], [-89.97274848683627, 38.62531802846435], [-89.97848452312972, 38.62546643190471], [-89.98403193705393, 38.63011426460664], [-89.98958006609531, 38.63476185964426], [-89.99531694389556, 38.63490946811138], [-90.00105386367663, 38.63505679574229], [-90.00660350731387, 38.63970363840778], [-90.01234086854143, 38.63985042783196], [-90.01807827152109, 38.63999693635645], [-90.02362942973669, 38.64464302594129], [-90.0291813036891, 38.64928887709267], [-90.03473389355781, 38.653934489678136], [-90.04028719952224, 38.658579863565194], [-90.04602624200047, 38.65872506038847], [-90.05176532579277, 38.658869976095644], [-90.05750445081951, 38.65901461068064], [-90.06324361700084, 38.65915896413734], [-90.06898282425709, 38.65930303645963], [-90.07472207250845, 38.65944682764147], [-90.08046136167522, 38.65959033767675], [-90.0862006916776, 38.659733566559446], [-90.09194006243584, 38.659876514283475], [-90.09767947387014, 38.66001918084284], [-90.10341892590075, 38.66016156623149], [-90.1091584184479, 38.66030367044341], [-90.11489795143179, 38.66044549347263], [-90.12063752477266, 38.66058703531315], [-90.1263771383907, 38.66072829595899], [-90.1321167922061, 38.660869275404174], [-90.13785648613919, 38.66100997364278], [-90.14359622011, 38.661150390668844], [-90.14951452542148, 38.65679017361872], [-90.15543211424334, 38.652429626431044], [-90.16134898671594, 38.648068749243166], [-90.16708780535298, 38.6482079745162], [-90.17282666359999, 38.64834691868183], [-90.17856556137721, 38.64848558173427], [-90.18448076196563, 38.64412346478601], [-90.19021938045634, 38.644261543498274], [-90.19613354616266, 38.639898793950096], [-90.20204699586435, 38.63553571516044], [-90.20795972970198, 38.63117230726659]]}}, {"type": "Feature", "properties": {"route_run_id": "stl_midamerica_to_st_louis_union_station_2026-01-10_0130", "route_pair": "midamerica_to_st_louis_union_station", "route_pair_label": "MidAmerica to St. Louis Union Station", "origin_label": "MidAmerica St. Louis Airport", "destination_label": "St. Louis Union Station", "origin_lat": 38.5451731, "origin_lon": -89.8351856, "destination_lat": 38.629167, "destination_lon": -90.2075, "traffic_date": "2026-01-10", "traffic_dataset": "January 10th - Saturday", "weight_id": "w_0130", "distance_weight": 0.2, "population_weight": 0.0, "traffic_weight": 0.8, "airspace_weight": 0.0, "path_nodes": 70, "path_node_ids": [8877, 8876, 8868, 8869, 8894, 8867, 7715, 7713, 7709, 9722, 9724, 9725, 9723, 9712, 9713, 9714, 9715, 7789, 7791, 7790, 7792, 7801, 7800, 7802, 7809, 7810, 7807, 7808, 9814, 9813, 9812, 9815, 7900, 7899, 7898, 7897, 7907, 7910, 7914, 9842, 1933, 1931, 1932, 1917, 1939, 1916, 1938, 1948, 1927, 1926, 1949, 2129, 2133, 2158, 2160, 2178, 2181, 2183, 2198, 2199, 2203, 2207, 2341, 2344, 2368, 2373, 2398, 2401, 2404, 2715], "elapsed_seconds": 0.03923540000687353, "status": "success", "failure_reason": "", "route_distance_km": 50.96847267006848, "distance_cost_sum": 56.09410026614602, "population_cost_sum": 26.453146906075276, "traffic_cost_sum": 11.697175815267581, "airspace_cost_sum": 38.6, "total_weighted_score": 20.57656070544327, "clustering_method": "hierarchical_jaccard", "distance_method": "jaccard", "direct_cluster_number": 16, "hierarchical_jaccard_cluster": "hier_jaccard_016", "hierarchical_jaccard_cluster_source": "hier_jaccard_016", "representative_route_run_id": "stl_midamerica_to_st_louis_union_station_2026-01-10_0130", "representative_mean_frechet_miles": 0.0, "cluster_size": 1, "cluster_weight_space_percent": 0.6410256410256411, "merged_cluster_id": "frechet_merged_005", "source_jaccard_clusters": "hier_jaccard_016"}, "geometry": {"type": "LineString", "coordinates": [[-89.83272609742262, 38.54503213945896], [-89.83845499191484, 38.54518713674757], [-89.84418393041321, 38.54534185422887], [-89.8499129128385, 38.54549629189633], [-89.85544580003071, 38.55014967657376], [-89.86137100915332, 38.54580432776372], [-89.86729550647239, 38.541458645586076], [-89.87321929212519, 38.537112630177866], [-89.8791423662489, 38.53276628167612], [-89.88487054311412, 38.532918966967756], [-89.8905987633207, 38.53307137253437], [-89.89632702678962, 38.533223498369566], [-89.90205533344168, 38.53337534446692], [-89.90778368319779, 38.533526910820015], [-89.91351207597882, 38.53367819742251], [-89.9192405117056, 38.533829204268], [-89.92496899029904, 38.53397993135017], [-89.93069751167991, 38.534130378662645], [-89.93642607576919, 38.53428054619909], [-89.94215468248761, 38.53443043395321], [-89.94788333175609, 38.53458004191867], [-89.95361202349538, 38.53472937008918], [-89.95934075762645, 38.53487841845845], [-89.96506953407003, 38.535027187020205], [-89.97079835274697, 38.53517567576819], [-89.97652721357814, 38.53532388469613], [-89.9822561164843, 38.53547181379781], [-89.98798506138628, 38.53561946306699], [-89.99371404820496, 38.53576683249744], [-89.99944307686107, 38.535913922083], [-90.00517214727547, 38.53606073181742], [-90.01090125936892, 38.536207261694564], [-90.01663041306229, 38.53635351170822], [-90.02235960827629, 38.53649948185227], [-90.02808884493179, 38.536645172120544], [-90.03381812294954, 38.53679058250691], [-90.0395474422503, 38.53693571300524], [-90.04509253846214, 38.541580592492814], [-90.05063834681579, 38.54622523417469], [-90.05618486748959, 38.55086963791876], [-90.06209869749397, 38.54651362820512], [-90.06782893423272, 38.54665740521145], [-90.07355921179885, 38.54680090220377], [-90.07928953011304, 38.54694411917603], [-90.08501988909612, 38.54708705612222], [-90.0907502886687, 38.547229713036316], [-90.09648072875154, 38.54737208991228], [-90.10221120926536, 38.547514186744145], [-90.10794173013085, 38.547656003525915], [-90.1136722912687, 38.54779754025161], [-90.11940289259964, 38.54793879691527], [-90.1249541750944, 38.5525801141104], [-90.13050617032245, 38.557221192122945], [-90.13605887846181, 38.56186203082064], [-90.14161229969046, 38.566502630071206], [-90.14716643418654, 38.57114298974233], [-90.15272128212803, 38.57578310970166], [-90.15827684369297, 38.58042298981685], [-90.16383311905943, 38.58506262995554], [-90.16956693197352, 38.58520154361737], [-90.17512431783956, 38.5898406853631], [-90.18068241788241, 38.5944795867747], [-90.18624123228014, 38.59911824771971], [-90.19180076121087, 38.60375666806568], [-90.19736100485268, 38.60839484768009], [-90.19718577106451, 38.612895423864465], [-90.20274704802898, 38.61753338045887], [-90.19683518607279, 38.62189656380297], [-90.20239710011477, 38.62653455609276], [-90.20795972970198, 38.63117230726659]]}}]}