{"type": "FeatureCollection", "features": [{"type": "Feature", "properties": {"route_run_id": "stl_midamerica_to_st_louis_union_station_2026-03-07_0238", "route_pair": "midamerica_to_st_louis_union_station", "route_pair_label": "MidAmerica to St. Louis Union Station", "origin_label": "MidAmerica St. Louis Airport", "destination_label": "St. Louis Union Station", "origin_lat": 38.5451731, "origin_lon": -89.8351856, "destination_lat": 38.629167, "destination_lon": -90.2075, "traffic_date": "2026-03-07", "traffic_dataset": "March 7th - Saturday", "weight_id": "w_0238", "distance_weight": 0.5, "population_weight": 0.1, "traffic_weight": 0.0, "airspace_weight": 0.4, "path_nodes": 67, "path_node_ids": [8877, 8879, 8896, 8900, 8924, 8930, 10012, 10015, 10019, 10053, 10057, 10054, 10061, 10051, 10049, 10072, 10079, 10284, 10288, 10286, 10289, 10294, 10281, 10292, 10293, 10304, 10303, 10302, 10315, 10316, 10317, 10314, 10207, 10206, 10204, 10205, 10323, 10324, 10322, 10325, 2520, 2521, 2519, 2510, 2512, 2513, 2511, 2302, 2300, 2301, 2307, 2491, 2492, 2818, 2496, 2507, 2506, 2828, 2505, 2809, 2811, 2810, 2728, 2730, 2731, 2729, 2715], "elapsed_seconds": 0.013311399961821735, "status": "success", "failure_reason": "", "route_distance_km": 46.68855540718086, "distance_cost_sum": 51.383774539312654, "population_cost_sum": 19.97466848935391, "traffic_cost_sum": 28.25929839669934, "airspace_cost_sum": 23.2, "total_weighted_score": 36.96935411859173, "clustering_method": "hierarchical_jaccard", "distance_method": "jaccard", "direct_cluster_number": 8, "hierarchical_jaccard_cluster": "hier_jaccard_008", "hierarchical_jaccard_cluster_source": "hier_jaccard_010", "representative_route_run_id": "stl_midamerica_to_st_louis_union_station_2026-03-07_0238", "representative_mean_frechet_miles": 1.1767306629191163, "cluster_size": 79, "cluster_weight_space_percent": 75.96153846153847, "merged_cluster_id": "frechet_merged_001", "source_jaccard_clusters": "hier_jaccard_002, hier_jaccard_004, hier_jaccard_008"}, "geometry": {"type": "LineString", "coordinates": [[-89.83272609742262, 38.54503213945896], [-89.83825778508921, 38.54968628939868], [-89.84379018463301, 38.55434020475587], [-89.84932329623358, 38.558993885398685], [-89.85485712007056, 38.56364733119524], [-89.86039165632353, 38.56830054201366], [-89.86592690517212, 38.57295351772198], [-89.871462866796, 38.577606258188254], [-89.87699954137483, 38.582258763280514], [-89.88253692908823, 38.586911032866766], [-89.88807503011597, 38.59156306681497], [-89.89380792466403, 38.591715509561276], [-89.89934713930707, 38.59636705177409], [-89.90508047722643, 38.59651895818466], [-89.91081385831642, 38.59667058421835], [-89.91635458673171, 38.60132137816604], [-89.92189602906302, 38.60597193580059], [-89.92743818549003, 38.61062225698987], [-89.93298105619242, 38.615272341601674], [-89.93871608023923, 38.61542266184741], [-89.94445114702152, 38.615572701498955], [-89.95018625645967, 38.61572246055001], [-89.9559214084743, 38.61587193899423], [-89.9616566029858, 38.61602113682532], [-89.96739183991471, 38.61617005403699], [-89.97312711918148, 38.61631869062297], [-89.97886244070665, 38.616467046576965], [-89.9845978044106, 38.61661512189275], [-89.9903332102139, 38.61676291656407], [-89.99606865803695, 38.61691043058469], [-90.00180414780024, 38.61705766394838], [-90.00753967942423, 38.617204616648934], [-90.01327525282936, 38.61735128868017], [-90.01901086793612, 38.61749768003589], [-90.02474652466493, 38.617643790709906], [-90.03048222293627, 38.617789620696094], [-90.03621796267052, 38.617935169988264], [-90.0419537437882, 38.61808043858029], [-90.04768956620967, 38.61822542646607], [-90.05342542985542, 38.61837013363945], [-90.05916133464585, 38.61851456009435], [-90.06489728050143, 38.618658705824664], [-90.07063326734246, 38.618802570824315], [-90.07636929508949, 38.61894615508724], [-90.08210536366288, 38.61908945860739], [-90.087841472983, 38.61923248137871], [-90.09357762297034, 38.61937522339516], [-90.09931381354528, 38.61951768465076], [-90.10505004462816, 38.61965986513943], [-90.11078631613944, 38.61980176485522], [-90.11634226958749, 38.624443634935055], [-90.1220789793104, 38.62458499570804], [-90.12781572923257, 38.62472607564535], [-90.13337319363258, 38.629367189437694], [-90.13911038141684, 38.62950773017495], [-90.14484760917111, 38.62964799001386], [-90.15058487681573, 38.629787968948484], [-90.156322184271, 38.62992766697294], [-90.16205953145733, 38.63006708408134], [-90.16779691829495, 38.630206220267794], [-90.17353434470424, 38.6303450755264], [-90.17927181060547, 38.63048364985134], [-90.185009315919, 38.63062194323676], [-90.1907468605651, 38.6307599556768], [-90.1964844444641, 38.63089768716567], [-90.2022220675363, 38.63103513769752], [-90.20795972970198, 38.63117230726659]]}}, {"type": "Feature", "properties": {"route_run_id": "stl_midamerica_to_st_louis_union_station_2026-03-07_0264", "route_pair": "midamerica_to_st_louis_union_station", "route_pair_label": "MidAmerica to St. Louis Union Station", "origin_label": "MidAmerica St. Louis Airport", "destination_label": "St. Louis Union Station", "origin_lat": 38.5451731, "origin_lon": -89.8351856, "destination_lat": 38.629167, "destination_lon": -90.2075, "traffic_date": "2026-03-07", "traffic_dataset": "March 7th - Saturday", "weight_id": "w_0264", "distance_weight": 0.6, "population_weight": 0.2, "traffic_weight": 0.2, "airspace_weight": 0.0, "path_nodes": 67, "path_node_ids": [8877, 8876, 8868, 8869, 8870, 8867, 9753, 9754, 9755, 9744, 9746, 9747, 9745, 9737, 9736, 9734, 9735, 9919, 9916, 9918, 9917, 9935, 9938, 9939, 9930, 9931, 9928, 9929, 9839, 9841, 9840, 9838, 9855, 9853, 9854, 9852, 9850, 9851, 9863, 9862, 1962, 1961, 1960, 1968, 1969, 1971, 1970, 1978, 1980, 1981, 1979, 2159, 2166, 2188, 2192, 2418, 2422, 2425, 2427, 2453, 2455, 2457, 2376, 2399, 2401, 2404, 2715], "elapsed_seconds": 0.012458999990485609, "status": "success", "failure_reason": "", "route_distance_km": 46.66182130627588, "distance_cost_sum": 51.354351932392525, "population_cost_sum": 19.048982943591955, "traffic_cost_sum": 16.410682473705606, "airspace_cost_sum": 38.0, "total_weighted_score": 37.90454424289503, "clustering_method": "hierarchical_jaccard", "distance_method": "jaccard", "direct_cluster_number": 7, "hierarchical_jaccard_cluster": "hier_jaccard_007", "hierarchical_jaccard_cluster_source": "hier_jaccard_008", "representative_route_run_id": "stl_midamerica_to_st_louis_union_station_2026-03-07_0264", "representative_mean_frechet_miles": 0.6744780981954958, "cluster_size": 18, "cluster_weight_space_percent": 17.307692307692307, "merged_cluster_id": "frechet_merged_002", "source_jaccard_clusters": "hier_jaccard_007, hier_jaccard_021"}, "geometry": {"type": "LineString", "coordinates": [[-89.83272609742262, 38.54503213945896], [-89.83845499191484, 38.54518713674757], [-89.84418393041321, 38.54534185422887], [-89.8499129128385, 38.54549629189633], [-89.85564193911159, 38.545650449743434], [-89.86137100915332, 38.54580432776372], [-89.86710012288452, 38.545957925950695], [-89.87282928022606, 38.546111244297876], [-89.8785584810987, 38.54626428279884], [-89.88428772542336, 38.54641704144712], [-89.8900170131208, 38.5465695202363], [-89.89574634411186, 38.54672171915994], [-89.90147571831739, 38.546873638211636], [-89.90720513565815, 38.54702527738502], [-89.91293459605497, 38.54717663667367], [-89.91866409942871, 38.54732771607122], [-89.92439364570006, 38.54747851557132], [-89.9301232347899, 38.54762903516762], [-89.93585286661902, 38.54777927485379], [-89.94158254110822, 38.54792923462347], [-89.94731225817821, 38.548078914470366], [-89.95304201774988, 38.54822831438818], [-89.95858208911035, 38.55287709782697], [-89.96431228957056, 38.553025961699916], [-89.97004253230493, 38.553174545580205], [-89.97577281723424, 38.553322849461594], [-89.9815031442792, 38.55347087333782], [-89.98723351336055, 38.553618617202645], [-89.99296392439905, 38.55376608104985], [-89.99869437731542, 38.55391326487322], [-90.00442487203037, 38.55406016866657], [-90.01015540846471, 38.55420679242369], [-90.0156997760314, 38.558853031674964], [-90.02143075196999, 38.55899911872885], [-90.0271617694001, 38.55914492568329], [-90.03289282824241, 38.5592904525321], [-90.0386239284176, 38.5594356992692], [-90.04435506984643, 38.55958066588843], [-90.0500862524495, 38.5597253523837], [-90.05581747614751, 38.55986975874894], [-90.06154874086116, 38.56001388497803], [-90.0672800465111, 38.56015773106491], [-90.073011393018, 38.560301297003505], [-90.07874278030255, 38.56044458278779], [-90.08447420828541, 38.56058758841172], [-90.09020567688721, 38.56073031386926], [-90.09593718602859, 38.5608727591544], [-90.10166873563026, 38.56101492426115], [-90.10740032561284, 38.561156809183515], [-90.11313195589696, 38.5612984139155], [-90.11886362640328, 38.561439738451156], [-90.12441585794114, 38.56608111085856], [-90.12996880268844, 38.57072224396472], [-90.13552246082332, 38.57536313763731], [-90.14107683252396, 38.580003791744], [-90.14663191796852, 38.58464420615243], [-90.15218771733517, 38.589284380730234], [-90.15774423080212, 38.593924315345014], [-90.16330145854758, 38.59856400986431], [-90.16885940074975, 38.60320346415569], [-90.17441805758689, 38.60784267808668], [-90.17997742923725, 38.612481651524796], [-90.18553751587909, 38.6171203843375], [-90.19127398739786, 38.61725833052981], [-90.19683518607279, 38.62189656380297], [-90.20239710011477, 38.62653455609276], [-90.20795972970198, 38.63117230726659]]}}, {"type": "Feature", "properties": {"route_run_id": "stl_midamerica_to_st_louis_union_station_2026-03-07_0215", "route_pair": "midamerica_to_st_louis_union_station", "route_pair_label": "MidAmerica to St. Louis Union Station", "origin_label": "MidAmerica St. Louis Airport", "destination_label": "St. Louis Union Station", "origin_lat": 38.5451731, "origin_lon": -89.8351856, "destination_lat": 38.629167, "destination_lon": -90.2075, "traffic_date": "2026-03-07", "traffic_dataset": "March 7th - Saturday", "weight_id": "w_0215", "distance_weight": 0.4, "population_weight": 0.1, "traffic_weight": 0.4, "airspace_weight": 0.1, "path_nodes": 67, "path_node_ids": [8877, 8876, 8868, 8893, 8894, 8871, 9758, 9756, 9757, 9750, 9773, 9779, 9777, 9769, 9771, 9770, 9792, 9975, 9974, 9976, 9980, 9987, 10212, 9990, 10213, 10225, 10229, 10228, 10146, 10144, 10147, 10145, 10157, 10159, 10192, 10197, 10185, 10187, 10186, 10191, 2276, 2521, 2523, 2526, 2542, 2541, 2543, 2533, 2534, 2532, 2535, 2819, 2497, 2818, 2496, 2507, 2506, 2828, 2505, 2809, 2811, 2810, 2728, 2730, 2731, 2729, 2715], "elapsed_seconds": 0.021340599982067943, "status": "success", "failure_reason": "", "route_distance_km": 47.21401344705753, "distance_cost_sum": 51.96207509317258, "population_cost_sum": 23.43899856419887, "traffic_cost_sum": 14.814835278092074, "airspace_cost_sum": 28.4, "total_weighted_score": 31.894664004925755, "clustering_method": "hierarchical_jaccard", "distance_method": "jaccard", "direct_cluster_number": 13, "hierarchical_jaccard_cluster": "hier_jaccard_013", "hierarchical_jaccard_cluster_source": "hier_jaccard_013", "representative_route_run_id": "stl_midamerica_to_st_louis_union_station_2026-03-07_0215", "representative_mean_frechet_miles": 0.9141020778812907, "cluster_size": 7, "cluster_weight_space_percent": 6.730769230769231, "merged_cluster_id": "frechet_merged_003", "source_jaccard_clusters": "hier_jaccard_013"}, "geometry": {"type": "LineString", "coordinates": [[-89.83272609742262, 38.54503213945896], [-89.83845499191484, 38.54518713674757], [-89.84418393041321, 38.54534185422887], [-89.84971641783211, 38.549995494044936], [-89.85544580003071, 38.55014967657376], [-89.86117522600853, 38.55030357923106], [-89.86690469568633, 38.55045720201035], [-89.87263420898502, 38.550610544905176], [-89.87836376582533, 38.55076360790903], [-89.88409336612811, 38.55091639101554], [-89.88962896320348, 38.555568263906835], [-89.89516527250416, 38.56021990134085], [-89.90089571497577, 38.56037189337378], [-89.90662620061389, 38.56052360539423], [-89.91216402109853, 38.56517449573953], [-89.91789494911032, 38.56532567191472], [-89.92362592006123, 38.56547656801355], [-89.92935693387194, 38.56562718402969], [-89.93508799046323, 38.565777519956754], [-89.94062812038845, 38.57042715041154], [-89.94616896320129, 38.57507654445588], [-89.95190086057701, 38.57522608794758], [-89.95744281552916, 38.57987498914009], [-89.96317515439212, 38.58002399606761], [-89.96871822163466, 38.584672404039395], [-89.97426200234347, 38.589320575018675], [-89.97980649669776, 38.593968508873274], [-89.98554007482124, 38.594116465748236], [-89.99127369499321, 38.59426414220273], [-89.99700735713421, 38.594411538230524], [-90.00274106116477, 38.59455865382544], [-90.00847480700546, 38.59470548898121], [-90.01420859457684, 38.5948520436917], [-90.01975619581054, 38.599498198826886], [-90.02530451116947, 38.60414411601564], [-90.03085354083264, 38.60878979512565], [-90.03658856591449, 38.60893529783942], [-90.04232363235971, 38.609080519942665], [-90.04805874008878, 38.60922546142931], [-90.05360968000618, 38.61387013007287], [-90.0593452273907, 38.61401453341643], [-90.06489728050143, 38.618658705824664], [-90.07045004853325, 38.62330263938551], [-90.07600353166524, 38.62794633396657], [-90.08155773007638, 38.632589789435436], [-90.08729491224024, 38.63273288088516], [-90.0930321351008, 38.63287569144548], [-90.09876939857845, 38.63301822111036], [-90.10450670259345, 38.633160469873815], [-90.1102440470662, 38.63330243772981], [-90.115981431917, 38.63344412467236], [-90.12171885706623, 38.633585530695484], [-90.12763604589804, 38.629226367808045], [-90.13337319363258, 38.629367189437694], [-90.13911038141684, 38.62950773017495], [-90.14484760917111, 38.62964799001386], [-90.15058487681573, 38.629787968948484], [-90.156322184271, 38.62992766697294], [-90.16205953145733, 38.63006708408134], [-90.16779691829495, 38.630206220267794], [-90.17353434470424, 38.6303450755264], [-90.17927181060547, 38.63048364985134], [-90.185009315919, 38.63062194323676], [-90.1907468605651, 38.6307599556768], [-90.1964844444641, 38.63089768716567], [-90.2022220675363, 38.63103513769752], [-90.20795972970198, 38.63117230726659]]}}]}