{"type": "FeatureCollection", "features": [{"id": "0", "type": "Feature", "properties": {"route_run_id": "stl_midamerica_to_st_louis_lambert_2026-03-07_0255", "route_pair": "midamerica_to_st_louis_lambert", "route_pair_label": "MidAmerica to St. Louis Lambert", "origin_label": "MidAmerica St. Louis Airport", "destination_label": "St. Louis Lambert International Airport", "origin_lat": 38.5451731, "origin_lon": -89.8351856, "destination_lat": 38.7486982, "destination_lon": -90.3700257, "traffic_date": "2026-03-07", "traffic_dataset": "March 7th - Saturday", "weight_id": "w_0255", "distance_weight": 0.6, "population_weight": 0.0, "traffic_weight": 0.2, "airspace_weight": 0.2, "path_nodes": 96, "path_node_ids": [8877, 8876, 8892, 8897, 8899, 8926, 9788, 10013, 10014, 10036, 10052, 10054, 10061, 10051, 10049, 10048, 10050, 10253, 10252, 10241, 10240, 10248, 10246, 10247, 10245, 10263, 10265, 10264, 10173, 10174, 10172, 10175, 10195, 10198, 10202, 10201, 10189, 10324, 10329, 10330, 2551, 2554, 2570, 2557, 2547, 2578, 2582, 2590, 2595, 10723, 10724, 2903, 2906, 4109, 4112, 4120, 4146, 4149, 4153, 4175, 4177, 4180, 4182, 4292, 4291, 4290, 4311, 4310, 4309, 4312, 4303, 4300, 4302, 4301, 4202, 4215, 4220, 4218, 4231, 4232, 4230, 4238, 4237, 4235, 4236, 5309, 5310, 5307, 5308, 5303, 5304, 5319, 5321, 5357, 5358, 5364], "elapsed_seconds": 0.03336570004466921, "status": "success", "failure_reason": "", "route_distance_km": 71.92408572558828, "distance_cost_sum": 79.1571076174571, "population_cost_sum": 34.66106152452839, "traffic_cost_sum": 22.53343589024825, "airspace_cost_sum": 50.00000000000003, "total_weighted_score": 62.00095174852392, "clustering_method": "hierarchical_jaccard", "distance_method": "jaccard", "direct_cluster_number": 1, "hierarchical_jaccard_cluster": "hier_jaccard_001", "hierarchical_jaccard_cluster_source": "hier_jaccard_003", "representative_route_run_id": "stl_midamerica_to_st_louis_lambert_2026-03-07_0255", "representative_mean_frechet_miles": 1.7917500210316455, "cluster_size": 44, "cluster_weight_space_percent": 29.333333333333332, "merged_cluster_id": "frechet_merged_001", "source_jaccard_clusters": "hier_jaccard_001", "corridor_width_m": 4828.0, "corridor_buffer_m": 2414.0}, "geometry": {"type": "Polygon", "coordinates": [[[-90.3300457529568, 38.745870349483525], [-90.33004473613819, 38.74587032624246], [-90.32429731952728, 38.74573881799959], [-90.31854994048079, 38.7456070275525], [-90.31280259907938, 38.74547495490682], [-90.30705529540286, 38.74534260006806], [-90.30130802953188, 38.74520996304189], [-90.29556080154642, 38.74507704383389], [-90.28981361152692, 38.74494384244971], [-90.28406645955346, 38.74481035889497], [-90.27831934570617, 38.744676593175285], [-90.27257227006552, 38.744542545296355], [-90.26985660090246, 38.74437437785203], [-90.26717508399979, 38.743998500503686], [-90.26455356576997, 38.74341853716637], [-90.26201731256843, 38.74264007876767], [-90.25959076660646, 38.741670629189535], [-90.25729730991672, 38.74051953273597], [-90.25515903866903, 38.73919788383515], [-90.25492753246985, 38.739023362707485], [-90.25323233081414, 38.73864812405481], [-90.25069638123281, 38.737869429815476], [-90.24827016038891, 38.736899755753214], [-90.24597704717222, 38.73574844833601], [-90.24383913443287, 38.734426604024726], [-90.24187701587286, 38.73294696207136], [-90.23861198486327, 38.73023044905507], [-90.2386109683435, 38.730230425026825], [-90.23286524173037, 38.73009446742814], [-90.22711955393704, 38.729958227850894], [-90.22137390504416, 38.72982170630095], [-90.21562829513144, 38.729684902784015], [-90.20988272427913, 38.72954781730589], [-90.2041371925673, 38.72941044987237], [-90.19839170007621, 38.72927280048925], [-90.1926462468859, 38.729134869162344], [-90.18690083307665, 38.72899665589755], [-90.18115545872821, 38.72885816070063], [-90.17541012392105, 38.72871938357748], [-90.17269541849407, 38.728548986559026], [-90.17001513524276, 38.728170917891724], [-90.1673951086481, 38.72758882263933], [-90.16486059063548, 38.72680831230052], [-90.16243600662926, 38.72583691055125], [-90.1601447196827, 38.72468398052053], [-90.15800880497993, 38.72336063431029], [-90.15604883690042, 38.72187962564261], [-90.15199106439755, 38.718496673023786], [-90.1505174943315, 38.71816901365951], [-90.14798350972968, 38.71738815544142], [-90.1455594871126, 38.716416422626025], [-90.14326878410796, 38.71526318153313], [-90.14113347025747, 38.713939547261035], [-90.13917411413658, 38.71245827630482], [-90.1336101560159, 38.70781723508618], [-90.12955424602181, 38.704433566382285], [-90.1280810812798, 38.70410563813013], [-90.12554785908969, 38.703324319705665], [-90.12312463340241, 38.702352148919005], [-90.12083475414428, 38.70119849631077], [-90.1187002828984, 38.69987448094273], [-90.11674178010182, 38.69839286297818], [-90.11118037553406, 38.69375084091288], [-90.10561968867488, 38.68910857855225], [-90.10005971934483, 38.684466076028954], [-90.09450046736444, 38.67982333347572], [-90.08894193255439, 38.67518035102525], [-90.08338411473518, 38.67053712881019], [-90.07457137708879, 38.66317289780984], [-90.07457036166235, 38.66317287239225], [-90.06883081680037, 38.663029062162366], [-90.06611899721055, 38.662856292241514], [-90.06344186304494, 38.6624758910023], [-90.06082521834844, 38.6618915260162], [-90.05829428235833, 38.66110883067565], [-90.05587344587799, 38.66013534972433], [-90.05358603574521, 38.658980466328906], [-90.05145408968761, 38.65765531140558], [-90.04949814375253, 38.65617265608594], [-90.0439443898639, 38.651527702301465], [-90.03839135200944, 38.646882509694265], [-90.03283903000967, 38.642237078396754], [-90.02728742368507, 38.63759140854123], [-90.02403500591706, 38.63486934618951], [-90.02403399093632, 38.63486932034907], [-90.02132340496676, 38.63469555618145], [-90.01864761426592, 38.63431417781578], [-90.01603240989424, 38.63372886225207], [-90.01350299716752, 38.632945252051954], [-90.01108375216678, 38.63197090077996], [-90.00879798635032, 38.630815199990096], [-90.00666772155925, 38.62948928847124], [-90.0047134776024, 38.628005944637266], [-90.0014623659195, 38.625283301607666], [-90.0014613510947, 38.6252832755768], [-89.99572520797126, 38.62513599913874], [-89.98998910680662, 38.62498844196184], [-89.98425304768031, 38.62484060405228], [-89.97851703067202, 38.624692485416375], [-89.97278105586099, 38.62454408606028], [-89.97007105983387, 38.62436915307244], [-89.9673959992607, 38.62398662666952], [-89.96478165814129, 38.623400194931136], [-89.96225323344171, 38.62261551118873], [-89.95983509168593, 38.62164013936228], [-89.95755053366148, 38.62048348084654], [-89.95614498338877, 38.61960753384485], [-89.95576378761423, 38.61959760770977], [-89.95002833975795, 38.6194481094592], [-89.94429293448681, 38.61929833056471], [-89.93855757188007, 38.61914827103261], [-89.93282225201733, 38.61899793086924], [-89.92708697497788, 38.61884731008091], [-89.92135174084189, 38.61869640867404], [-89.91561654968794, 38.6185452266549], [-89.90988140159622, 38.618393764029925], [-89.90414629664608, 38.618242020805496], [-89.89841123491676, 38.61808999698799], [-89.8957017783405, 38.61791335603029], [-89.8930274662351, 38.617529152515175], [-89.89041407535917, 38.61694109070869], [-89.88788679348322, 38.61615483967181], [-89.88546997607155, 38.61517797844441], [-89.88318691109652, 38.614019922785], [-89.88105959427446, 38.61269183418162], [-89.8791085169065, 38.61120651202272], [-89.87356959884976, 38.60655402718657], [-89.86803139477837, 38.60190130667124], [-89.86249390451245, 38.59724835060889], [-89.85695712787188, 38.59259515913134], [-89.85142106467708, 38.58794173237097], [-89.8458857147479, 38.58328807045952], [-89.84035107790457, 38.57863417352908], [-89.8348171539672, 38.57398004171155], [-89.82928394275602, 38.56932567513901], [-89.82525044496454, 38.56593229556863], [-89.82378172274481, 38.56560069976069], [-89.82125703213198, 38.56481310908327], [-89.81884288991746, 38.56383497410062], [-89.81656255822567, 38.56267572284393], [-89.81443800637038, 38.56134652831356], [-89.81248969895286, 38.559860200539255], [-89.81073639862333, 38.55823106285978], [-89.80919498541124, 38.55647481362773], [-89.80788029436297, 38.55460837468475], [-89.80680497304293, 38.55264972807962], [-89.805979360256, 38.55061774261388], [-89.8054113871388, 38.54853199189588], [-89.80510650154712, 38.546412565664724], [-89.80506761643771, 38.54427987620715], [-89.80529508270935, 38.54215446173632], [-89.80578668672975, 38.540056788627126], [-89.80653767253787, 38.53800705441165], [-89.80754078847357, 38.536024993428114], [-89.80878635775375, 38.53412968698875], [-89.81026237228723, 38.53233937988635], [-89.81195460880109, 38.53067130499623], [-89.81384676614157, 38.52914151765065], [-89.81592062241492, 38.52776474136825], [-89.81815621044953, 38.52655422641042], [-89.82053200989006, 38.52552162251345], [-89.8230251540819, 38.52467686700904], [-89.82561164976717, 38.52402808939869], [-89.8282666074971, 38.52358153329049], [-89.83096448056651, 38.52334149644106], [-89.8336793101989, 38.523310289474026], [-89.83940648754941, 38.523465166994754], [-89.84211218108081, 38.52364295945561], [-89.84478269162241, 38.52402817449895], [-89.84739232223569, 38.52461710647779], [-89.84991596001466, 38.52540408935556], [-89.85232931719757, 38.526381551054655], [-89.85460916444764, 38.527540086111365], [-89.85673355407965, 38.528868545947816], [-89.85868203110161, 38.53035414590338], [-89.86421441786476, 38.53500710042859], [-89.86974751605804, 38.53965982009454], [-89.87528132586084, 38.5443123047695], [-89.88081584745248, 38.54896455432161], [-89.88635108101217, 38.55361656861883], [-89.89188702671933, 38.55826834752935], [-89.89742368475332, 38.56291989092123], [-89.90296105529355, 38.567571198662584], [-89.9084991385192, 38.57222227062116], [-89.91174429656705, 38.574947277748365], [-89.91174531059855, 38.57494730452808], [-89.91747701272014, 38.57509853327343], [-89.9232087578033, 38.57524948184527], [-89.92894054576861, 38.57540015023718], [-89.9346723765374, 38.57555053844291], [-89.94040425002937, 38.575700646456035], [-89.94613616616594, 38.575850474270275], [-89.95186812486747, 38.57600002187931], [-89.95760012605474, 38.57614928927685], [-89.96333216964818, 38.57629827645657], [-89.96906425556878, 38.576446983412225], [-89.97177245073544, 38.57662186744954], [-89.97444579722465, 38.57700422564624], [-89.97705857088857, 38.577590379812385], [-89.97958562866924, 38.57837469061637], [-89.98200264999615, 38.57934961167818], [-89.98428637037793, 38.5805057619781], [-89.9856915532208, 38.5813813583563], [-89.98607255746067, 38.58139117884772], [-89.9918051685591, 38.58153878847096], [-89.99753782159775, 38.58168611779413], [-90.00327051649738, 38.581833166811045], [-90.00900325317856, 38.581979935515484], [-90.01473603156185, 38.58212642390128], [-90.01744461956469, 38.5823002623065], [-90.0201184857019, 38.582681593479876], [-90.02273190084325, 38.58326674910096], [-90.02525971578164, 38.584050099435935], [-90.02767760268897, 38.58502410733898], [-90.02996228877628, 38.586179400572796], [-90.03209177993243, 38.587504861761886], [-90.03404557220618, 38.588987735124185], [-90.03729642480867, 38.59170946977821], [-90.03729743919384, 38.591709495479556], [-90.04000647466779, 38.5918828271971], [-90.04268084642685, 38.59226366047387], [-90.04529482048949, 38.59284833177472], [-90.0478232422867, 38.59363121602197], [-90.0502417781685, 38.59460478055227], [-90.05252714911941, 38.59575965739416], [-90.05465735445615, 38.59708473318051], [-90.05661188337203, 38.59856725584148], [-90.06216262339049, 38.60321151479268], [-90.06771407777542, 38.60785553508582], [-90.07326624670557, 38.61249931658843], [-90.07881913035975, 38.61714285916804], [-90.08207296109629, 38.619863453286044], [-90.0820739759186, 38.61986347861474], [-90.08781014672904, 38.62000650532292], [-90.09052044007703, 38.62017871162279], [-90.09319619554255, 38.620558438699426], [-90.0958116658664, 38.621142033649996], [-90.09834168212298, 38.62192388174565], [-90.10076189536292, 38.6228964602893], [-90.10304901047392, 38.62405041079777], [-90.1051810100311, 38.62537462882308], [-90.10713736600063, 38.626856370559686], [-90.11269358945663, 38.631498421278756], [-90.12380818304295, 38.64078180339026], [-90.129366553531, 38.64542313451764], [-90.13492564005416, 38.65006422551606], [-90.14048544279125, 38.654705076252874], [-90.14604596192122, 38.659345686595444], [-90.1501002690842, 38.66272873781335], [-90.1515727140438, 38.66305636175639], [-90.15410486039087, 38.66383707694178], [-90.15652727750685, 38.664808576889904], [-90.15881664912494, 38.66596151349975], [-90.16095093615532, 38.667284792088765], [-90.16290958859479, 38.668765677905945], [-90.16847265619697, 38.67340530723264], [-90.17252882165528, 38.6767876429386], [-90.17400167089124, 38.677114998215586], [-90.17653457773837, 38.677895253457876], [-90.17895778988184, 38.678866315531465], [-90.1812479834247, 38.680018840549444], [-90.183383111387, 38.68134173779269], [-90.18534261569054, 38.68282227618476], [-90.18860348828323, 38.685540141984404], [-90.18860450412718, 38.685540166423834], [-90.19434644954137, 38.685678166406554], [-90.20008843424469, 38.68581588488559], [-90.20583045815673, 38.68595332185514], [-90.21157252119772, 38.68609047730938], [-90.21731462328768, 38.68622735124252], [-90.22305676434677, 38.68636394364878], [-90.22879894429497, 38.686500254522386], [-90.23454116305246, 38.68663628385762], [-90.24028342053883, 38.68677203164864], [-90.24602571667472, 38.6869074978898], [-90.25176805137988, 38.687042682575346], [-90.25448148952661, 38.687211191165325], [-90.25716081636847, 38.687587283159054], [-90.25978025038137, 38.68816734059031], [-90.26231458461565, 38.68894578273871], [-90.26473942869937, 38.68991511966224], [-90.26703144309165, 38.69106602406576], [-90.26916856335463, 38.69238742082303], [-90.27113021230316, 38.693866593302175], [-90.27519253028525, 38.69724557285202], [-90.27666633981836, 38.69757166483112], [-90.27920120529798, 38.698349758181315], [-90.2816266087895, 38.699318762948174], [-90.28391920538377, 38.70046935503287], [-90.28533051820587, 38.701341553683626], [-90.28571225823892, 38.70135042167738], [-90.29145593795633, 38.70148369925797], [-90.29719965563095, 38.70161669510264], [-90.30294341118261, 38.701749409205796], [-90.30868720453108, 38.70188184156179], [-90.31443103559657, 38.70201399216506], [-90.3201749042987, 38.702145861009974], [-90.3259188105578, 38.70227744809101], [-90.33166275429342, 38.702408753402565], [-90.33740673542582, 38.70253977693911], [-90.34315075387475, 38.70267051869509], [-90.34586511931667, 38.70283693230303], [-90.34854562614626, 38.703210964628994], [-90.35116648152376, 38.70378901750027], [-90.35370246487224, 38.704565529464254], [-90.35612917000985, 38.70553302913705], [-90.35842323955256, 38.70668220689424], [-90.36056258935496, 38.708002004223765], [-90.3625266208465, 38.70947971989186], [-90.36810615980514, 38.71411038409984], [-90.37368641782109, 38.718740803716315], [-90.37926739507253, 38.72337097860813], [-90.38484909173766, 38.72800090864212], [-90.3904315079947, 38.73263059368504], [-90.39220250389162, 38.73425161894969], [-90.39376219431443, 38.736000783788086], [-90.39509554942138, 38.737861251145894], [-90.39618971499515, 38.73981511113572], [-90.39703413674451, 38.74184355323344], [-90.39762066259516, 38.74392704719489], [-90.39794362195944, 38.746045530959236], [-90.39799988119255, 38.74817860373709], [-90.39778887466878, 38.750305722427946], [-90.39731261114417, 38.752406399477906], [-90.39657565530882, 38.7544604002714], [-90.39558508467232, 38.75644793815262], [-90.39435042216469, 38.75834986519301], [-90.39288354507273, 38.76014785685929], [-90.39119857116371, 38.761824588793594], [-90.38931172307329, 38.7633639039916], [-90.38724117225034, 38.764750968755486], [-90.38500686395444, 38.76597241590659], [-90.38263032499147, 38.76701647386455], [-90.38013445604558, 38.767873080336656], [-90.37754331062148, 38.76853397950995], [-90.37488186274496, 38.76899280179902], [-90.37217576568463, 38.76924512537238], [-90.36945110404729, 38.76928851885734], [-90.36673414166775, 38.76912256480807], [-90.36405106775534, 38.768748863708154], [-90.36142774377767, 38.7681710184703], [-90.3588894535537, 38.767394599585515], [-90.35646065899577, 38.76642709126338], [-90.35416476388211, 38.76527781909036], [-90.35202388795967, 38.76395785991298], [-90.35005865357259, 38.762479934825734], [-90.3444767420245, 38.75784835055994], [-90.3388955510417, 38.7532165216637], [-90.33331508044553, 38.74858444827035], [-90.3300457529568, 38.745870349483525]]]}}, {"id": "1", "type": "Feature", "properties": {"route_run_id": "stl_midamerica_to_st_louis_lambert_2026-03-07_0167", "route_pair": "midamerica_to_st_louis_lambert", "route_pair_label": "MidAmerica to St. Louis Lambert", "origin_label": "MidAmerica St. Louis Airport", "destination_label": "St. Louis Lambert International Airport", "origin_lat": 38.5451731, "origin_lon": -89.8351856, "destination_lat": 38.7486982, "destination_lon": -90.3700257, "traffic_date": "2026-03-07", "traffic_dataset": "March 7th - Saturday", "weight_id": "w_0167", "distance_weight": 0.25, "population_weight": 0.25, "traffic_weight": 0.25, "airspace_weight": 0.25, "path_nodes": 97, "path_node_ids": [8877, 8881, 8904, 8922, 8923, 8927, 9145, 10016, 10018, 10062, 10055, 10058, 10094, 10096, 10103, 10104, 10110, 10109, 10516, 10515, 10514, 10517, 10522, 10299, 10300, 10301, 10309, 10532, 10533, 10363, 10364, 10369, 10370, 10381, 10612, 10613, 10616, 10409, 10410, 10411, 10408, 2604, 2605, 10732, 10738, 10763, 10766, 10768, 10775, 10780, 10778, 10779, 4140, 4141, 4138, 4139, 4148, 4155, 4152, 4153, 4175, 4177, 4180, 4182, 4292, 4291, 4290, 4311, 4310, 4309, 4312, 4303, 4300, 4302, 4301, 4202, 4215, 4220, 4218, 4231, 4232, 4230, 4238, 4241, 4239, 4240, 5336, 5342, 5341, 5366, 5353, 5377, 5379, 5376, 5588, 5362, 5364], "elapsed_seconds": 0.05308420001529157, "status": "success", "failure_reason": "", "route_distance_km": 72.84575452782641, "distance_cost_sum": 80.1714637379473, "population_cost_sum": 20.166976590564982, "traffic_cost_sum": 27.60206873734868, "airspace_cost_sum": 51.2, "total_weighted_score": 44.78512726646525, "clustering_method": "hierarchical_jaccard", "distance_method": "jaccard", "direct_cluster_number": 2, "hierarchical_jaccard_cluster": "hier_jaccard_002", "hierarchical_jaccard_cluster_source": "hier_jaccard_001", "representative_route_run_id": "stl_midamerica_to_st_louis_lambert_2026-03-07_0167", "representative_mean_frechet_miles": 0.7610229418875493, "cluster_size": 41, "cluster_weight_space_percent": 27.333333333333332, "merged_cluster_id": "frechet_merged_002", "source_jaccard_clusters": "hier_jaccard_002", "corridor_width_m": 4828.0, "corridor_buffer_m": 2414.0}, "geometry": {"type": "Polygon", "coordinates": [[[-90.37582210345451, 38.76883071598134], [-90.37557780962226, 38.768994310937266], [-90.37334317827136, 38.77021552247256], [-90.37096633814282, 38.771259331415514], [-90.36847019283312, 38.77211567787359], [-90.36587879851969, 38.772776308541005], [-90.36321713163568, 38.77323485642236], [-90.36051084756774, 38.77348690233374], [-90.35778603273093, 38.77353001758209], [-90.35203626750135, 38.77339979557684], [-90.34628653948928, 38.77326929106927], [-90.3405368487751, 38.77313850406488], [-90.33781984655322, 38.77297187428938], [-90.33513681881936, 38.77259750901074], [-90.33251362659082, 38.77201901755249], [-90.32997555240708, 38.77124197664243], [-90.32754705608454, 38.77027387649225], [-90.32525153850986, 38.76912404839771], [-90.32311111577141, 38.76780357456638], [-90.3211464058237, 38.766325181053666], [-90.31556616047438, 38.76169227295887], [-90.31149837788891, 38.75831453149463], [-90.31002315005567, 38.7579888315863], [-90.30748583740994, 38.75721132650764], [-90.30505813777688, 38.75624278431589], [-90.30276344434401, 38.75509254056685], [-90.3006238652371, 38.75377168147157], [-90.29866001026225, 38.752292936793786], [-90.29539189233775, 38.749577910136374], [-90.2953908754954, 38.74957788659199], [-90.29267493115768, 38.749410241289425], [-90.28999307648539, 38.74903487724472], [-90.28737116115727, 38.748455413419215], [-90.28483445536948, 38.74767743592078], [-90.28240740571097, 38.7467084439926], [-90.280113399086, 38.74555777752588], [-90.27870131414406, 38.744685492380995], [-90.27831934570617, 38.744676593175285], [-90.27257227006552, 38.744542545296355], [-90.26985660090246, 38.74437437785203], [-90.26717508399979, 38.743998500503686], [-90.26455356576997, 38.74341853716637], [-90.26201731256843, 38.74264007876767], [-90.25959076660646, 38.741670629189535], [-90.25729730991672, 38.74051953273597], [-90.25515903866903, 38.73919788383515], [-90.25492753246985, 38.739023362707485], [-90.25323233081414, 38.73864812405481], [-90.25069638123281, 38.737869429815476], [-90.24827016038891, 38.736899755753214], [-90.24597704717222, 38.73574844833601], [-90.24383913443287, 38.734426604024726], [-90.24187701587286, 38.73294696207136], [-90.23861198486327, 38.73023044905507], [-90.2386109683435, 38.730230425026825], [-90.23286524173037, 38.73009446742814], [-90.22711955393704, 38.729958227850894], [-90.22137390504416, 38.72982170630095], [-90.21562829513144, 38.729684902784015], [-90.20988272427913, 38.72954781730589], [-90.2041371925673, 38.72941044987237], [-90.19839170007621, 38.72927280048925], [-90.1926462468859, 38.729134869162344], [-90.18690083307665, 38.72899665589755], [-90.18115545872821, 38.72885816070063], [-90.17541012392105, 38.72871938357748], [-90.17269541849407, 38.728548986559026], [-90.17001513524276, 38.728170917891724], [-90.1673951086481, 38.72758882263933], [-90.16486059063548, 38.72680831230052], [-90.16243600662926, 38.72583691055125], [-90.1601447196827, 38.72468398052053], [-90.15800880497993, 38.72336063431029], [-90.15604883690042, 38.72187962564261], [-90.15278768648918, 38.719160849683924], [-90.15278667020081, 38.71916082491539], [-90.14704225317081, 38.71902068307609], [-90.14432802212306, 38.718849642682684], [-90.14164828861571, 38.71847094167955], [-90.13902888181494, 38.71788823123272], [-90.13649504765327, 38.71710712877622], [-90.13407120494266, 38.716135163696805], [-90.13178070956923, 38.71498170455443], [-90.13037112124057, 38.71410771257222], [-90.12998936397479, 38.71409833491609], [-90.12424546671026, 38.71395708849802], [-90.11850160975852, 38.71381556034787], [-90.11275779319962, 38.71367375047157], [-90.10701401711343, 38.713531658875134], [-90.10127028158003, 38.71338928556458], [-90.0985564391344, 38.71321719332369], [-90.09587722237654, 38.71283745886303], [-90.09325845547411, 38.71225374332278], [-90.09072537816826, 38.71147167383551], [-90.08830240194763, 38.71049878911677], [-90.08601287431487, 38.70934446659511], [-90.08387885344086, 38.7080198317936], [-90.08192089539577, 38.70653765084735], [-90.07636125204397, 38.701894039037036], [-90.07080232660209, 38.69725018741068], [-90.06524411889033, 38.692606096100924], [-90.05968662872918, 38.68796176524064], [-90.05412985593864, 38.68331719496219], [-90.05087441186613, 38.68059577646574], [-90.05087339621511, 38.68059575083279], [-90.04513258233213, 38.68045072316348], [-90.0393918098112, 38.68030541416131], [-90.03365107873327, 38.680159823832554], [-90.03093875180532, 38.67998621509852], [-90.02826122297219, 38.67960499035912], [-90.02564430008609, 38.679019825135434], [-90.02311320506233, 38.678236360544915], [-90.02069233022739, 38.67726214875633], [-90.01840500277284, 38.67610657998967], [-90.01627325960796, 38.67478079177393], [-90.01431763479843, 38.67329756134892], [-90.01026946586163, 38.66991003212613], [-90.00879764225633, 38.66958064706087], [-90.00626708114403, 38.66879683687486], [-90.00384676783635, 38.66782229636828], [-90.00156002409791, 38.66666641892926], [-90.00015303538606, 38.66579094947656], [-89.99977157936809, 38.66578115692279], [-89.99705992685664, 38.665606785935346], [-89.99438316017469, 38.66522481228684], [-89.99176707980709, 38.664638918725366], [-89.98923689952386, 38.66385475339487], [-89.98681700280804, 38.662879875221996], [-89.98453070739606, 38.66172368085043], [-89.98240004022273, 38.66039731383672], [-89.98044552495736, 38.658913556993845], [-89.97489625265979, 38.6542654929693], [-89.9708510477973, 38.65087670625715], [-89.96937982214858, 38.65054684656246], [-89.96685040476433, 38.64976222459954], [-89.96443130490249, 38.64878691211751], [-89.96214583259899, 38.647630309945434], [-89.96073971346628, 38.646754397812394], [-89.96035837227315, 38.64674448081471], [-89.95462073644102, 38.64659511989879], [-89.94888314317568, 38.64644547806366], [-89.94314559255729, 38.646295555315646], [-89.93740808466542, 38.646145351661104], [-89.93167061957938, 38.645994867106324], [-89.9259331973793, 38.6458441016577], [-89.92322258811512, 38.64566805386637], [-89.92054706330687, 38.645284433284594], [-89.9179324114319, 38.64469693855449], [-89.91540383244596, 38.64391123326861], [-89.91298569434615, 38.64293489120711], [-89.91070129786293, 38.641777323127954], [-89.90857265157166, 38.6404496858263], [-89.90834233643157, 38.640274522054256], [-89.90665157691147, 38.63989441470303], [-89.9041233032864, 38.6391084767353], [-89.90170549152744, 38.63813191347915], [-89.89942143921047, 38.63697413782478], [-89.89729315158456, 38.63564630856724], [-89.89534112932013, 38.634161222602934], [-89.88979944024325, 38.62950940539956], [-89.88425846600967, 38.62485735204231], [-89.87871820643942, 38.62020506266347], [-89.87317866135233, 38.61555253739514], [-89.86763983056835, 38.610899776369436], [-89.86210171390742, 38.606246779718326], [-89.85656431118979, 38.60159354757427], [-89.85102762223508, 38.59694008006892], [-89.84549164686364, 38.59228637733464], [-89.83995638489527, 38.58763243950324], [-89.83442183615014, 38.58297826670677], [-89.8288880004483, 38.57832385907725], [-89.82335487760979, 38.57366921674654], [-89.81782246745469, 38.56901433984653], [-89.81229076980324, 38.56435922850931], [-89.81053737176009, 38.56273008439564], [-89.80899587495975, 38.56097382975332], [-89.8076811152514, 38.55910738647742], [-89.80660574085758, 38.55714873665962], [-89.80578009109041, 38.55511674913331], [-89.80521209743819, 38.55303099752744], [-89.80490720794948, 38.55091157159009], [-89.80486833561342, 38.5487788836054], [-89.80506761643761, 38.54427987620952], [-89.80529508270895, 38.542154461738676], [-89.80578668672905, 38.54005678862944], [-89.8065376725369, 38.53800705441392], [-89.80754078847232, 38.53602499343029], [-89.80878635775223, 38.5341296869908], [-89.81026237228545, 38.53233937988829], [-89.8119546087991, 38.530671304998016], [-89.81384676613935, 38.52914151765227], [-89.81592062241252, 38.52776474136969], [-89.81815621044694, 38.526554226411676], [-89.82053200988736, 38.525521622514496], [-89.82302515407908, 38.52467686700986], [-89.82561164976424, 38.52402808939931], [-89.82826660749411, 38.523581533290866], [-89.8309644805635, 38.52334149644122], [-89.83367931019588, 38.52331028947394], [-89.83638497464992, 38.52348821366765], [-89.83905543988263, 38.52387355802604], [-89.8416650093897, 38.52446261565945], [-89.84418857085059, 38.525249719323696], [-89.84660183723477, 38.52622729577998], [-89.84888158007548, 38.527385938461066], [-89.85100585268815, 38.52871449775372], [-89.8529542012026, 38.5302001880401], [-89.85470786138927, 38.531828710479715], [-89.85624993938957, 38.533584390363266], [-89.85756557460964, 38.53545032772885], [-89.85864208320109, 38.537408559803005], [-89.85946908073285, 38.539440233714394], [-89.85978944215289, 38.54061343155854], [-89.86382331332256, 38.544005640216845], [-89.86935703597892, 38.548658400412144], [-89.87489147056147, 38.553310925538405], [-89.88042661724954, 38.55796321546369], [-89.88596247622252, 38.562615270056], [-89.89149904765986, 38.56726708918345], [-89.89703633174108, 38.571918672714126], [-89.90257432864544, 38.576570020515824], [-89.90811303855276, 38.58122113245688], [-89.91365246164212, 38.585872008404834], [-89.91919259809333, 38.59052264822796], [-89.92473344808583, 38.59517305179404], [-89.92877341381202, 38.59856324529734], [-89.93024337131007, 38.598893567617786], [-89.93277058386927, 38.59967889828796], [-89.93518760270115, 38.60065478808556], [-89.93747116331659, 38.601811846680796], [-89.93887613783474, 38.60268799704198], [-89.93925723813703, 38.60269797453429], [-89.94499129495368, 38.60284794629992], [-89.95072539439732, 38.60299763759172], [-89.9564595363882, 38.60314704840339], [-89.96219372084687, 38.6032961787286], [-89.96792794769419, 38.60344502856111], [-89.97366221685019, 38.603593597894616], [-89.97637144758524, 38.603768416668586], [-89.97904582450538, 38.604150710086564], [-89.98165961357013, 38.60473680058336], [-89.98418766197146, 38.60552104944329], [-89.98660563962417, 38.606495910887205], [-89.98889027284821, 38.60765200447543], [-89.99101956801648, 38.608978205139444], [-89.99125000015235, 38.60915321078686], [-89.99294057546008, 38.60953208401825], [-89.99546892800177, 38.610316099978824], [-89.99788723081812, 38.6112907399105], [-90.0001722071093, 38.61244662550489], [-90.00230185995603, 38.61377263369564], [-90.00425568382921, 38.61525600344436], [-90.00980409924301, 38.61990265454767], [-90.01305531194843, 38.62262507048513], [-90.01305632674645, 38.622625096413934], [-90.01576642697803, 38.622799033717946], [-90.01844177341022, 38.62318046097924], [-90.0210566227, 38.62376570895747], [-90.02358581186735, 38.62454914703706], [-90.02600499988218, 38.625523237236806], [-90.02829090145043, 38.62667860653811], [-90.03042151077223, 38.628004136845306], [-90.03065210184198, 38.62817907054358], [-90.03234336271619, 38.62855739862689], [-90.03487285594319, 38.629340603380264], [-90.03729236910794, 38.63031447162909], [-90.03957861379678, 38.63146963249019], [-90.04170958091707, 38.63279496987445], [-90.04366475232251, 38.63427772920553], [-90.04691792362156, 38.63699927362162], [-90.04691893865359, 38.63699929926472], [-90.05265629421368, 38.63714410307636], [-90.05839369096039, 38.63728862598246], [-90.06413112881341, 38.63743286797685], [-90.06684198483003, 38.637605646804545], [-90.06951822352605, 38.637985935821206], [-90.07213409299924, 38.63857007672555], [-90.074664420485, 38.63935244954418], [-90.07708485403599, 38.6403255265393], [-90.07937209641162, 38.641479944438984], [-90.08150412894928, 38.64280459430403], [-90.08346042328033, 38.644286728178216], [-90.08901632229687, 38.64892988592637], [-90.09457293737098, 38.653572804156575], [-90.10013026868185, 38.65821548273633], [-90.10568831640856, 38.66285792153291], [-90.11124708073046, 38.66750012041398], [-90.11450435788726, 38.67021992678194], [-90.11450537344923, 38.67021995185668], [-90.12024572514332, 38.670361542887846], [-90.12598611713585, 38.67050285262681], [-90.13172654934688, 38.67064388106759], [-90.13746702169655, 38.670784628204224], [-90.14320753410516, 38.67092509403078], [-90.14591995470042, 38.671096092452885], [-90.14859796267366, 38.67147463152974], [-90.15121578914733, 38.67205706977883], [-90.1537482425827, 38.67283780359565], [-90.1561709506374, 38.673809321005], [-90.15846059424847, 38.67496227374025], [-90.1598698061796, 38.675835915520885], [-90.16025137007139, 38.675845187944596], [-90.16599240047883, 38.67598455076434], [-90.16870509851492, 38.67615502917074], [-90.17138344603043, 38.67653305717817], [-90.17400167089124, 38.677114998215586], [-90.17653457773837, 38.677895253457876], [-90.17895778988184, 38.678866315531465], [-90.1812479834247, 38.680018840549444], [-90.183383111387, 38.68134173779269], [-90.18534261569054, 38.68282227618476], [-90.18860348828323, 38.685540141984404], [-90.18860450412718, 38.685540166423834], [-90.19434644954137, 38.685678166406554], [-90.20008843424469, 38.68581588488559], [-90.20583045815673, 38.68595332185514], [-90.21157252119772, 38.68609047730938], [-90.21731462328768, 38.68622735124252], [-90.22305676434677, 38.68636394364878], [-90.22879894429497, 38.686500254522386], [-90.23454116305246, 38.68663628385762], [-90.24028342053883, 38.68677203164864], [-90.24602571667472, 38.6869074978898], [-90.25176805137988, 38.687042682575346], [-90.25448148952661, 38.687211191165325], [-90.25716081636847, 38.687587283159054], [-90.25978025038137, 38.68816734059031], [-90.26231458461565, 38.68894578273871], [-90.26473942869937, 38.68991511966224], [-90.26703144309165, 38.69106602406576], [-90.26916856335463, 38.69238742082303], [-90.27113021230316, 38.693866593302175], [-90.27519253028525, 38.69724557285202], [-90.27666633981836, 38.69757166483112], [-90.27920120529798, 38.698349758181315], [-90.2816266087895, 38.699318762948174], [-90.28391920538377, 38.70046935503287], [-90.28533051820587, 38.701341553683626], [-90.28571225823892, 38.70135042167738], [-90.29145593795633, 38.70148369925797], [-90.29417006818355, 38.70165130849441], [-90.29685019187859, 38.70202651614488], [-90.29947051987261, 38.702605712742425], [-90.30200583664056, 38.7033833258421], [-90.30443174238587, 38.70435187347451], [-90.30672488738308, 38.70550203593784], [-90.30813658925514, 38.70637397185152], [-90.30851836323731, 38.706382766350565], [-90.31123274135486, 38.706549986991675], [-90.31391315886415, 38.70692481253762], [-90.31653382377787, 38.70750363719363], [-90.31906951733968, 38.70828089209016], [-90.3214958361394, 38.70924909870224], [-90.32378942648987, 38.710398940608485], [-90.32592820883292, 38.7117193529091], [-90.32789159003265, 38.71319762845286], [-90.33195774060701, 38.71657475830911], [-90.33343224235162, 38.71690015630448], [-90.33596846694529, 38.717677061492374], [-90.33839534508402, 38.71864493501111], [-90.34068951771305, 38.71979446364469], [-90.34282889968523, 38.721114585509525], [-90.3447928921075, 38.72259259625256], [-90.35037220862293, 38.72722409409432], [-90.35156504340215, 38.72821417997227], [-90.35212861019096, 38.727966649272204], [-90.35462336174731, 38.72711059914256], [-90.35721316896262, 38.72645015922305], [-90.35987311041816, 38.725991685171465], [-90.36257759144108, 38.72573958924124], [-90.36530058975006, 38.725696297907874], [-90.37104659126219, 38.725825734153126], [-90.37376193250385, 38.725991531810216], [-90.37644348065365, 38.72636495793212], [-90.37906543287822, 38.72694242017334], [-90.38160255807432, 38.727718362761145], [-90.38403043910101, 38.72868531978978], [-90.38632570728659, 38.72983398685866], [-90.38846626697655, 38.73115331037499], [-90.39043150797946, 38.7326305936724], [-90.39220250387804, 38.73425161893593], [-90.39376219430261, 38.73600078377334], [-90.39509554941148, 38.737861251130326], [-90.39618971498723, 38.73981511111945], [-90.39703413673867, 38.741843553216654], [-90.39762066259145, 38.74392704717772], [-90.3979436219579, 38.74604553094188], [-90.39799988119319, 38.7481786037197], [-90.39778887467159, 38.75030572241067], [-90.39731261114912, 38.752406399460945], [-90.39657565531587, 38.7544604002549], [-90.3955850846814, 38.75644793813674], [-90.39435042217572, 38.7583498651779], [-90.39288354508561, 38.760147856845094], [-90.39119857117831, 38.76182458878047], [-90.38931172308945, 38.76336390397965], [-90.3872411722679, 38.76475096874483], [-90.38500686397326, 38.76597241589733], [-90.38263032501136, 38.76701647385679], [-90.38013445606636, 38.76787308033047], [-90.37754331064292, 38.76853397950537], [-90.37582210345451, 38.76883071598134]]]}}, {"id": "2", "type": "Feature", "properties": {"route_run_id": "stl_midamerica_to_st_louis_lambert_2026-03-07_0226", "route_pair": "midamerica_to_st_louis_lambert", "route_pair_label": "MidAmerica to St. Louis Lambert", "origin_label": "MidAmerica St. Louis Airport", "destination_label": "St. Louis Lambert International Airport", "origin_lat": 38.5451731, "origin_lon": -89.8351856, "destination_lat": 38.7486982, "destination_lon": -90.3700257, "traffic_date": "2026-03-07", "traffic_dataset": "March 7th - Saturday", "weight_id": "w_0226", "distance_weight": 0.4, "population_weight": 0.4, "traffic_weight": 0.0, "airspace_weight": 0.2, "path_nodes": 98, "path_node_ids": [8877, 8881, 8904, 8922, 8923, 8927, 9145, 10016, 10018, 10062, 10055, 10058, 10094, 10096, 10103, 10104, 10110, 10109, 10516, 10515, 10514, 10517, 10522, 10299, 10300, 10301, 10309, 10308, 10533, 10363, 10350, 10351, 10366, 10376, 10374, 10379, 10614, 10407, 10410, 10411, 10408, 2604, 2605, 2606, 2603, 10715, 10714, 10713, 10722, 2597, 10723, 2596, 2876, 2875, 2874, 2873, 2885, 2886, 2884, 2883, 2890, 2891, 2895, 3904, 3925, 3926, 3931, 3951, 3954, 3953, 3966, 3944, 3977, 3976, 3941, 4043, 4066, 4067, 4068, 4185, 4187, 4186, 4076, 4075, 4082, 4084, 5080, 5084, 5310, 5311, 5337, 5320, 5322, 5323, 5346, 5357, 5358, 5364], "elapsed_seconds": 0.04428849997930229, "status": "success", "failure_reason": "", "route_distance_km": 73.20963090489165, "distance_cost_sum": 80.57193322251891, "population_cost_sum": 16.535156841253748, "traffic_cost_sum": 51.19703279408035, "airspace_cost_sum": 51.4, "total_weighted_score": 49.12283602550907, "clustering_method": "hierarchical_jaccard", "distance_method": "jaccard", "direct_cluster_number": 4, "hierarchical_jaccard_cluster": "hier_jaccard_004", "hierarchical_jaccard_cluster_source": "hier_jaccard_005", "representative_route_run_id": "stl_midamerica_to_st_louis_lambert_2026-03-07_0226", "representative_mean_frechet_miles": 0.999128075167868, "cluster_size": 24, "cluster_weight_space_percent": 16.0, "merged_cluster_id": "frechet_merged_003", "source_jaccard_clusters": "hier_jaccard_004", "corridor_width_m": 4828.0, "corridor_buffer_m": 2414.0}, "geometry": {"type": "Polygon", "coordinates": [[[-90.36620830547047, 38.71730819032093], [-90.36790369496646, 38.71768179283902], [-90.37044036332412, 38.71845796332185], [-90.3728677738759, 38.719425137553124], [-90.37516256246629, 38.72057400904133], [-90.37730263804572, 38.7218935222246], [-90.37926739507256, 38.723370978608166], [-90.38484909173766, 38.72800090864212], [-90.3904315079947, 38.73263059368504], [-90.39220250389162, 38.73425161894969], [-90.39376219431443, 38.736000783788086], [-90.39509554942138, 38.737861251145894], [-90.39618971499515, 38.73981511113572], [-90.39703413674451, 38.74184355323344], [-90.39762066259516, 38.74392704719489], [-90.39794362195944, 38.746045530959236], [-90.39799988119255, 38.74817860373709], [-90.39778887466878, 38.750305722427946], [-90.39731261114417, 38.752406399477906], [-90.39657565530882, 38.7544604002714], [-90.39558508467232, 38.75644793815262], [-90.39435042216469, 38.75834986519301], [-90.39288354507273, 38.76014785685929], [-90.39119857116371, 38.761824588793594], [-90.38931172307329, 38.7633639039916], [-90.38724117225034, 38.764750968755486], [-90.38500686395444, 38.76597241590659], [-90.38263032499147, 38.76701647386455], [-90.38013445604558, 38.767873080336656], [-90.37754331062148, 38.76853397950995], [-90.37488186274496, 38.76899280179902], [-90.37217576568463, 38.76924512537238], [-90.36945110404729, 38.76928851885734], [-90.36673414166775, 38.76912256480807], [-90.36405106775534, 38.768748863708154], [-90.36142774377767, 38.7681710184703], [-90.3588894535537, 38.767394599585515], [-90.35646065899577, 38.76642709126338], [-90.35416476388211, 38.76527781909036], [-90.35202388795967, 38.76395785991298], [-90.35005865357259, 38.762479934825734], [-90.34598913087285, 38.759103336580374], [-90.34451370482782, 38.75877806647274], [-90.34197594662452, 38.758001296925116], [-90.33954771252525, 38.75703345464919], [-90.33725240089159, 38.75588386845008], [-90.33583938311664, 38.755012243828375], [-90.33545734168196, 38.75500352938619], [-90.32970916731382, 38.754872261380704], [-90.32699289598185, 38.75470540464522], [-90.3243106186532, 38.75433081582991], [-90.32168818909463, 38.75375210641422], [-90.3191508824771, 38.752974855226576], [-90.3167231512025, 38.75200655450377], [-90.31442838876916, 38.750856537471506], [-90.31228870397527, 38.74953588815372], [-90.31032470765425, 38.74805733429124], [-90.3047465479847, 38.74342397209223], [-90.29916910827114, 38.738790366034756], [-90.29359238833463, 38.73415651625186], [-90.2918237135745, 38.73253407537717], [-90.29026666244839, 38.73078363991694], [-90.28893622093712, 38.72892207586834], [-90.28784518854741, 38.726967318516], [-90.28700405556118, 38.724938199420826], [-90.28667600777545, 38.723765913153954], [-90.28492013482067, 38.72230632032001], [-90.2849191183737, 38.72230629669844], [-90.27917380339166, 38.722172637890644], [-90.2734285265696, 38.72203869714868], [-90.27071370418734, 38.72187058000458], [-90.26803301697859, 38.72149475156443], [-90.26541230334108, 38.720914835269355], [-90.26287682185973, 38.720136421589665], [-90.26045100729532, 38.719167013971244], [-90.25815823462234, 38.718015956307795], [-90.2560205934135, 38.71669434264699], [-90.25405867476242, 38.71521491001257], [-90.24999642898091, 38.711835203667945], [-90.24852247150433, 38.711508769485036], [-90.24796271312775, 38.71133681203888], [-90.24739078207396, 38.71148211337516], [-90.2447308173162, 38.71193801955297], [-90.24202660774591, 38.71218739046772], [-90.2393042197517, 38.71222782325271], [-90.23355993113057, 38.71209195259721], [-90.22781568129191, 38.71195580014324], [-90.22207147031546, 38.71181936589647], [-90.21632729828163, 38.71168264986273], [-90.2105831652702, 38.71154565204775], [-90.20786897458522, 38.71137609362801], [-90.20518909339611, 38.71099884856699], [-90.20256935230512, 38.71041755397779], [-90.20003500048894, 38.709637813629946], [-90.1976104617796, 38.708667143767066], [-90.19531909880963, 38.70751490045473], [-90.19318298751722, 38.706192189168945], [-90.19122270420279, 38.7047117575078], [-90.1856557946509, 38.7000730869642], [-90.1815977328454, 38.69669114610568], [-90.18012444657012, 38.69636387113442], [-90.17759085605547, 38.69558366984735], [-90.17516711330519, 38.6946125612324], [-90.17287657325979, 38.69345990558339], [-90.17074130390671, 38.69213681234789], [-90.16878187341439, 38.69065603280029], [-90.16321751616634, 38.68601637876246], [-90.15995762844582, 38.68329783992673], [-90.15995661265862, 38.68329781523966], [-90.15421502806174, 38.68315813404407], [-90.14847348330989, 38.683018171401315], [-90.14273197848264, 38.68287792731728], [-90.13699051366035, 38.68273740179796], [-90.13124908892256, 38.6825965948492], [-90.12550770434949, 38.68245550647704], [-90.1197663600207, 38.68231413668735], [-90.11402505601626, 38.68217248548618], [-90.10828379241605, 38.68203055287945], [-90.1025425693, 38.68188833887323], [-90.09680138674766, 38.681745843473436], [-90.09106024483924, 38.68160306668613], [-90.08531914365453, 38.681460008517384], [-90.07957808327332, 38.68131666897316], [-90.07383706377544, 38.68117304805956], [-90.06809608524084, 38.68102914578263], [-90.06235514774946, 38.680884962148475], [-90.05661425138096, 38.68074049716317], [-90.05087339621511, 38.68059575083279], [-90.04513258233213, 38.68045072316348], [-90.0393918098112, 38.68030541416131], [-90.03667945490913, 38.680131938014554], [-90.03400188168489, 38.67975084349851], [-90.03138489842034, 38.67916580487741], [-90.02885372761533, 38.67838246204695], [-90.02643276233003, 38.67740836600122], [-90.02414533063155, 38.67625290584388], [-90.02201347043808, 38.67492721805683], [-90.02005771694749, 38.67344407891214], [-90.0145046948977, 38.668797759638935], [-90.0089523894193, 38.66415120185029], [-90.00569956242505, 38.66142861926788], [-90.00569854708658, 38.66142859325341], [-90.00298703492177, 38.661254365804375], [-90.00031038860746, 38.66087253302532], [-89.99769440746661, 38.66028677630435], [-89.99516430431242, 38.659502742464255], [-89.99274446188534, 38.65852798916216], [-89.99045819740063, 38.6573719118363], [-89.98905152756699, 38.65649632020761], [-89.9886701247406, 38.656486493427145], [-89.985958865675, 38.656311879654325], [-89.98328251806157, 38.65592966738754], [-89.98066687833527, 38.65534354167723], [-89.97813715600778, 38.65455915290624], [-89.97571773013681, 38.653584062155076], [-89.9734319139097, 38.652427668115465], [-89.97130172963286, 38.651101116266325], [-89.9693476963128, 38.64961719119895], [-89.96609706568951, 38.646893587155134], [-89.96609605059314, 38.646893560805196], [-89.96035837227315, 38.64674448081471], [-89.95462073644102, 38.64659511989879], [-89.94888314317568, 38.64644547806366], [-89.94314559255729, 38.646295555315646], [-89.93740808466542, 38.646145351661104], [-89.93167061957938, 38.645994867106324], [-89.9259331973793, 38.6458441016577], [-89.92322258811512, 38.64566805386637], [-89.92054706330687, 38.645284433284594], [-89.9179324114319, 38.64469693855449], [-89.91540383244596, 38.64391123326861], [-89.91298569434615, 38.64293489120711], [-89.91070129786293, 38.641777323127954], [-89.90857265157166, 38.6404496858263], [-89.90834233643157, 38.640274522054256], [-89.90665157691147, 38.63989441470303], [-89.9041233032864, 38.6391084767353], [-89.90170549152744, 38.63813191347915], [-89.89942143921047, 38.63697413782478], [-89.89729315158456, 38.63564630856724], [-89.89534112932013, 38.634161222602934], [-89.88979944024325, 38.62950940539956], [-89.88425846600967, 38.62485735204231], [-89.87871820643942, 38.62020506266347], [-89.87317866135233, 38.61555253739514], [-89.86763983056835, 38.610899776369436], [-89.86210171390742, 38.606246779718326], [-89.85656431118979, 38.60159354757427], [-89.85102762223508, 38.59694008006892], [-89.84549164686364, 38.59228637733464], [-89.83995638489527, 38.58763243950324], [-89.83442183615014, 38.58297826670677], [-89.8288880004483, 38.57832385907725], [-89.82335487760979, 38.57366921674654], [-89.81782246745469, 38.56901433984653], [-89.81229076980324, 38.56435922850931], [-89.81053737176009, 38.56273008439564], [-89.80899587495975, 38.56097382975332], [-89.8076811152514, 38.55910738647742], [-89.80660574085758, 38.55714873665962], [-89.80578009109041, 38.55511674913331], [-89.80521209743819, 38.55303099752744], [-89.80490720794948, 38.55091157159009], [-89.80486833561342, 38.5487788836054], [-89.80506761643761, 38.54427987620952], [-89.80529508270895, 38.542154461738676], [-89.80578668672905, 38.54005678862944], [-89.8065376725369, 38.53800705441392], [-89.80754078847232, 38.53602499343029], [-89.80878635775223, 38.5341296869908], [-89.81026237228545, 38.53233937988829], [-89.8119546087991, 38.530671304998016], [-89.81384676613935, 38.52914151765227], [-89.81592062241252, 38.52776474136969], [-89.81815621044694, 38.526554226411676], [-89.82053200988736, 38.525521622514496], [-89.82302515407908, 38.52467686700986], [-89.82561164976424, 38.52402808939931], [-89.82826660749411, 38.523581533290866], [-89.8309644805635, 38.52334149644122], [-89.83367931019588, 38.52331028947394], [-89.83638497464992, 38.52348821366765], [-89.83905543988263, 38.52387355802604], [-89.8416650093897, 38.52446261565945], [-89.84418857085059, 38.525249719323696], [-89.84660183723477, 38.52622729577998], [-89.84888158007548, 38.527385938461066], [-89.85100585268815, 38.52871449775372], [-89.8529542012026, 38.5302001880401], [-89.85470786138927, 38.531828710479715], [-89.85624993938957, 38.533584390363266], [-89.85756557460964, 38.53545032772885], [-89.85864208320109, 38.537408559803005], [-89.85946908073285, 38.539440233714394], [-89.85978944215289, 38.54061343155854], [-89.86382331332256, 38.544005640216845], [-89.86935703597892, 38.548658400412144], [-89.87489147056147, 38.553310925538405], [-89.88042661724954, 38.55796321546369], [-89.88596247622252, 38.562615270056], [-89.89149904765986, 38.56726708918345], [-89.89703633174108, 38.571918672714126], [-89.90257432864544, 38.576570020515824], [-89.90811303855276, 38.58122113245688], [-89.91365246164212, 38.585872008404834], [-89.91919259809333, 38.59052264822796], [-89.92473344808583, 38.59517305179404], [-89.92877341381202, 38.59856324529734], [-89.93024337131007, 38.598893567617786], [-89.93277058386927, 38.59967889828796], [-89.93518760270115, 38.60065478808556], [-89.93747116331659, 38.601811846680796], [-89.93887613783474, 38.60268799704198], [-89.93925723813703, 38.60269797453429], [-89.94499129495368, 38.60284794629992], [-89.95072539439732, 38.60299763759172], [-89.9564595363882, 38.60314704840339], [-89.96219372084687, 38.6032961787286], [-89.96792794769419, 38.60344502856111], [-89.97366221685019, 38.603593597894616], [-89.97939652823578, 38.60374188672283], [-89.98210578722882, 38.603916573303266], [-89.98478020872108, 38.60429873689996], [-89.98739405824503, 38.60488470119522], [-89.98992218241345, 38.60566882868629], [-89.99234025041528, 38.60664357476082], [-89.9946249877048, 38.60779956008853], [-89.99675439965766, 38.60912566064241], [-89.9987079830586, 38.610609114493634], [-90.00195835826703, 38.61333180919162], [-90.00195937292384, 38.61333183521143], [-90.00466908071155, 38.6135060150439], [-90.00734400915006, 38.61388768073512], [-90.00995841890796, 38.61447316075279], [-90.0124871512234, 38.61525682224987], [-90.01490586945116, 38.61623112509559], [-90.01719129280693, 38.61738669422418], [-90.0185975931499, 38.61826193508034], [-90.01897880391071, 38.6182716562286], [-90.0216887639835, 38.618445450253624], [-90.02436399013928, 38.61882673690731], [-90.02697874019067, 38.61941184830013], [-90.02950785211212, 38.620195155128556], [-90.03192698561767, 38.62116912067229], [-90.03421285593988, 38.62232437311028], [-90.03634345758282, 38.623649795469866], [-90.0382982759129, 38.625132632354], [-90.04384971737764, 38.62977777751498], [-90.04940187410382, 38.634422684059686], [-90.0526552791746, 38.63714407748295], [-90.05265629421368, 38.63714410307636], [-90.05839369096039, 38.63728862598246], [-90.06413112881341, 38.63743286797685], [-90.06986860769351, 38.63757682905349], [-90.07560612752091, 38.63772050920632], [-90.0813436882158, 38.63786390842926], [-90.08708128969859, 38.63800702671624], [-90.0928189318897, 38.63814986406123], [-90.09855661470941, 38.638292420458235], [-90.10429433807796, 38.6384346959012], [-90.11003210191562, 38.638576690384106], [-90.11576990614299, 38.638718403901024], [-90.12150775068011, 38.638859836445945], [-90.12724563544734, 38.63900098801288], [-90.13298356036493, 38.6391418585959], [-90.13872152535345, 38.63928244818903], [-90.14445953033284, 38.63942275678635], [-90.15019757522363, 38.639562784381965], [-90.15593565994584, 38.639702530969906], [-90.16167378442023, 38.639841996544334], [-90.16741194856674, 38.63998118109935], [-90.17315015230554, 38.64012008462904], [-90.17586152831788, 38.640290347100006], [-90.17853859785225, 38.64066816390616], [-90.18115560104557, 38.64124990050291], [-90.18368735427258, 38.642029960024765], [-90.1861094919278, 38.64300083697237], [-90.18839870044386, 38.64415318923003], [-90.19053294231675, 38.64547592773025], [-90.19249166799955, 38.646956322913134], [-90.19805513002335, 38.65159456682009], [-90.20211158258891, 38.65497589232846], [-90.20358414811972, 38.655302863901134], [-90.20611666056894, 38.65608246336478], [-90.20853959202148, 38.65705290228265], [-90.21082962129164, 38.65820484275463], [-90.21296470299652, 38.65952719967848], [-90.21492427952477, 38.66100724717111], [-90.22049028876762, 38.66564450741891], [-90.22375181090264, 38.66836141938254], [-90.22375282653425, 38.66836144350771], [-90.22949357165606, 38.66849766718214], [-90.22987511936843, 38.66850671102578], [-90.23134977621352, 38.667702255270555], [-90.23372495888732, 38.66666122047267], [-90.23621879772467, 38.66580766525483], [-90.23880729262441, 38.66514980368214], [-90.24146553480864, 38.664693966643554], [-90.2441679459462, 38.66444454106112], [-90.2468885236422, 38.6644039277579], [-90.25262906482664, 38.664539004350054], [-90.25534165868204, 38.66470746234452], [-90.25802015826994, 38.66508350523671], [-90.2606387900089, 38.66566351553032], [-90.2631723546538, 38.666441912954674], [-90.26559646922593, 38.66741120799317], [-90.26788780119566, 38.66856207374779], [-90.27002429268752, 38.66988343545763], [-90.27025562426637, 38.67005792168459], [-90.27194933002771, 38.67043286123322], [-90.27448319713373, 38.671211023381574], [-90.27690763558489, 38.67218009441896], [-90.27919930974423, 38.673330749602556], [-90.28133615845256, 38.67465191619842], [-90.28329760714664, 38.67613087978424], [-90.28656206375666, 38.67884613760454], [-90.28656307958994, 38.678846161189654], [-90.29230496426314, 38.678979332210695], [-90.29804688684719, 38.679112221720665], [-90.30076019825505, 38.67927964835871], [-90.3034395364662, 38.67965467715632], [-90.30605911985418, 38.68023370036328], [-90.30859374004618, 38.681011147197786], [-90.31101900393939, 38.681979537284214], [-90.31331156797981, 38.68312955243017], [-90.31544936247165, 38.684450126061456], [-90.31741180377641, 38.68592854946562], [-90.32298656079882, 38.69056121653519], [-90.32856203593344, 38.69519363995744], [-90.33413822935836, 38.699825819599255], [-90.33590713526401, 38.701447632975764], [-90.33746474084363, 38.703197484652236], [-90.33879603629963, 38.70505853093909], [-90.3398881872275, 38.70701285634873], [-90.34073065872782, 38.709041645846845], [-90.34105954609856, 38.710213811959214], [-90.34281632939815, 38.71167259340728], [-90.34281734574277, 38.71167261652018], [-90.34856212018832, 38.711803118232346], [-90.35127684999344, 38.71196941850691], [-90.35395773092483, 38.712343339158394], [-90.3565789665518, 38.71292128308793], [-90.35911533264712, 38.713697689891326], [-90.36154241935404, 38.71466508919742], [-90.36383686562408, 38.71581417234921], [-90.36597658369257, 38.71713388174732], [-90.36620830547047, 38.71730819032093]]]}}, {"id": "3", "type": "Feature", "properties": {"route_run_id": "stl_midamerica_to_st_louis_lambert_2026-03-07_0067", "route_pair": "midamerica_to_st_louis_lambert", "route_pair_label": "MidAmerica to St. Louis Lambert", "origin_label": "MidAmerica St. Louis Airport", "destination_label": "St. Louis Lambert International Airport", "origin_lat": 38.5451731, "origin_lon": -89.8351856, "destination_lat": 38.7486982, "destination_lon": -90.3700257, "traffic_date": "2026-03-07", "traffic_dataset": "March 7th - Saturday", "weight_id": "w_0067", "distance_weight": 0.1, "population_weight": 0.0, "traffic_weight": 0.0, "airspace_weight": 0.9, "path_nodes": 96, "path_node_ids": [8877, 8876, 8892, 8897, 8899, 8926, 9788, 10013, 10014, 10036, 10052, 10054, 10061, 10051, 10049, 10048, 10050, 10253, 10252, 10241, 10240, 10248, 10246, 10247, 10245, 10231, 10230, 10262, 10150, 10148, 10149, 10151, 10161, 10159, 10158, 10160, 10166, 10168, 10167, 10169, 2247, 2269, 2268, 2257, 2256, 2254, 2279, 2293, 2296, 2301, 2303, 2491, 2492, 2818, 2496, 2507, 2506, 2828, 2505, 2809, 2811, 2810, 2728, 2730, 2731, 2729, 2715, 2717, 2714, 2716, 2738, 2741, 2745, 2747, 2684, 2687, 3987, 3990, 4016, 4017, 4022, 4029, 4034, 4060, 4064, 5048, 5052, 5076, 5082, 5299, 5304, 5319, 5321, 5357, 5358, 5364], "elapsed_seconds": 0.054163899971172214, "status": "success", "failure_reason": "", "route_distance_km": 71.90057520712594, "distance_cost_sum": 79.13123277148179, "population_cost_sum": 53.29567736851651, "traffic_cost_sum": 33.22130483796573, "airspace_cost_sum": 46.2, "total_weighted_score": 49.49312327714821, "clustering_method": "hierarchical_jaccard", "distance_method": "jaccard", "direct_cluster_number": 5, "hierarchical_jaccard_cluster": "hier_jaccard_005", "hierarchical_jaccard_cluster_source": "hier_jaccard_010", "representative_route_run_id": "stl_midamerica_to_st_louis_lambert_2026-03-07_0067", "representative_mean_frechet_miles": 0.5625144652299695, "cluster_size": 21, "cluster_weight_space_percent": 14.0, "merged_cluster_id": "frechet_merged_004", "source_jaccard_clusters": "hier_jaccard_005", "corridor_width_m": 4828.0, "corridor_buffer_m": 2414.0}, "geometry": {"type": "Polygon", "coordinates": [[[-90.21859576507518, 38.65317489474534], [-90.21859474966251, 38.65317487058334], [-90.21285528079454, 38.65303815737488], [-90.20711585090623, 38.6529011629753], [-90.20137646007731, 38.652763887390364], [-90.19563710838773, 38.65262633062588], [-90.18989779591683, 38.65248849268764], [-90.18415852274512, 38.652350373581484], [-90.17841928895173, 38.65221197331325], [-90.17268009461674, 38.65207329188875], [-90.16694093982012, 38.65193432931388], [-90.16120182464098, 38.65179508559444], [-90.15546274915985, 38.651655560736394], [-90.14972371345613, 38.651515754745574], [-90.14398471760971, 38.6513756676279], [-90.13824576169998, 38.65123529938926], [-90.13250684580723, 38.65109465003562], [-90.12979522911782, 38.65092336982713], [-90.12711810683841, 38.650544431701405], [-90.12450128290855, 38.649961489107376], [-90.12196997831214, 38.64918016170937], [-90.11954858743364, 38.648207981050646], [-90.11726044249072, 38.647054317753515], [-90.11512758833615, 38.64573029096733], [-90.11489672743066, 38.64555551430707], [-90.11320456181018, 38.64517835004216], [-90.1106735607519, 38.64439678854441], [-90.10825249464193, 38.643424385175464], [-90.10596469255842, 38.642270512704506], [-90.10383219604049, 38.64094629229619], [-90.1036013786596, 38.64077149484873], [-90.10190939375097, 38.64039417335576], [-90.09937869626451, 38.6396123778747], [-90.09695795493816, 38.63863975191564], [-90.09467049571052, 38.63748567039344], [-90.09253835680703, 38.636161256486986], [-90.09058207616424, 38.634679274180115], [-90.08502711456948, 38.63003622012627], [-90.07947286835115, 38.6253929267965], [-90.07621890370002, 38.62267225654484], [-90.07621788884353, 38.622672231163826], [-90.07048156507952, 38.62252862787394], [-90.06474528222957, 38.62238474381016], [-90.05900904037364, 38.62224057897864], [-90.0532728395908, 38.6220961333854], [-90.04753667996101, 38.621951407036555], [-90.04180056156375, 38.621806399938215], [-90.03606448447863, 38.62166111209649], [-90.03032844878491, 38.621515543517475], [-90.02459245456276, 38.62136969420737], [-90.01885650189136, 38.621223564172304], [-90.0131205908503, 38.62107715341843], [-90.00738472151902, 38.620930461951886], [-90.00164889397766, 38.62078348977896], [-89.99591310830513, 38.62063623690576], [-89.9901773645812, 38.62048870333852], [-89.98444166288562, 38.62034088908348], [-89.97870600329773, 38.620192794146874], [-89.97297038589709, 38.62004441853493], [-89.96723481076316, 38.61989576225392], [-89.96149927797576, 38.6197468253101], [-89.95576378761423, 38.61959760770977], [-89.95002833975795, 38.6194481094592], [-89.94429293448681, 38.61929833056471], [-89.93855757188007, 38.61914827103261], [-89.93282225201733, 38.61899793086924], [-89.92708697497788, 38.61884731008091], [-89.92135174084189, 38.61869640867404], [-89.91561654968794, 38.6185452266549], [-89.90988140159622, 38.618393764029925], [-89.90414629664608, 38.618242020805496], [-89.89841123491676, 38.61808999698799], [-89.8957017783405, 38.61791335603029], [-89.8930274662351, 38.617529152515175], [-89.89041407535917, 38.61694109070869], [-89.88788679348322, 38.61615483967181], [-89.88546997607155, 38.61517797844441], [-89.88318691109652, 38.614019922785], [-89.88105959427446, 38.61269183418162], [-89.8791085169065, 38.61120651202272], [-89.87356959884976, 38.60655402718657], [-89.86803139477837, 38.60190130667124], [-89.86249390451245, 38.59724835060889], [-89.85695712787188, 38.59259515913134], [-89.85142106467708, 38.58794173237097], [-89.8458857147479, 38.58328807045952], [-89.84035107790457, 38.57863417352908], [-89.8348171539672, 38.57398004171155], [-89.82928394275602, 38.56932567513901], [-89.82525044496454, 38.56593229556863], [-89.82378172274481, 38.56560069976069], [-89.82125703213198, 38.56481310908327], [-89.81884288991746, 38.56383497410062], [-89.81656255822567, 38.56267572284393], [-89.81443800637038, 38.56134652831356], [-89.81248969895286, 38.559860200539255], [-89.81073639862333, 38.55823106285978], [-89.80919498541124, 38.55647481362773], [-89.80788029436297, 38.55460837468475], [-89.80680497304293, 38.55264972807962], [-89.805979360256, 38.55061774261388], [-89.8054113871388, 38.54853199189588], [-89.80510650154712, 38.546412565664724], [-89.80506761643771, 38.54427987620715], [-89.80529508270935, 38.54215446173632], [-89.80578668672975, 38.540056788627126], [-89.80653767253787, 38.53800705441165], [-89.80754078847357, 38.536024993428114], [-89.80878635775375, 38.53412968698875], [-89.81026237228723, 38.53233937988635], [-89.81195460880109, 38.53067130499623], [-89.81384676614157, 38.52914151765065], [-89.81592062241492, 38.52776474136825], [-89.81815621044953, 38.52655422641042], [-89.82053200989006, 38.52552162251345], [-89.8230251540819, 38.52467686700904], [-89.82561164976717, 38.52402808939869], [-89.8282666074971, 38.52358153329049], [-89.83096448056651, 38.52334149644106], [-89.8336793101989, 38.523310289474026], [-89.83940648754941, 38.523465166994754], [-89.84211218108081, 38.52364295945561], [-89.84478269162241, 38.52402817449895], [-89.84739232223569, 38.52461710647779], [-89.84991596001466, 38.52540408935556], [-89.85232931719757, 38.526381551054655], [-89.85460916444764, 38.527540086111365], [-89.85673355407965, 38.528868545947816], [-89.85868203110161, 38.53035414590338], [-89.86421441786476, 38.53500710042859], [-89.86974751605804, 38.53965982009454], [-89.87528132586084, 38.5443123047695], [-89.88081584745248, 38.54896455432161], [-89.88635108101217, 38.55361656861883], [-89.89188702671933, 38.55826834752935], [-89.89742368475332, 38.56291989092123], [-89.90296105529355, 38.567571198662584], [-89.9084991385192, 38.57222227062116], [-89.91174429656705, 38.574947277748365], [-89.91174531059855, 38.57494730452808], [-89.91747701272014, 38.57509853327343], [-89.9232087578033, 38.57524948184527], [-89.92894054576861, 38.57540015023718], [-89.9346723765374, 38.57555053844291], [-89.94040425002937, 38.575700646456035], [-89.94613616616594, 38.575850474270275], [-89.95186812486747, 38.57600002187931], [-89.95760012605474, 38.57614928927685], [-89.96333216964818, 38.57629827645657], [-89.96906425556878, 38.576446983412225], [-89.97479638373702, 38.57659541013755], [-89.98052855407339, 38.576743556626255], [-89.98626076649877, 38.57689142287212], [-89.99199302093378, 38.57703900886892], [-89.99772531729909, 38.57718631461045], [-90.00345765551502, 38.57733334009046], [-90.00919003550248, 38.577480085302774], [-90.01492245718231, 38.57762655024124], [-90.02065492047446, 38.57777273489962], [-90.02638742530016, 38.57791863927179], [-90.03211997157983, 38.57806426335162], [-90.03785255923414, 38.57820960713297], [-90.04358518818333, 38.57835467060967], [-90.04931785834857, 38.57849945377564], [-90.05505056965016, 38.57864395662479], [-90.06078332200873, 38.57878817915101], [-90.06651611534473, 38.578932121348195], [-90.07224894957913, 38.57907578321036], [-90.07798182463199, 38.579219164731356], [-90.08371474042428, 38.57936226590517], [-90.08944769687669, 38.57950508672582], [-90.0921564775657, 38.57967719661225], [-90.094830751874, 38.58005683004683], [-90.09744478676343, 38.580640335023105], [-90.09997342709354, 38.58142209767109], [-90.10239233713327, 38.58239459610696], [-90.10467823429536, 38.58354847260778], [-90.10680911286741, 38.584872623425916], [-90.1087644556031, 38.586354305389975], [-90.11431782593044, 38.59099618961592], [-90.11987191032395, 38.595637834466764], [-90.12392152482292, 38.599021640527724], [-90.1253925435143, 38.59934954274624], [-90.12792216996584, 38.6001307356239], [-90.13034210690256, 38.60110269170531], [-90.13262906188118, 38.60225605848747], [-90.13476101903404, 38.60357973713142], [-90.13499180231385, 38.60375447230611], [-90.13668314080634, 38.60413129021393], [-90.13921306999539, 38.604912249286215], [-90.14163333085638, 38.605883982878005], [-90.14392062783826, 38.60703714062693], [-90.14532837183842, 38.60791090905557], [-90.14570957090508, 38.60792021521766], [-90.15144511220467, 38.60806008603352], [-90.15718069326877, 38.60819967615578], [-90.16291631401742, 38.60833898557854], [-90.1686519743712, 38.60847801429595], [-90.17438767425011, 38.608616762302056], [-90.18012341357533, 38.608755229591104], [-90.18585919226658, 38.608893416157215], [-90.19159501024447, 38.60903132199455], [-90.19733086742968, 38.60916894709735], [-90.20306676374199, 38.60930629145969], [-90.20880269910246, 38.6094433550759], [-90.21453867343104, 38.60958013794013], [-90.22027468664825, 38.60971664004663], [-90.22601073867442, 38.60985286138961], [-90.23174682943034, 38.60998880196342], [-90.2344572947461, 38.610157668150315], [-90.23713364119547, 38.61053411370903], [-90.23975011586641, 38.61111451726922], [-90.24228154022346, 38.611893294772585], [-90.24470355184077, 38.61286295303784], [-90.24699283838933, 38.614014161660556], [-90.24912736164926, 38.615335842565955], [-90.25108656940921, 38.61681527636328], [-90.25665176462167, 38.621450804475494], [-90.26221767533039, 38.626086090654304], [-90.26778430171328, 38.63072113476705], [-90.2733516439483, 38.63535593668104], [-90.27891970221336, 38.639990496263465], [-90.28448847668646, 38.644624813381675], [-90.29005796754556, 38.64925888790281], [-90.29562817496871, 38.65389271969415], [-90.30119909913384, 38.65852630862282], [-90.30677074021905, 38.663159654556026], [-90.31234309840227, 38.66779275736078], [-90.31791617386163, 38.672425616904334], [-90.32348996677516, 38.67705823305366], [-90.32906447732097, 38.68169060567595], [-90.33463970567699, 38.686322734637976], [-90.34021565202156, 38.69095461980702], [-90.34579231653274, 38.695586261050074], [-90.35136969938844, 38.70021765823385], [-90.356947800767, 38.704848811225524], [-90.36810615980514, 38.71411038409984], [-90.37368641782109, 38.718740803716315], [-90.37926739507253, 38.72337097860813], [-90.38484909173766, 38.72800090864212], [-90.3904315079947, 38.73263059368504], [-90.39220250389162, 38.73425161894969], [-90.39376219431443, 38.736000783788086], [-90.39509554942138, 38.737861251145894], [-90.39618971499515, 38.73981511113572], [-90.39703413674451, 38.74184355323344], [-90.39762066259516, 38.74392704719489], [-90.39794362195944, 38.746045530959236], [-90.39799988119255, 38.74817860373709], [-90.39778887466878, 38.750305722427946], [-90.39731261114417, 38.752406399477906], [-90.39657565530882, 38.7544604002714], [-90.39558508467232, 38.75644793815262], [-90.39435042216469, 38.75834986519301], [-90.39288354507273, 38.76014785685929], [-90.39119857116371, 38.761824588793594], [-90.38931172307329, 38.7633639039916], [-90.38724117225034, 38.764750968755486], [-90.38500686395444, 38.76597241590659], [-90.38263032499147, 38.76701647386455], [-90.38013445604558, 38.767873080336656], [-90.37754331062148, 38.76853397950995], [-90.37488186274496, 38.76899280179902], [-90.37217576568463, 38.76924512537238], [-90.36945110404729, 38.76928851885734], [-90.36673414166775, 38.76912256480807], [-90.36405106775534, 38.768748863708154], [-90.36142774377767, 38.7681710184703], [-90.3588894535537, 38.767394599585515], [-90.35646065899577, 38.76642709126338], [-90.35416476388211, 38.76527781909036], [-90.35202388795967, 38.76395785991298], [-90.35005865357259, 38.762479934825734], [-90.3444767420245, 38.75784835055994], [-90.3388955510417, 38.7532165216637], [-90.33331508044553, 38.74858444827035], [-90.32773533005711, 38.743952130512994], [-90.31657798918893, 38.73468676243926], [-90.31100039835175, 38.73005371238919], [-90.30542352700766, 38.72542041850795], [-90.29984737497789, 38.720786880928436], [-90.29427194208391, 38.71615309978402], [-90.2886972281469, 38.71151907520752], [-90.2831232329883, 38.706884807331946], [-90.27754995642971, 38.70225029629062], [-90.27197739829224, 38.69761554221626], [-90.26640555839745, 38.69298054524195], [-90.26083443656671, 38.68834530550055], [-90.25526403262154, 38.6837098231251], [-90.24969434638331, 38.679074098248414], [-90.24412537767351, 38.67443813100337], [-90.23855712631364, 38.669801921522854], [-90.23298959212521, 38.66516546993969], [-90.22742277492965, 38.66052877638661], [-90.22185667454859, 38.655891840996496], [-90.21859576507518, 38.65317489474534]]]}}, {"id": "4", "type": "Feature", "properties": {"route_run_id": "stl_midamerica_to_st_louis_lambert_2026-03-07_0183", "route_pair": "midamerica_to_st_louis_lambert", "route_pair_label": "MidAmerica to St. Louis Lambert", "origin_label": "MidAmerica St. Louis Airport", "destination_label": "St. Louis Lambert International Airport", "origin_lat": 38.5451731, "origin_lon": -89.8351856, "destination_lat": 38.7486982, "destination_lon": -90.3700257, "traffic_date": "2026-03-07", "traffic_dataset": "March 7th - Saturday", "weight_id": "w_0183", "distance_weight": 0.3, "population_weight": 0.2, "traffic_weight": 0.0, "airspace_weight": 0.5, "path_nodes": 97, "path_node_ids": [8877, 8881, 8904, 8922, 8923, 8927, 9145, 10016, 10018, 10062, 10055, 10058, 10094, 10096, 10103, 10104, 10110, 10109, 10291, 10512, 10290, 10513, 10298, 10295, 10296, 10297, 10307, 10305, 10306, 10319, 10321, 10320, 10318, 10211, 10210, 10208, 10209, 10326, 10328, 10329, 10327, 2522, 2524, 2523, 2514, 2517, 2515, 2516, 2530, 2534, 2532, 2558, 2840, 2839, 2838, 2827, 2849, 2848, 2850, 2837, 2861, 2866, 2889, 3896, 3898, 3901, 3902, 3914, 3948, 3947, 3952, 3940, 3942, 3943, 3941, 4043, 4042, 4041, 4040, 4051, 4054, 4186, 4080, 4205, 4207, 4212, 5309, 5313, 5335, 5337, 5320, 5322, 5323, 5346, 5357, 5358, 5364], "elapsed_seconds": 0.055789100006222725, "status": "success", "failure_reason": "", "route_distance_km": 72.29260468015718, "distance_cost_sum": 79.56268655880336, "population_cost_sum": 22.4028729657628, "traffic_cost_sum": 52.79068304805938, "airspace_cost_sum": 47.6, "total_weighted_score": 52.14938056079359, "clustering_method": "hierarchical_jaccard", "distance_method": "jaccard", "direct_cluster_number": 8, "hierarchical_jaccard_cluster": "hier_jaccard_008", "hierarchical_jaccard_cluster_source": "hier_jaccard_011", "representative_route_run_id": "stl_midamerica_to_st_louis_lambert_2026-03-07_0183", "representative_mean_frechet_miles": 0.8929261941773061, "cluster_size": 20, "cluster_weight_space_percent": 13.333333333333334, "merged_cluster_id": "frechet_merged_005", "source_jaccard_clusters": "hier_jaccard_008, hier_jaccard_016, hier_jaccard_019", "corridor_width_m": 4828.0, "corridor_buffer_m": 2414.0}, "geometry": {"type": "Polygon", "coordinates": [[[-90.36620830547047, 38.71730819032093], [-90.36790369496646, 38.71768179283902], [-90.37044036332412, 38.71845796332185], [-90.3728677738759, 38.719425137553124], [-90.37516256246629, 38.72057400904133], [-90.37730263804572, 38.7218935222246], [-90.37926739507256, 38.723370978608166], [-90.38484909173766, 38.72800090864212], [-90.3904315079947, 38.73263059368504], [-90.39220250389162, 38.73425161894969], [-90.39376219431443, 38.736000783788086], [-90.39509554942138, 38.737861251145894], [-90.39618971499515, 38.73981511113572], [-90.39703413674451, 38.74184355323344], [-90.39762066259516, 38.74392704719489], [-90.39794362195944, 38.746045530959236], [-90.39799988119255, 38.74817860373709], [-90.39778887466878, 38.750305722427946], [-90.39731261114417, 38.752406399477906], [-90.39657565530882, 38.7544604002714], [-90.39558508467232, 38.75644793815262], [-90.39435042216469, 38.75834986519301], [-90.39288354507273, 38.76014785685929], [-90.39119857116371, 38.761824588793594], [-90.38931172307329, 38.7633639039916], [-90.38724117225034, 38.764750968755486], [-90.38500686395444, 38.76597241590659], [-90.38263032499147, 38.76701647386455], [-90.38013445604558, 38.767873080336656], [-90.37754331062148, 38.76853397950995], [-90.37488186274496, 38.76899280179902], [-90.37217576568463, 38.76924512537238], [-90.36945110404729, 38.76928851885734], [-90.36673414166775, 38.76912256480807], [-90.36405106775534, 38.768748863708154], [-90.36142774377767, 38.7681710184703], [-90.3588894535537, 38.767394599585515], [-90.35646065899577, 38.76642709126338], [-90.35416476388211, 38.76527781909036], [-90.35202388795967, 38.76395785991298], [-90.35005865357259, 38.762479934825734], [-90.34598913087285, 38.759103336580374], [-90.34451370482782, 38.75877806647274], [-90.34197594662452, 38.758001296925116], [-90.33954771252525, 38.75703345464919], [-90.33725240089159, 38.75588386845008], [-90.33583938311664, 38.755012243828375], [-90.33545734168196, 38.75500352938619], [-90.32970916731382, 38.754872261380704], [-90.32396103044842, 38.75474071107536], [-90.32124478526565, 38.75457372123947], [-90.31856255059954, 38.754199001587736], [-90.31594017980382, 38.75362016486241], [-90.31340294748053, 38.75284279112046], [-90.31097530531225, 38.75187437378105], [-90.30868064593469, 38.750724247194654], [-90.30654107714862, 38.749403496441445], [-90.30457720866501, 38.74792485023972], [-90.29899944685293, 38.74329122705688], [-90.29342240497843, 38.73865736010864], [-90.28784608286263, 38.73402324952812], [-90.2822704803267, 38.72938889544851], [-90.27669559719165, 38.72475429800267], [-90.27112143327896, 38.72011945732406], [-90.26554798840952, 38.715484373545394], [-90.25997526240467, 38.71084904679983], [-90.25671047185428, 38.7081330425473], [-90.25670945563205, 38.7081330186878], [-90.25096541047, 38.70799801505642], [-90.24522140384083, 38.707862729654295], [-90.23947743582481, 38.70772716248722], [-90.23373350650138, 38.707591313560826], [-90.2279896159508, 38.70745518288089], [-90.22224576425361, 38.707318770453206], [-90.21953168902259, 38.70714948795116], [-90.21685188691163, 38.70677251392419], [-90.2142321877608, 38.70619148286905], [-90.21169784034461, 38.705411996011534], [-90.20927326845671, 38.704441567148706], [-90.2069818350552, 38.70328955002055], [-90.20484561676454, 38.7019670479212], [-90.20461435390813, 38.701792435068526], [-90.20292032870448, 38.70141650633049], [-90.2003862848262, 38.700636784289735], [-90.19796203787381, 38.699666131610705], [-90.19567094766434, 38.69851390419098], [-90.1935350875053, 38.697191207350784], [-90.19157503127668, 38.695710788546165], [-90.18751691200276, 38.692329049961025], [-90.18604368253165, 38.69200185181091], [-90.18351017093677, 38.69122178181821], [-90.18108648428178, 38.69025079796266], [-90.17879597696856, 38.68909825933374], [-90.17666071667239, 38.68777527424948], [-90.17470127147874, 38.6862945929407], [-90.1691368349428, 38.6816552162311], [-90.16357311583009, 38.67701559841495], [-90.15801011396151, 38.672375739624904], [-90.15244782915823, 38.6677356399939], [-90.14918915539211, 38.66501684024013], [-90.14918813987288, 38.66501681546933], [-90.14344806922772, 38.664876661096926], [-90.13770803854882, 38.6647362254689], [-90.1319680479158, 38.66459550859118], [-90.12622809740824, 38.664454510469646], [-90.12048818710622, 38.664313231110285], [-90.11777611936346, 38.664141654065695], [-90.11509858934905, 38.663762424624224], [-90.11248140493949, 38.66317919904759], [-90.10994979059717, 38.66239759973292], [-90.10752814369293, 38.66142516084962], [-90.10523979890961, 38.66027125551386], [-90.10310680302044, 38.65894700521239], [-90.10114970223017, 38.65746517235958], [-90.09709808981209, 38.654080520157045], [-90.09562611813854, 38.653752225791926], [-90.09309503621488, 38.65297028007489], [-90.0906739495017, 38.651997511601834], [-90.08838618726787, 38.65084329666553], [-90.08625379065774, 38.649518759734924], [-90.08429730008721, 38.648036665983696], [-90.08104217330208, 38.645316092016124], [-90.06956489230583, 38.645028911212215], [-90.06382682080365, 38.64488491198588], [-90.05808879034453, 38.644740631767455], [-90.05235080100847, 38.64459607056307], [-90.04661285287541, 38.64445122837885], [-90.04087494602483, 38.6443061052209], [-90.03513708053586, 38.64416070109528], [-90.02939925648919, 38.64401501600821], [-90.02366147396363, 38.64386904996579], [-90.0179237330395, 38.6437228029742], [-90.0121860337958, 38.64357627503957], [-90.0064483763128, 38.64342946616815], [-90.00071076066997, 38.64328237636612], [-89.99497318694647, 38.64313500563961], [-89.98923565522303, 38.64298735399497], [-89.98349816557806, 38.642839421438296], [-89.97776071809227, 38.64269120797596], [-89.97202331284426, 38.64254271361405], [-89.9662859499146, 38.64239393835898], [-89.96054862938246, 38.64224488221695], [-89.9548113513277, 38.642095545194316], [-89.94907411582955, 38.6419459272973], [-89.94333692296806, 38.64179602853227], [-89.93759977282261, 38.64164584890552], [-89.9318626654728, 38.64149538842338], [-89.92612560099847, 38.64134464709225], [-89.92038857947894, 38.64119362491842], [-89.91465160099398, 38.64104232190833], [-89.91194121739004, 38.64086602077448], [-89.9092659473577, 38.64048215135824], [-89.90665157691147, 38.63989441470303], [-89.9041233032864, 38.6391084767353], [-89.90170549152744, 38.63813191347915], [-89.89942143921047, 38.63697413782478], [-89.89729315158456, 38.63564630856724], [-89.89534112932013, 38.634161222602934], [-89.88979944024325, 38.62950940539956], [-89.88425846600967, 38.62485735204231], [-89.87871820643942, 38.62020506266347], [-89.87317866135233, 38.61555253739514], [-89.86763983056835, 38.610899776369436], [-89.86210171390742, 38.606246779718326], [-89.85656431118979, 38.60159354757427], [-89.85102762223508, 38.59694008006892], [-89.84549164686364, 38.59228637733464], [-89.83995638489527, 38.58763243950324], [-89.83442183615014, 38.58297826670677], [-89.8288880004483, 38.57832385907725], [-89.82335487760979, 38.57366921674654], [-89.81782246745469, 38.56901433984653], [-89.81229076980324, 38.56435922850931], [-89.81053737176009, 38.56273008439564], [-89.80899587495975, 38.56097382975332], [-89.8076811152514, 38.55910738647742], [-89.80660574085758, 38.55714873665962], [-89.80578009109041, 38.55511674913331], [-89.80521209743819, 38.55303099752744], [-89.80490720794948, 38.55091157159009], [-89.80486833561342, 38.5487788836054], [-89.80506761643761, 38.54427987620952], [-89.80529508270895, 38.542154461738676], [-89.80578668672905, 38.54005678862944], [-89.8065376725369, 38.53800705441392], [-89.80754078847232, 38.53602499343029], [-89.80878635775223, 38.5341296869908], [-89.81026237228545, 38.53233937988829], [-89.8119546087991, 38.530671304998016], [-89.81384676613935, 38.52914151765227], [-89.81592062241252, 38.52776474136969], [-89.81815621044694, 38.526554226411676], [-89.82053200988736, 38.525521622514496], [-89.82302515407908, 38.52467686700986], [-89.82561164976424, 38.52402808939931], [-89.82826660749411, 38.523581533290866], [-89.8309644805635, 38.52334149644122], [-89.83367931019588, 38.52331028947394], [-89.83638497464992, 38.52348821366765], [-89.83905543988263, 38.52387355802604], [-89.8416650093897, 38.52446261565945], [-89.84418857085059, 38.525249719323696], [-89.84660183723477, 38.52622729577998], [-89.84888158007548, 38.527385938461066], [-89.85100585268815, 38.52871449775372], [-89.8529542012026, 38.5302001880401], [-89.85470786138927, 38.531828710479715], [-89.85624993938957, 38.533584390363266], [-89.85756557460964, 38.53545032772885], [-89.85864208320109, 38.537408559803005], [-89.85946908073285, 38.539440233714394], [-89.85978944215289, 38.54061343155854], [-89.86382331332256, 38.544005640216845], [-89.86935703597892, 38.548658400412144], [-89.87489147056147, 38.553310925538405], [-89.88042661724954, 38.55796321546369], [-89.88596247622252, 38.562615270056], [-89.89149904765986, 38.56726708918345], [-89.89703633174108, 38.571918672714126], [-89.90257432864544, 38.576570020515824], [-89.90811303855276, 38.58122113245688], [-89.91365246164212, 38.585872008404834], [-89.91919259809333, 38.59052264822796], [-89.92473344808583, 38.59517305179404], [-89.92798022761178, 38.597897667081774], [-89.92798124198164, 38.59789769373411], [-89.93371485634863, 38.598048202339584], [-89.93944851349112, 38.59819843052868], [-89.94518221332929, 38.59834837829503], [-89.950915955784, 38.59849804563237], [-89.95664974077579, 38.598647432534335], [-89.96238356822501, 38.598796538994605], [-89.96811743805264, 38.598945365007005], [-89.97385135017885, 38.59909391056518], [-89.97958530452445, 38.59924217566288], [-89.98531930100944, 38.5993901602938], [-89.99105333955535, 38.59953786445183], [-89.99678742008166, 38.59968528813059], [-90.00252154251002, 38.59983243132403], [-90.00825570675974, 38.59997929402579], [-90.01398991275238, 38.6001258762298], [-90.01972416040796, 38.60027217792982], [-90.02545844964688, 38.600418199119666], [-90.03119278039017, 38.600563939793254], [-90.03692715255777, 38.60070939994434], [-90.04266156607083, 38.60085457956689], [-90.04839602084898, 38.60099947865468], [-90.0541305168137, 38.60114409720169], [-90.05986505388503, 38.60128843520181], [-90.06559963198323, 38.601432492648904], [-90.07133425102901, 38.6015762695369], [-90.08853835305753, 38.60200591678598], [-90.09427313509876, 38.60214857137722], [-90.09698278328351, 38.60232060256217], [-90.09965792392171, 38.60270015808697], [-90.10227281565817, 38.60328358669574], [-90.10480229512515, 38.604065275255756], [-90.10722201853217, 38.60503770259994], [-90.10950869547743, 38.60619151169461], [-90.11164031275314, 38.60751559944704], [-90.11359634600862, 38.60899722329989], [-90.11764636417027, 38.61238125778818], [-90.11911761866267, 38.61270924781792], [-90.12164762914296, 38.613490590513734], [-90.12406791128008, 38.6144626886901], [-90.12635516931034, 38.615616188480914], [-90.12848738444836, 38.61693998977155], [-90.13044402660312, 38.61842135276461], [-90.13369995571901, 38.62114058614993], [-90.13370097060562, 38.62114061103154], [-90.13943750456995, 38.62128111066077], [-90.14517407848682, 38.621421329473705], [-90.15091069227637, 38.62156126746435], [-90.15664734585877, 38.62170092462681], [-90.1623840391549, 38.621840300955235], [-90.16509468746692, 38.62201078658714], [-90.16777101039979, 38.62238882315725], [-90.17038725525694, 38.62297077400763], [-90.17291824569298, 38.623751040210934], [-90.17533962342631, 38.624722114277276], [-90.17762808218775, 38.62587465219095], [-90.17976159167632, 38.62719756309326], [-90.18171960938427, 38.62867811575934], [-90.18728100197403, 38.63331680590512], [-90.19284311031278, 38.63795525511195], [-90.198405934579, 38.64259346324721], [-90.20396947495126, 38.64723143017842], [-90.2080259845475, 38.65061255372613], [-90.20949849329146, 38.65093944861534], [-90.21203092675924, 38.65171891701509], [-90.21445380195217, 38.65268923138247], [-90.216743798228, 38.653841055014006], [-90.21887887052453, 38.65516330393015], [-90.22083846132536, 38.656643253285914], [-90.2248963052898, 38.66002383556213], [-90.22636909406685, 38.66035052735], [-90.22890205844487, 38.66112964801997], [-90.23132549255342, 38.66209963131109], [-90.23361607038662, 38.66325114370581], [-90.2350260306326, 38.6641239056443], [-90.23540755692109, 38.66413293058669], [-90.24114802098028, 38.664268569834896], [-90.24688852364199, 38.664403927757895], [-90.25262906482664, 38.664539004350054], [-90.25836964445374, 38.664673799605595], [-90.26411026244355, 38.66480831351883], [-90.26985091871656, 38.66494254608411], [-90.27256359195677, 38.66511060615611], [-90.27524222012477, 38.665486257947585], [-90.27786102840709, 38.666065887720514], [-90.28039481586751, 38.66684391886139], [-90.28281919739281, 38.66781286537482], [-90.2851108378959, 38.66896340371423], [-90.28724767654465, 38.670284462268484], [-90.28920913887696, 38.6717633276537], [-90.29478094950575, 38.676397245324345], [-90.30035347767551, 38.68103091993237], [-90.30592672356447, 38.68566435134478], [-90.31150068735086, 38.6902975394287], [-90.31707536921301, 38.69493048405108], [-90.32265076932927, 38.699563185079114], [-90.32822688787766, 38.70419564237942], [-90.33380372503686, 38.708827855819365], [-90.33707159221353, 38.71154180976913], [-90.3370726085516, 38.71154183293191], [-90.34281734574277, 38.71167261652018], [-90.34856212018832, 38.711803118232346], [-90.35127684999344, 38.71196941850691], [-90.35395773092483, 38.712343339158394], [-90.3565789665518, 38.71292128308793], [-90.35911533264712, 38.713697689891326], [-90.36154241935404, 38.71466508919742], [-90.36383686562408, 38.71581417234921], [-90.36597658369257, 38.71713388174732], [-90.36620830547047, 38.71730819032093]]]}}]}