{"type": "FeatureCollection", "features": [{"type": "Feature", "properties": {"route_run_id": "stl_midamerica_to_st_louis_lambert_2026-03-07_0255", "route_pair": "midamerica_to_st_louis_lambert", "route_pair_label": "MidAmerica to St. Louis Lambert", "origin_label": "MidAmerica St. Louis Airport", "destination_label": "St. Louis Lambert International Airport", "origin_lat": 38.5451731, "origin_lon": -89.8351856, "destination_lat": 38.7486982, "destination_lon": -90.3700257, "traffic_date": "2026-03-07", "traffic_dataset": "March 7th - Saturday", "weight_id": "w_0255", "distance_weight": 0.6, "population_weight": 0.0, "traffic_weight": 0.2, "airspace_weight": 0.2, "path_nodes": 96, "path_node_ids": [8877, 8876, 8892, 8897, 8899, 8926, 9788, 10013, 10014, 10036, 10052, 10054, 10061, 10051, 10049, 10048, 10050, 10253, 10252, 10241, 10240, 10248, 10246, 10247, 10245, 10263, 10265, 10264, 10173, 10174, 10172, 10175, 10195, 10198, 10202, 10201, 10189, 10324, 10329, 10330, 2551, 2554, 2570, 2557, 2547, 2578, 2582, 2590, 2595, 10723, 10724, 2903, 2906, 4109, 4112, 4120, 4146, 4149, 4153, 4175, 4177, 4180, 4182, 4292, 4291, 4290, 4311, 4310, 4309, 4312, 4303, 4300, 4302, 4301, 4202, 4215, 4220, 4218, 4231, 4232, 4230, 4238, 4237, 4235, 4236, 5309, 5310, 5307, 5308, 5303, 5304, 5319, 5321, 5357, 5358, 5364], "elapsed_seconds": 0.03336570004466921, "status": "success", "failure_reason": "", "route_distance_km": 71.92408572558828, "distance_cost_sum": 79.1571076174571, "population_cost_sum": 34.66106152452839, "traffic_cost_sum": 22.53343589024825, "airspace_cost_sum": 50.00000000000003, "total_weighted_score": 62.00095174852392, "clustering_method": "hierarchical_jaccard", "distance_method": "jaccard", "direct_cluster_number": 1, "hierarchical_jaccard_cluster": "hier_jaccard_001", "hierarchical_jaccard_cluster_source": "hier_jaccard_003", "representative_route_run_id": "stl_midamerica_to_st_louis_lambert_2026-03-07_0255", "representative_mean_frechet_miles": 1.7917500210316455, "cluster_size": 44, "cluster_weight_space_percent": 29.333333333333332, "merged_cluster_id": "frechet_merged_001", "source_jaccard_clusters": "hier_jaccard_001"}, "geometry": {"type": "LineString", "coordinates": [[-89.83272609742262, 38.54503213945896], [-89.83845499191484, 38.54518713674757], [-89.84398707949187, 38.54984103165108], [-89.84951987896733, 38.55449469187918], [-89.85505339052077, 38.559148117300026], [-89.86058761433173, 38.563801307781745], [-89.86612255057987, 38.568454263192415], [-89.87165819944471, 38.57310698340007], [-89.87719456110594, 38.577759468272795], [-89.88273163574308, 38.582411717678575], [-89.88826942353593, 38.58706373148541], [-89.89380792466403, 38.591715509561276], [-89.89934713930707, 38.59636705177409], [-89.90508047722643, 38.59651895818466], [-89.91081385831642, 38.59667058421835], [-89.91654728249756, 38.596821929868824], [-89.92228074969049, 38.59697299512966], [-89.92801425981584, 38.59712377999449], [-89.93374781279411, 38.597274284457015], [-89.93948140854593, 38.5974245085108], [-89.94521504699188, 38.5975744521496], [-89.95094872805251, 38.59772411536704], [-89.95668245164843, 38.59787349815684], [-89.96241621770018, 38.59802260051268], [-89.96815002612831, 38.59817142242828], [-89.97369475078722, 38.60281965195827], [-89.97942900075623, 38.60296793670464], [-89.98516329287352, 38.603115940947184], [-89.99089762705957, 38.603263664679695], [-89.99663200323492, 38.603411107895916], [-90.00236642132012, 38.60355827058964], [-90.00810088123565, 38.603705152754664], [-90.01383538290203, 38.603851754384785], [-90.01938361507719, 38.6084979478912], [-90.02493256169556, 38.61314390337241], [-90.03066790261092, 38.61328971002312], [-90.03640328497923, 38.613435236024664], [-90.0419537437882, 38.61808043858029], [-90.04750491743872, 38.62272540266021], [-90.0530568061099, 38.627370128132036], [-90.05860940998092, 38.63201461486337], [-90.06416272923086, 38.636658862721774], [-90.06971676403892, 38.64130287157482], [-90.07545458015825, 38.64144657076439], [-90.08119243715339, 38.6415899889869], [-90.08693033494461, 38.641733126236325], [-90.09248628167781, 38.64637612174451], [-90.09804294438668, 38.65101887770345], [-90.10360032325033, 38.65566139398061], [-90.1091584184479, 38.66030367044341], [-90.11471723015849, 38.664945706959266], [-90.12027675856129, 38.66958750339557], [-90.12583700383547, 38.67422905961967], [-90.13139796616022, 38.67887037549889], [-90.13695964571467, 38.683511450900546], [-90.14270117223384, 38.683651980286214], [-90.14826396796266, 38.68829255606985], [-90.15382748129907, 38.69293289101744], [-90.15939171242222, 38.69757298499622], [-90.1651344750913, 38.69771245548389], [-90.17069982293353, 38.702352049023325], [-90.17626588894021, 38.706991401235285], [-90.18200948870962, 38.70713007125124], [-90.18775312797395, 38.70726845955812], [-90.1934968066531, 38.7074065661501], [-90.19924052466715, 38.707544391021344], [-90.20498428193595, 38.70768193416601], [-90.21072807837955, 38.707819195578296], [-90.21647191391787, 38.707956175252406], [-90.22221578847089, 38.70809287318253], [-90.2279597019586, 38.70822928936292], [-90.23370365430087, 38.7083654237878], [-90.23944764541775, 38.708501276451386], [-90.24519167522915, 38.70863684734796], [-90.25093574365499, 38.70877213647181], [-90.25650770587707, 38.713407868791336], [-90.2620803868679, 38.71804335830804], [-90.26782528945341, 38.718177845091255], [-90.27339908723236, 38.72281283125151], [-90.27914442590036, 38.722946775677876], [-90.28488980273018, 38.72308043816236], [-90.29063521764166, 38.723213818699314], [-90.29638067055468, 38.72334691728308], [-90.30212616138907, 38.72347973390806], [-90.3078716900647, 38.72361226856861], [-90.31361725650144, 38.72374452125915], [-90.31936286061908, 38.72387649197406], [-90.32510850233753, 38.72400818070778], [-90.33085418157658, 38.72413958745472], [-90.33659989825608, 38.72427071220935], [-90.34234565229588, 38.724401554966114], [-90.34792493799469, 38.72903316785066], [-90.35350494323681, 38.73366453632395], [-90.35908566820065, 38.73829566025279], [-90.36466711306467, 38.742926539503976], [-90.37024927800739, 38.74755717394432]]}}, {"type": "Feature", "properties": {"route_run_id": "stl_midamerica_to_st_louis_lambert_2026-03-07_0167", "route_pair": "midamerica_to_st_louis_lambert", "route_pair_label": "MidAmerica to St. Louis Lambert", "origin_label": "MidAmerica St. Louis Airport", "destination_label": "St. Louis Lambert International Airport", "origin_lat": 38.5451731, "origin_lon": -89.8351856, "destination_lat": 38.7486982, "destination_lon": -90.3700257, "traffic_date": "2026-03-07", "traffic_dataset": "March 7th - Saturday", "weight_id": "w_0167", "distance_weight": 0.25, "population_weight": 0.25, "traffic_weight": 0.25, "airspace_weight": 0.25, "path_nodes": 97, "path_node_ids": [8877, 8881, 8904, 8922, 8923, 8927, 9145, 10016, 10018, 10062, 10055, 10058, 10094, 10096, 10103, 10104, 10110, 10109, 10516, 10515, 10514, 10517, 10522, 10299, 10300, 10301, 10309, 10532, 10533, 10363, 10364, 10369, 10370, 10381, 10612, 10613, 10616, 10409, 10410, 10411, 10408, 2604, 2605, 10732, 10738, 10763, 10766, 10768, 10775, 10780, 10778, 10779, 4140, 4141, 4138, 4139, 4148, 4155, 4152, 4153, 4175, 4177, 4180, 4182, 4292, 4291, 4290, 4311, 4310, 4309, 4312, 4303, 4300, 4302, 4301, 4202, 4215, 4220, 4218, 4231, 4232, 4230, 4238, 4241, 4239, 4240, 5336, 5342, 5341, 5366, 5353, 5377, 5379, 5376, 5588, 5362, 5364], "elapsed_seconds": 0.05308420001529157, "status": "success", "failure_reason": "", "route_distance_km": 72.84575452782641, "distance_cost_sum": 80.1714637379473, "population_cost_sum": 20.166976590564982, "traffic_cost_sum": 27.60206873734868, "airspace_cost_sum": 51.2, "total_weighted_score": 44.78512726646525, "clustering_method": "hierarchical_jaccard", "distance_method": "jaccard", "direct_cluster_number": 2, "hierarchical_jaccard_cluster": "hier_jaccard_002", "hierarchical_jaccard_cluster_source": "hier_jaccard_001", "representative_route_run_id": "stl_midamerica_to_st_louis_lambert_2026-03-07_0167", "representative_mean_frechet_miles": 0.7610229418875493, "cluster_size": 41, "cluster_weight_space_percent": 27.333333333333332, "merged_cluster_id": "frechet_merged_002", "source_jaccard_clusters": "hier_jaccard_002"}, "geometry": {"type": "LineString", "coordinates": [[-89.83272609742262, 38.54503213945896], [-89.83252853470323, 38.54953126729425], [-89.83806053424684, 38.55418543772932], [-89.84359324582596, 38.558839373542895], [-89.84912666962028, 38.563493074603095], [-89.85466080580946, 38.568146540778045], [-89.86019565457306, 38.572799771935806], [-89.86573121609086, 38.57745276794444], [-89.87126749054252, 38.58210552867199], [-89.8768044781077, 38.58675805398646], [-89.88234217896623, 38.591410343755804], [-89.8878805932977, 38.59606239784802], [-89.89341972128202, 38.600714216131045], [-89.89895956309883, 38.60536579847276], [-89.90450011892796, 38.61001714474108], [-89.91004138894921, 38.614668254803874], [-89.9155833733424, 38.61931912852895], [-89.92131862594731, 38.619470314708934], [-89.9268617252078, 38.624120695492145], [-89.93259742104341, 38.62427134452904], [-89.93833315971467, 38.6244217128885], [-89.94406894114202, 38.62457180056415], [-89.94980476524591, 38.62472160754967], [-89.95554063194687, 38.62487113383877], [-89.96127654116528, 38.62502037942509], [-89.96701249282155, 38.625169344302385], [-89.97274848683627, 38.62531802846435], [-89.9782955010475, 38.62996611819141], [-89.98403193705393, 38.63011426460664], [-89.98958006609531, 38.63476185964426], [-89.9951289104335, 38.63940921688515], [-90.00067847024802, 38.64405633619701], [-90.00641614743708, 38.64420343004679], [-90.01215386646798, 38.64435024295822], [-90.01770494131858, 38.64899660926119], [-90.02344310169738, 38.64914288367781], [-90.02899529202983, 38.6537887539576], [-90.03454819843795, 38.658434385632], [-90.04028719952224, 38.658579863565194], [-90.04602624200047, 38.65872506038847], [-90.05176532579277, 38.658869976095644], [-90.05750445081951, 38.65901461068064], [-90.06324361700084, 38.65915896413734], [-90.06879923684859, 38.66380306716205], [-90.0743555732309, 38.66844693085125], [-90.07991262632719, 38.67309055507239], [-90.08547039631691, 38.677733939692835], [-90.09102888337944, 38.68237708457999], [-90.09658808769431, 38.68701998960119], [-90.102148009441, 38.69166265462378], [-90.10789001170522, 38.691804918045165], [-90.11363205447482, 38.69194689996941], [-90.1193741376699, 38.69208860039054], [-90.1251162612105, 38.69223001930258], [-90.1308584250167, 38.69237115669953], [-90.13660062900858, 38.69251201257543], [-90.14234287310624, 38.69265258692433], [-90.14790630655088, 38.69729319923991], [-90.15364898954873, 38.69743323291292], [-90.15939171242222, 38.69757298499622], [-90.1651344750913, 38.69771245548389], [-90.17069982293353, 38.702352049023325], [-90.17626588894021, 38.706991401235285], [-90.18200948870962, 38.70713007125124], [-90.18775312797395, 38.70726845955812], [-90.1934968066531, 38.7074065661501], [-90.19924052466715, 38.707544391021344], [-90.20498428193595, 38.70768193416601], [-90.21072807837955, 38.707819195578296], [-90.21647191391787, 38.707956175252406], [-90.22221578847089, 38.70809287318253], [-90.2279597019586, 38.70822928936292], [-90.23370365430087, 38.7083654237878], [-90.23944764541775, 38.708501276451386], [-90.24519167522915, 38.70863684734796], [-90.25093574365499, 38.70877213647181], [-90.25650770587707, 38.713407868791336], [-90.2620803868679, 38.71804335830804], [-90.26782528945341, 38.718177845091255], [-90.27339908723236, 38.72281283125151], [-90.27914442590036, 38.722946775677876], [-90.28488980273018, 38.72308043816236], [-90.29063521764166, 38.723213818699314], [-90.29621092771761, 38.727847779852645], [-90.30195677820613, 38.727980617720114], [-90.30770266654505, 38.72811317357814], [-90.31327989111702, 38.732746369488076], [-90.31885783528352, 38.73737932150475], [-90.32460455631471, 38.7375110734335], [-90.33018361774292, 38.74214352032707], [-90.33576339914136, 38.74677572296801], [-90.34134390068866, 38.75140768122309], [-90.34709185157405, 38.75153836730899], [-90.35283983971358, 38.7516687711157], [-90.35858786502698, 38.75179889263772], [-90.36450153875144, 38.7474276377232], [-90.37024927800739, 38.74755717394432]]}}, {"type": "Feature", "properties": {"route_run_id": "stl_midamerica_to_st_louis_lambert_2026-03-07_0226", "route_pair": "midamerica_to_st_louis_lambert", "route_pair_label": "MidAmerica to St. Louis Lambert", "origin_label": "MidAmerica St. Louis Airport", "destination_label": "St. Louis Lambert International Airport", "origin_lat": 38.5451731, "origin_lon": -89.8351856, "destination_lat": 38.7486982, "destination_lon": -90.3700257, "traffic_date": "2026-03-07", "traffic_dataset": "March 7th - Saturday", "weight_id": "w_0226", "distance_weight": 0.4, "population_weight": 0.4, "traffic_weight": 0.0, "airspace_weight": 0.2, "path_nodes": 98, "path_node_ids": [8877, 8881, 8904, 8922, 8923, 8927, 9145, 10016, 10018, 10062, 10055, 10058, 10094, 10096, 10103, 10104, 10110, 10109, 10516, 10515, 10514, 10517, 10522, 10299, 10300, 10301, 10309, 10308, 10533, 10363, 10350, 10351, 10366, 10376, 10374, 10379, 10614, 10407, 10410, 10411, 10408, 2604, 2605, 2606, 2603, 10715, 10714, 10713, 10722, 2597, 10723, 2596, 2876, 2875, 2874, 2873, 2885, 2886, 2884, 2883, 2890, 2891, 2895, 3904, 3925, 3926, 3931, 3951, 3954, 3953, 3966, 3944, 3977, 3976, 3941, 4043, 4066, 4067, 4068, 4185, 4187, 4186, 4076, 4075, 4082, 4084, 5080, 5084, 5310, 5311, 5337, 5320, 5322, 5323, 5346, 5357, 5358, 5364], "elapsed_seconds": 0.04428849997930229, "status": "success", "failure_reason": "", "route_distance_km": 73.20963090489165, "distance_cost_sum": 80.57193322251891, "population_cost_sum": 16.535156841253748, "traffic_cost_sum": 51.19703279408035, "airspace_cost_sum": 51.4, "total_weighted_score": 49.12283602550907, "clustering_method": "hierarchical_jaccard", "distance_method": "jaccard", "direct_cluster_number": 4, "hierarchical_jaccard_cluster": "hier_jaccard_004", "hierarchical_jaccard_cluster_source": "hier_jaccard_005", "representative_route_run_id": "stl_midamerica_to_st_louis_lambert_2026-03-07_0226", "representative_mean_frechet_miles": 0.999128075167868, "cluster_size": 24, "cluster_weight_space_percent": 16.0, "merged_cluster_id": "frechet_merged_003", "source_jaccard_clusters": "hier_jaccard_004"}, "geometry": {"type": "LineString", "coordinates": [[-89.83272609742262, 38.54503213945896], [-89.83252853470323, 38.54953126729425], [-89.83806053424684, 38.55418543772932], [-89.84359324582596, 38.558839373542895], [-89.84912666962028, 38.563493074603095], [-89.85466080580946, 38.568146540778045], [-89.86019565457306, 38.572799771935806], [-89.86573121609086, 38.57745276794444], [-89.87126749054252, 38.58210552867199], [-89.8768044781077, 38.58675805398646], [-89.88234217896623, 38.591410343755804], [-89.8878805932977, 38.59606239784802], [-89.89341972128202, 38.600714216131045], [-89.89895956309883, 38.60536579847276], [-89.90450011892796, 38.61001714474108], [-89.91004138894921, 38.614668254803874], [-89.9155833733424, 38.61931912852895], [-89.92131862594731, 38.619470314708934], [-89.9268617252078, 38.624120695492145], [-89.93259742104341, 38.62427134452904], [-89.93833315971467, 38.6244217128885], [-89.94406894114202, 38.62457180056415], [-89.94980476524591, 38.62472160754967], [-89.95554063194687, 38.62487113383877], [-89.96127654116528, 38.62502037942509], [-89.96701249282155, 38.625169344302385], [-89.97274848683627, 38.62531802846435], [-89.97848452312972, 38.62546643190471], [-89.98403193705393, 38.63011426460664], [-89.98958006609531, 38.63476185964426], [-89.99531694389556, 38.63490946811138], [-90.00105386367663, 38.63505679574229], [-90.00660350731387, 38.63970363840778], [-90.01234086854143, 38.63985042783196], [-90.01807827152109, 38.63999693635645], [-90.02362942973669, 38.64464302594129], [-90.0291813036891, 38.64928887709267], [-90.03473389355781, 38.653934489678136], [-90.04028719952224, 38.658579863565194], [-90.04602624200047, 38.65872506038847], [-90.05176532579277, 38.658869976095644], [-90.05750445081951, 38.65901461068064], [-90.06324361700084, 38.65915896413734], [-90.06898282425709, 38.65930303645963], [-90.07472207250845, 38.65944682764147], [-90.08046136167522, 38.65959033767675], [-90.0862006916776, 38.659733566559446], [-90.09194006243584, 38.659876514283475], [-90.09767947387014, 38.66001918084284], [-90.10341892590075, 38.66016156623149], [-90.1091584184479, 38.66030367044341], [-90.11489795143179, 38.66044549347263], [-90.12063752477266, 38.66058703531315], [-90.1263771383907, 38.66072829595899], [-90.1321167922061, 38.660869275404174], [-90.13785648613919, 38.66100997364278], [-90.14359622011, 38.661150390668844], [-90.14933599403881, 38.66129052647644], [-90.15507580784583, 38.66143038105964], [-90.16081566145125, 38.66156995441258], [-90.16655555477524, 38.661709246529334], [-90.17229548773797, 38.66184825740402], [-90.17785868094164, 38.666487447153536], [-90.18342259105025, 38.67112639580074], [-90.1889872182426, 38.67576510321293], [-90.19472838451095, 38.67590305525546], [-90.2002941269196, 38.68054126191918], [-90.20586058678872, 38.68517922698935], [-90.21142776429718, 38.68981695033316], [-90.2171701635404, 38.68995384239636], [-90.2229126017605, 38.690090452895454], [-90.22865507887754, 38.69022678182468], [-90.23439759481155, 38.69036282917826], [-90.24014014948251, 38.69049859495047], [-90.24605541323987, 38.68613337677085], [-90.2517976862147, 38.68626855773688], [-90.25736804511756, 38.69090420272148], [-90.26311075393669, 38.69103884211091], [-90.26868222818311, 38.695673984376505], [-90.27425442059507, 38.700308883813186], [-90.27999796237877, 38.700442721166475], [-90.28574154227802, 38.70057627680287], [-90.29148516021279, 38.700709550716724], [-90.297228816103, 38.700842542902386], [-90.30280331580018, 38.70547615766316], [-90.30837853409372, 38.710109528957155], [-90.31395447116216, 38.71474265665128], [-90.31378588266769, 38.71924359100243], [-90.31936286061908, 38.72387649197406], [-90.32494055786266, 38.72850914903958], [-90.330518974577, 38.7331415620659], [-90.33626541075455, 38.733272728767844], [-90.3420118843105, 38.73340361338185], [-90.34775839516463, 38.73353421590239], [-90.35333872308522, 38.73816560113835], [-90.35908566820065, 38.73829566025279], [-90.36466711306467, 38.742926539503976], [-90.37024927800739, 38.74755717394432]]}}, {"type": "Feature", "properties": {"route_run_id": "stl_midamerica_to_st_louis_lambert_2026-03-07_0067", "route_pair": "midamerica_to_st_louis_lambert", "route_pair_label": "MidAmerica to St. Louis Lambert", "origin_label": "MidAmerica St. Louis Airport", "destination_label": "St. Louis Lambert International Airport", "origin_lat": 38.5451731, "origin_lon": -89.8351856, "destination_lat": 38.7486982, "destination_lon": -90.3700257, "traffic_date": "2026-03-07", "traffic_dataset": "March 7th - Saturday", "weight_id": "w_0067", "distance_weight": 0.1, "population_weight": 0.0, "traffic_weight": 0.0, "airspace_weight": 0.9, "path_nodes": 96, "path_node_ids": [8877, 8876, 8892, 8897, 8899, 8926, 9788, 10013, 10014, 10036, 10052, 10054, 10061, 10051, 10049, 10048, 10050, 10253, 10252, 10241, 10240, 10248, 10246, 10247, 10245, 10231, 10230, 10262, 10150, 10148, 10149, 10151, 10161, 10159, 10158, 10160, 10166, 10168, 10167, 10169, 2247, 2269, 2268, 2257, 2256, 2254, 2279, 2293, 2296, 2301, 2303, 2491, 2492, 2818, 2496, 2507, 2506, 2828, 2505, 2809, 2811, 2810, 2728, 2730, 2731, 2729, 2715, 2717, 2714, 2716, 2738, 2741, 2745, 2747, 2684, 2687, 3987, 3990, 4016, 4017, 4022, 4029, 4034, 4060, 4064, 5048, 5052, 5076, 5082, 5299, 5304, 5319, 5321, 5357, 5358, 5364], "elapsed_seconds": 0.054163899971172214, "status": "success", "failure_reason": "", "route_distance_km": 71.90057520712594, "distance_cost_sum": 79.13123277148179, "population_cost_sum": 53.29567736851651, "traffic_cost_sum": 33.22130483796573, "airspace_cost_sum": 46.2, "total_weighted_score": 49.49312327714821, "clustering_method": "hierarchical_jaccard", "distance_method": "jaccard", "direct_cluster_number": 5, "hierarchical_jaccard_cluster": "hier_jaccard_005", "hierarchical_jaccard_cluster_source": "hier_jaccard_010", "representative_route_run_id": "stl_midamerica_to_st_louis_lambert_2026-03-07_0067", "representative_mean_frechet_miles": 0.5625144652299695, "cluster_size": 21, "cluster_weight_space_percent": 14.0, "merged_cluster_id": "frechet_merged_004", "source_jaccard_clusters": "hier_jaccard_005"}, "geometry": {"type": "LineString", "coordinates": [[-89.83272609742262, 38.54503213945896], [-89.83845499191484, 38.54518713674757], [-89.84398707949187, 38.54984103165108], [-89.84951987896733, 38.55449469187918], [-89.85505339052077, 38.559148117300026], [-89.86058761433173, 38.563801307781745], [-89.86612255057987, 38.568454263192415], [-89.87165819944471, 38.57310698340007], [-89.87719456110594, 38.577759468272795], [-89.88273163574308, 38.582411717678575], [-89.88826942353593, 38.58706373148541], [-89.89380792466403, 38.591715509561276], [-89.89934713930707, 38.59636705177409], [-89.90508047722643, 38.59651895818466], [-89.91081385831642, 38.59667058421835], [-89.91654728249756, 38.596821929868824], [-89.92228074969049, 38.59697299512966], [-89.92801425981584, 38.59712377999449], [-89.93374781279411, 38.597274284457015], [-89.93948140854593, 38.5974245085108], [-89.94521504699188, 38.5975744521496], [-89.95094872805251, 38.59772411536704], [-89.95668245164843, 38.59787349815684], [-89.96241621770018, 38.59802260051268], [-89.96815002612831, 38.59817142242828], [-89.9738838768534, 38.59831996389739], [-89.97961776979602, 38.59846822491371], [-89.98535170487666, 38.59861620547102], [-89.99108568201598, 38.59876390556306], [-89.99681970113441, 38.59891132518362], [-90.00255376215256, 38.59905846432648], [-90.00828786499093, 38.59920532298544], [-90.01402200957008, 38.5993519011543], [-90.01975619581054, 38.599498198826886], [-90.02549042363282, 38.599644215997024], [-90.03122469295744, 38.59978995265856], [-90.03695900370492, 38.599935408805365], [-90.0426933557958, 38.60008058443128], [-90.04842774915056, 38.600225479530216], [-90.05416218368977, 38.60037009409603], [-90.05989665933384, 38.60051442812264], [-90.06563117600335, 38.600658481603965], [-90.07136573361876, 38.60080225453393], [-90.07710033210058, 38.60094574690646], [-90.0828349713693, 38.601088958715515], [-90.08856965134538, 38.60123188995506], [-90.0941227455516, 38.605874717602354], [-90.09967655430022, 38.61051730605643], [-90.10523107776994, 38.61515965518486], [-90.11078631613944, 38.61980176485522], [-90.11652262799952, 38.61994338379215], [-90.1220789793104, 38.62458499570804], [-90.12781572923257, 38.62472607564535], [-90.13337319363258, 38.629367189437694], [-90.13911038141684, 38.62950773017495], [-90.14484760917111, 38.62964799001386], [-90.15058487681573, 38.629787968948484], [-90.156322184271, 38.62992766697294], [-90.16205953145733, 38.63006708408134], [-90.16779691829495, 38.630206220267794], [-90.17353434470424, 38.6303450755264], [-90.17927181060547, 38.63048364985134], [-90.185009315919, 38.63062194323676], [-90.1907468605651, 38.6307599556768], [-90.1964844444641, 38.63089768716567], [-90.2022220675363, 38.63103513769752], [-90.20795972970198, 38.63117230726659], [-90.21369743088145, 38.63130919586706], [-90.21943517099498, 38.631445803493165], [-90.22517294996291, 38.63158213013913], [-90.2309107677055, 38.63171817579922], [-90.2364756999938, 38.63635464897752], [-90.2420413482591, 38.64099088040321], [-90.24760771267954, 38.645626869943555], [-90.25317479343335, 38.65026261746583], [-90.25874259069872, 38.654898122837295], [-90.26431110465388, 38.659533385925144], [-90.26988033547711, 38.664168406596616], [-90.27545028334664, 38.66880318471887], [-90.28102094844074, 38.67343772015905], [-90.28659233093768, 38.67807201278429], [-90.29216443101578, 38.68270606246168], [-90.29773724885335, 38.68733986905835], [-90.30331078462868, 38.69197343244128], [-90.30888503852013, 38.69660675247757], [-90.31446001070607, 38.70123982903419], [-90.32003570136486, 38.70587266197814], [-90.32561211067481, 38.710505251176386], [-90.33118923881437, 38.715137596495865], [-90.3367670859619, 38.719769697803464], [-90.34234565229588, 38.724401554966114], [-90.34792493799469, 38.72903316785066], [-90.35350494323681, 38.73366453632395], [-90.35908566820065, 38.73829566025279], [-90.36466711306467, 38.742926539503976], [-90.37024927800739, 38.74755717394432]]}}, {"type": "Feature", "properties": {"route_run_id": "stl_midamerica_to_st_louis_lambert_2026-03-07_0183", "route_pair": "midamerica_to_st_louis_lambert", "route_pair_label": "MidAmerica to St. Louis Lambert", "origin_label": "MidAmerica St. Louis Airport", "destination_label": "St. Louis Lambert International Airport", "origin_lat": 38.5451731, "origin_lon": -89.8351856, "destination_lat": 38.7486982, "destination_lon": -90.3700257, "traffic_date": "2026-03-07", "traffic_dataset": "March 7th - Saturday", "weight_id": "w_0183", "distance_weight": 0.3, "population_weight": 0.2, "traffic_weight": 0.0, "airspace_weight": 0.5, "path_nodes": 97, "path_node_ids": [8877, 8881, 8904, 8922, 8923, 8927, 9145, 10016, 10018, 10062, 10055, 10058, 10094, 10096, 10103, 10104, 10110, 10109, 10291, 10512, 10290, 10513, 10298, 10295, 10296, 10297, 10307, 10305, 10306, 10319, 10321, 10320, 10318, 10211, 10210, 10208, 10209, 10326, 10328, 10329, 10327, 2522, 2524, 2523, 2514, 2517, 2515, 2516, 2530, 2534, 2532, 2558, 2840, 2839, 2838, 2827, 2849, 2848, 2850, 2837, 2861, 2866, 2889, 3896, 3898, 3901, 3902, 3914, 3948, 3947, 3952, 3940, 3942, 3943, 3941, 4043, 4042, 4041, 4040, 4051, 4054, 4186, 4080, 4205, 4207, 4212, 5309, 5313, 5335, 5337, 5320, 5322, 5323, 5346, 5357, 5358, 5364], "elapsed_seconds": 0.055789100006222725, "status": "success", "failure_reason": "", "route_distance_km": 72.29260468015718, "distance_cost_sum": 79.56268655880336, "population_cost_sum": 22.4028729657628, "traffic_cost_sum": 52.79068304805938, "airspace_cost_sum": 47.6, "total_weighted_score": 52.14938056079359, "clustering_method": "hierarchical_jaccard", "distance_method": "jaccard", "direct_cluster_number": 8, "hierarchical_jaccard_cluster": "hier_jaccard_008", "hierarchical_jaccard_cluster_source": "hier_jaccard_011", "representative_route_run_id": "stl_midamerica_to_st_louis_lambert_2026-03-07_0183", "representative_mean_frechet_miles": 0.8929261941773061, "cluster_size": 20, "cluster_weight_space_percent": 13.333333333333334, "merged_cluster_id": "frechet_merged_005", "source_jaccard_clusters": "hier_jaccard_008, hier_jaccard_016, hier_jaccard_019"}, "geometry": {"type": "LineString", "coordinates": [[-89.83272609742262, 38.54503213945896], [-89.83252853470323, 38.54953126729425], [-89.83806053424684, 38.55418543772932], [-89.84359324582596, 38.558839373542895], [-89.84912666962028, 38.563493074603095], [-89.85466080580946, 38.568146540778045], [-89.86019565457306, 38.572799771935806], [-89.86573121609086, 38.57745276794444], [-89.87126749054252, 38.58210552867199], [-89.8768044781077, 38.58675805398646], [-89.88234217896623, 38.591410343755804], [-89.8878805932977, 38.59606239784802], [-89.89341972128202, 38.600714216131045], [-89.89895956309883, 38.60536579847276], [-89.90450011892796, 38.61001714474108], [-89.91004138894921, 38.614668254803874], [-89.9155833733424, 38.61931912852895], [-89.92131862594731, 38.619470314708934], [-89.92705392153653, 38.61962122026898], [-89.93278926003055, 38.619771845202735], [-89.93852464134986, 38.619922189503846], [-89.9442600654149, 38.62007225316597], [-89.94999553214618, 38.62022203618278], [-89.95573104146416, 38.620371538547964], [-89.96146659328937, 38.6205207602552], [-89.96720218754218, 38.620669701298226], [-89.97293782414316, 38.62081836167072], [-89.97867350301271, 38.62096674136646], [-89.98440922407127, 38.621114840379136], [-89.99014498723932, 38.62126265870254], [-89.99588079243732, 38.621410196330416], [-90.00161663958568, 38.62155745325657], [-90.00735252860491, 38.621704429474754], [-90.01308845941536, 38.6218511249788], [-90.01882443193752, 38.62199753976251], [-90.0245604460918, 38.62214367381969], [-90.03029650179865, 38.62228952714421], [-90.03603259897847, 38.622435099729884], [-90.04176873755169, 38.622580391570615], [-90.04750491743872, 38.62272540266021], [-90.05324113855997, 38.6228701329926], [-90.0589774008359, 38.62301458256169], [-90.06471370418684, 38.62315875136136], [-90.07045004853325, 38.62330263938551], [-90.07618643379548, 38.623446246628106], [-90.08192285989396, 38.62358957308307], [-90.08765932674906, 38.623732618744384], [-90.09339583428118, 38.623875383605984], [-90.09895091075838, 38.62851804648185], [-90.10450670259345, 38.633160469873815], [-90.1102440470662, 38.63330243772981], [-90.11580095263906, 38.63794436326609], [-90.12135857394713, 38.64258604896054], [-90.12709675507955, 38.642727219229855], [-90.13283497637043, 38.64286810847808], [-90.13857323774008, 38.64300871669927], [-90.14431153910874, 38.643149043887504], [-90.15004988039681, 38.64328909003685], [-90.15578826152439, 38.64342885514139], [-90.16152668241186, 38.64356833919522], [-90.16708780535298, 38.6482079745162], [-90.17264964452228, 38.6528473690797], [-90.17821220009857, 38.65748652275311], [-90.18377547226044, 38.66212543540375], [-90.18933946118675, 38.666764106898924], [-90.19490416705614, 38.67140253710589], [-90.200645013987, 38.67154018571967], [-90.20621083477218, 38.67617811511645], [-90.21177737287698, 38.68081580286656], [-90.21751905445252, 38.68095265114052], [-90.22308670781703, 38.685589837485246], [-90.22882882604138, 38.685726144608395], [-90.23457098307328, 38.6858621702009], [-90.24031317883275, 38.68599791425695], [-90.24605541323987, 38.68613337677085], [-90.2517976862147, 38.68626855773688], [-90.25753999767723, 38.686403457149304], [-90.26328234754749, 38.686538075002424], [-90.26902473574555, 38.686672411290566], [-90.27459628650614, 38.69130727605424], [-90.2801685552908, 38.695941897935995], [-90.28574154227802, 38.70057627680287], [-90.29131524764634, 38.705210412521886], [-90.29688967157429, 38.70984430496006], [-90.30246481424038, 38.714477953984364], [-90.30804067582325, 38.71911135946174], [-90.31361725650144, 38.72374452125915], [-90.3191945564535, 38.72837743924346], [-90.3247725758581, 38.73301011328159], [-90.330518974577, 38.7331415620659], [-90.33626541075455, 38.733272728767844], [-90.3420118843105, 38.73340361338185], [-90.34775839516463, 38.73353421590239], [-90.35333872308522, 38.73816560113835], [-90.35908566820065, 38.73829566025279], [-90.36466711306467, 38.742926539503976], [-90.37024927800739, 38.74755717394432]]}}]}