{"type": "FeatureCollection", "features": [{"type": "Feature", "properties": {"route_run_id": "stl_midamerica_to_st_louis_lambert_2025-07-12_0147", "route_pair": "midamerica_to_st_louis_lambert", "route_pair_label": "MidAmerica to St. Louis Lambert", "origin_label": "MidAmerica St. Louis Airport", "destination_label": "St. Louis Lambert International Airport", "origin_lat": 38.5451731, "origin_lon": -89.8351856, "destination_lat": 38.7486982, "destination_lon": -90.3700257, "traffic_date": "2025-07-12", "traffic_dataset": "July 12th - Saturday", "weight_id": "w_0147", "distance_weight": 0.2, "population_weight": 0.3, "traffic_weight": 0.1, "airspace_weight": 0.4, "path_nodes": 97, "path_node_ids": [8877, 8881, 8904, 8922, 8923, 8927, 9145, 10016, 10018, 10062, 10055, 10058, 10094, 10096, 10103, 10104, 10110, 10109, 10516, 10515, 10514, 10517, 10522, 10299, 10300, 10301, 10311, 10532, 10533, 10363, 10350, 10351, 10366, 10376, 10380, 10613, 10614, 10407, 10405, 10411, 10408, 2604, 2605, 10732, 2607, 10716, 10719, 10721, 10729, 10730, 10744, 10746, 4111, 4137, 4114, 4139, 4148, 4155, 4152, 4153, 4175, 4177, 4176, 4179, 4292, 4293, 4294, 4325, 4314, 4313, 4312, 4303, 4300, 4302, 4301, 4202, 4215, 4204, 4218, 4229, 4232, 4234, 4266, 4269, 4268, 4267, 5340, 5342, 5341, 5366, 5349, 5352, 5375, 5354, 5363, 5362, 5364], "elapsed_seconds": 0.056937199988169596, "status": "success", "failure_reason": "", "route_distance_km": 72.84426086307762, "distance_cost_sum": 80.16981986329715, "population_cost_sum": 19.73579381766686, "traffic_cost_sum": 24.29268164168853, "airspace_cost_sum": 51.2, "total_weighted_score": 44.86397028212836, "clustering_method": "hierarchical_jaccard", "distance_method": "jaccard", "direct_cluster_number": 2, "hierarchical_jaccard_cluster": "hier_jaccard_002", "hierarchical_jaccard_cluster_source": "hier_jaccard_002", "representative_route_run_id": "stl_midamerica_to_st_louis_lambert_2025-07-12_0147", "representative_mean_frechet_miles": 0.811155176355176, "cluster_size": 54, "cluster_weight_space_percent": 28.272251308900522, "merged_cluster_id": "frechet_merged_001", "source_jaccard_clusters": "hier_jaccard_002"}, "geometry": {"type": "LineString", "coordinates": [[-89.83272609742262, 38.54503213945896], [-89.83252853470323, 38.54953126729425], [-89.83806053424684, 38.55418543772932], [-89.84359324582596, 38.558839373542895], [-89.84912666962028, 38.563493074603095], [-89.85466080580946, 38.568146540778045], [-89.86019565457306, 38.572799771935806], [-89.86573121609086, 38.57745276794444], [-89.87126749054252, 38.58210552867199], [-89.8768044781077, 38.58675805398646], [-89.88234217896623, 38.591410343755804], [-89.8878805932977, 38.59606239784802], [-89.89341972128202, 38.600714216131045], [-89.89895956309883, 38.60536579847276], [-89.90450011892796, 38.61001714474108], [-89.91004138894921, 38.614668254803874], [-89.9155833733424, 38.61931912852895], [-89.92131862594731, 38.619470314708934], [-89.9268617252078, 38.624120695492145], [-89.93259742104341, 38.62427134452904], [-89.93833315971467, 38.6244217128885], [-89.94406894114202, 38.62457180056415], [-89.94980476524591, 38.62472160754967], [-89.95554063194687, 38.62487113383877], [-89.96127654116528, 38.62502037942509], [-89.96701249282155, 38.625169344302385], [-89.97255910725055, 38.62981769100349], [-89.9782955010475, 38.62996611819141], [-89.98403193705393, 38.63011426460664], [-89.98958006609531, 38.63476185964426], [-89.99531694389556, 38.63490946811138], [-90.00105386367663, 38.63505679574229], [-90.00660350731387, 38.63970363840778], [-90.01234086854143, 38.63985042783196], [-90.0178916272611, 38.64449677492512], [-90.02344310169738, 38.64914288367781], [-90.0291813036891, 38.64928887709267], [-90.03473389355781, 38.653934489678136], [-90.04047253654934, 38.65407994433975], [-90.04602624200047, 38.65872506038847], [-90.05176532579277, 38.658869976095644], [-90.05750445081951, 38.65901461068064], [-90.06324361700084, 38.65915896413734], [-90.06879923684859, 38.66380306716205], [-90.07453884333233, 38.663946881349034], [-90.08027849074135, 38.66409041434458], [-90.08583562554844, 38.668733761526155], [-90.09157571291051, 38.66887675499398], [-90.0973158409683, 38.669019467207306], [-90.10305600964216, 38.66916189816016], [-90.10861505837465, 38.67380423026503], [-90.11417482409904, 38.67844632230407], [-90.11973530699464, 38.68308817414464], [-90.12529650724075, 38.68772978565403], [-90.13103831223724, 38.68787090047809], [-90.13660062900858, 38.69251201257543], [-90.14234287310624, 38.69265258692433], [-90.14790630655088, 38.69729319923991], [-90.15364898954873, 38.69743323291292], [-90.15939171242222, 38.69757298499622], [-90.1651344750913, 38.69771245548389], [-90.17069982293353, 38.702352049023325], [-90.17644302400102, 38.702490978520885], [-90.18218626463384, 38.702629626360235], [-90.18775312797395, 38.70726845955812], [-90.19332070969605, 38.71190705110956], [-90.19906478695539, 38.71204489802522], [-90.20480890347903, 38.71218246316934], [-90.21055305918696, 38.712319746536096], [-90.21629725399912, 38.71245674811969], [-90.22221578847089, 38.70809287318253], [-90.2279597019586, 38.70822928936292], [-90.23370365430087, 38.7083654237878], [-90.23944764541775, 38.708501276451386], [-90.24519167522915, 38.70863684734796], [-90.25093574365499, 38.70877213647181], [-90.25650770587707, 38.713407868791336], [-90.26225221064061, 38.71354261590214], [-90.26782528945341, 38.718177845091255], [-90.27357023035168, 38.71831204998893], [-90.27914442590036, 38.722946775677876], [-90.2847193406125, 38.72758125811188], [-90.29029497466699, 38.7322154971579], [-90.29587132824253, 38.736849492682836], [-90.30161789827979, 38.73698237304315], [-90.30736450618586, 38.737114971303974], [-90.31311115188049, 38.73724728745971], [-90.31885783528352, 38.73737932150475], [-90.32460455631471, 38.7375110734335], [-90.33018361774292, 38.74214352032707], [-90.3359307737393, 38.74227472898667], [-90.34151095257313, 38.74690667038728], [-90.34725854333031, 38.74703733557797], [-90.35300617133261, 38.74716771853452], [-90.35875383649973, 38.747297819251436], [-90.36450153875144, 38.7474276377232], [-90.37024927800739, 38.74755717394432]]}}, {"type": "Feature", "properties": {"route_run_id": "stl_midamerica_to_st_louis_lambert_2025-07-12_0155", "route_pair": "midamerica_to_st_louis_lambert", "route_pair_label": "MidAmerica to St. Louis Lambert", "origin_label": "MidAmerica St. Louis Airport", "destination_label": "St. Louis Lambert International Airport", "origin_lat": 38.5451731, "origin_lon": -89.8351856, "destination_lat": 38.7486982, "destination_lon": -90.3700257, "traffic_date": "2025-07-12", "traffic_dataset": "July 12th - Saturday", "weight_id": "w_0155", "distance_weight": 0.2, "population_weight": 0.4, "traffic_weight": 0.3, "airspace_weight": 0.1, "path_nodes": 109, "path_node_ids": [8877, 8881, 8905, 8906, 8933, 8929, 9144, 9148, 9151, 9175, 9180, 10066, 10071, 10084, 10088, 10413, 10416, 10420, 10444, 10449, 10451, 10459, 10492, 10497, 10813, 10815, 10821, 10843, 10930, 10954, 10959, 10982, 10969, 10993, 10999, 11324, 11325, 11340, 11364, 11370, 11367, 11190, 11414, 11415, 11201, 11200, 11198, 11432, 11424, 11429, 11463, 11469, 11470, 11573, 11580, 11579, 11578, 11587, 6085, 6091, 6088, 11597, 11599, 11598, 4791, 4790, 4793, 4792, 4806, 4809, 4808, 4807, 4823, 4820, 4821, 4822, 5911, 5910, 5909, 5928, 5925, 5903, 5897, 5885, 4560, 4559, 4534, 4640, 4637, 4614, 4636, 4604, 4628, 4630, 4625, 4616, 4591, 4586, 5343, 5342, 5341, 5366, 5349, 5352, 5351, 5346, 5357, 5358, 5364], "elapsed_seconds": 0.051929400011431426, "status": "success", "failure_reason": "", "route_distance_km": 85.93972278716788, "distance_cost_sum": 94.58222258441697, "population_cost_sum": 20.966256035033247, "traffic_cost_sum": 8.929639579392962, "airspace_cost_sum": 56.4, "total_weighted_score": 35.621838804714585, "clustering_method": "hierarchical_jaccard", "distance_method": "jaccard", "direct_cluster_number": 3, "hierarchical_jaccard_cluster": "hier_jaccard_003", "hierarchical_jaccard_cluster_source": "hier_jaccard_003", "representative_route_run_id": "stl_midamerica_to_st_louis_lambert_2025-07-12_0155", "representative_mean_frechet_miles": 0.9113840674911703, "cluster_size": 30, "cluster_weight_space_percent": 15.706806282722512, "merged_cluster_id": "frechet_merged_002", "source_jaccard_clusters": "hier_jaccard_003"}, "geometry": {"type": "LineString", "coordinates": [[-89.83272609742262, 38.54503213945896], [-89.83252853470323, 38.54953126729425], [-89.83233092788802, 38.55403039080605], [-89.83786323937711, 38.55868458173916], [-89.83766590046945, 38.563183721427826], [-89.84319923632499, 38.56783769816219], [-89.84300216560983, 38.572336853993725], [-89.84853652639708, 38.57699061632215], [-89.85407160005472, 38.581644143648255], [-89.85387511044411, 38.586143335977745], [-89.85941120993746, 38.59079664851962], [-89.86494802281949, 38.59544972575618], [-89.87048554927006, 38.60010256755539], [-89.87028995483458, 38.60460181651157], [-89.8700943167311, 38.60910106116116], [-89.86989863494898, 38.6136003015038], [-89.86970290947772, 38.61809953753914], [-89.86950714030678, 38.62259876926683], [-89.86931132742552, 38.62709799668648], [-89.87485144864148, 38.63175072436913], [-89.8803922847395, 38.636403216115646], [-89.88593383589982, 38.64105547179382], [-89.89147610230256, 38.645707491271445], [-89.89701908412802, 38.65035927441625], [-89.90256278155644, 38.65501082109603], [-89.90810719476802, 38.659662131178436], [-89.9136523239431, 38.664313204531176], [-89.91919816926193, 38.66896404102194], [-89.92474473090478, 38.67361464051831], [-89.93029200905198, 38.67826500288795], [-89.93584000388394, 38.68291512799842], [-89.94138871558093, 38.68756501571731], [-89.94693814432328, 38.692214665912154], [-89.94674669463221, 38.69671416897793], [-89.95229715657588, 38.70136360121854], [-89.95784833608543, 38.706012795630784], [-89.96340023334139, 38.71066175208212], [-89.96895284852413, 38.71531047043995], [-89.9745061818142, 38.71995895057171], [-89.98006023339207, 38.72460719234476], [-89.98580423794482, 38.72475555547124], [-89.99135940954523, 38.729403300702366], [-89.99691529981497, 38.734050807216214], [-90.00266014962185, 38.73419837231799], [-90.00840504147382, 38.73434565558328], [-90.01414997529085, 38.734492657005866], [-90.01989495099285, 38.734639376579516], [-90.0254531657946, 38.73928561078315], [-90.03101209970801, 38.74393160563111], [-90.03657175291352, 38.74857736099064], [-90.03638554450524, 38.753077191482134], [-90.04194623543964, 38.75772272628121], [-90.04750764618736, 38.76236802128665], [-90.05306977692881, 38.767013076365565], [-90.05863262784459, 38.77165789138508], [-90.064380814638, 38.77180254081271], [-90.07012904267582, 38.771946907976], [-90.07587731187783, 38.77209099286885], [-90.08144208736864, 38.776734789978555], [-90.08700758345483, 38.78137834648309], [-90.09275669629301, 38.781521630323304], [-90.09850584999424, 38.78166463177869], [-90.10425504447818, 38.78180735084323], [-90.11000427966451, 38.78194978751085], [-90.11575355547296, 38.7820919417755], [-90.12150287182324, 38.78223381363124], [-90.12707149546473, 38.786875571463234], [-90.13282125315982, 38.78701690106956], [-90.13839099877896, 38.79165815754276], [-90.144141197617, 38.79179894469831], [-90.14989143661478, 38.79193944932489], [-90.15564171569191, 38.79207967141655], [-90.1612133849294, 38.79671990586303], [-90.16696410464543, 38.796859585188734], [-90.17271486420935, 38.79699898191665], [-90.17846566354079, 38.79713809604091], [-90.18421650255938, 38.7972769275556], [-90.18996738118462, 38.79741547645485], [-90.19589478470205, 38.7930533145832], [-90.20164538152031, 38.793191276182775], [-90.20739601769448, 38.79332895519443], [-90.2133220569489, 38.78896585329953], [-90.21924737483847, 38.78460242083677], [-90.22517197150503, 38.78023865794401], [-90.23109584709026, 38.775874564759135], [-90.23701900173599, 38.771510141419974], [-90.24294143558392, 38.76714538806433], [-90.24886314877594, 38.76278030483], [-90.25478414145381, 38.758414891854784], [-90.26053224411505, 38.75854985460811], [-90.2662803852531, 38.758684535076355], [-90.27202856478772, 38.758818933253814], [-90.27760565526646, 38.76345381481205], [-90.28335427162158, 38.7635876697896], [-90.28927333296811, 38.75922043398466], [-90.29519167383067, 38.75485286909909], [-90.30110929435136, 38.7504849752706], [-90.3070261946723, 38.7461167526369], [-90.31294237493563, 38.74174820133574], [-90.31885783528352, 38.73737932150475], [-90.32460455631471, 38.7375110734335], [-90.33018361774292, 38.74214352032707], [-90.3359307737393, 38.74227472898667], [-90.34151095257313, 38.74690667038728], [-90.34742519784149, 38.74253629976633], [-90.35333872308522, 38.73816560113835], [-90.35908566820065, 38.73829566025279], [-90.36466711306467, 38.742926539503976], [-90.37024927800739, 38.74755717394432]]}}, {"type": "Feature", "properties": {"route_run_id": "stl_midamerica_to_st_louis_lambert_2025-07-12_0124", "route_pair": "midamerica_to_st_louis_lambert", "route_pair_label": "MidAmerica to St. Louis Lambert", "origin_label": "MidAmerica St. Louis Airport", "destination_label": "St. Louis Lambert International Airport", "origin_lat": 38.5451731, "origin_lon": -89.8351856, "destination_lat": 38.7486982, "destination_lon": -90.3700257, "traffic_date": "2025-07-12", "traffic_dataset": "July 12th - Saturday", "weight_id": "w_0124", "distance_weight": 0.2, "population_weight": 0.0, "traffic_weight": 0.2, "airspace_weight": 0.6, "path_nodes": 96, "path_node_ids": [8877, 8879, 8896, 8900, 8924, 8930, 10012, 10015, 10019, 10053, 10057, 10054, 10061, 10051, 10049, 10048, 10050, 10253, 10252, 10241, 10240, 10248, 10246, 10247, 10245, 10231, 10230, 10262, 10150, 10148, 10149, 10151, 10161, 10159, 10158, 10194, 10170, 10182, 10171, 10183, 2273, 2518, 2277, 2509, 2512, 2513, 2516, 2305, 2529, 2532, 2558, 2840, 2839, 2843, 2845, 2878, 2879, 2884, 2883, 2890, 2891, 2892, 3896, 2796, 2797, 3895, 3890, 3891, 3892, 3889, 2803, 2806, 2805, 2804, 3991, 4007, 4009, 4008, 4019, 4017, 4022, 4029, 4034, 4060, 4064, 5048, 5052, 5076, 5082, 5299, 5304, 5319, 5321, 5357, 5358, 5364], "elapsed_seconds": 0.057549099990865216, "status": "success", "failure_reason": "", "route_distance_km": 71.90850215806387, "distance_cost_sum": 79.13995689361896, "population_cost_sum": 43.3741011849826, "traffic_cost_sum": 27.933870692372615, "airspace_cost_sum": 46.8, "total_weighted_score": 49.49476551719833, "clustering_method": "hierarchical_jaccard", "distance_method": "jaccard", "direct_cluster_number": 4, "hierarchical_jaccard_cluster": "hier_jaccard_004", "hierarchical_jaccard_cluster_source": "hier_jaccard_006", "representative_route_run_id": "stl_midamerica_to_st_louis_lambert_2025-07-12_0124", "representative_mean_frechet_miles": 2.649973033897884, "cluster_size": 27, "cluster_weight_space_percent": 14.136125654450261, "merged_cluster_id": "frechet_merged_003", "source_jaccard_clusters": "hier_jaccard_004"}, "geometry": {"type": "LineString", "coordinates": [[-89.83272609742262, 38.54503213945896], [-89.83825778508921, 38.54968628939868], [-89.84379018463301, 38.55434020475587], [-89.84932329623358, 38.558993885398685], [-89.85485712007056, 38.56364733119524], [-89.86039165632353, 38.56830054201366], [-89.86592690517212, 38.57295351772198], [-89.871462866796, 38.577606258188254], [-89.87699954137483, 38.582258763280514], [-89.88253692908823, 38.586911032866766], [-89.88807503011597, 38.59156306681497], [-89.89380792466403, 38.591715509561276], [-89.89934713930707, 38.59636705177409], [-89.90508047722643, 38.59651895818466], [-89.91081385831642, 38.59667058421835], [-89.91654728249756, 38.596821929868824], [-89.92228074969049, 38.59697299512966], [-89.92801425981584, 38.59712377999449], [-89.93374781279411, 38.597274284457015], [-89.93948140854593, 38.5974245085108], [-89.94521504699188, 38.5975744521496], [-89.95094872805251, 38.59772411536704], [-89.95668245164843, 38.59787349815684], [-89.96241621770018, 38.59802260051268], [-89.96815002612831, 38.59817142242828], [-89.9738838768534, 38.59831996389739], [-89.97961776979602, 38.59846822491371], [-89.98535170487666, 38.59861620547102], [-89.99108568201598, 38.59876390556306], [-89.99681970113441, 38.59891132518362], [-90.00255376215256, 38.59905846432648], [-90.00828786499093, 38.59920532298544], [-90.01402200957008, 38.5993519011543], [-90.01975619581054, 38.599498198826886], [-90.02549042363282, 38.599644215997024], [-90.03103913761147, 38.604289876004025], [-90.0367738054864, 38.60443535543286], [-90.04250851471467, 38.60458055429603], [-90.04824326521684, 38.6047254725874], [-90.05397805691341, 38.60487011030083], [-90.05952907908036, 38.60951450252829], [-90.0650808158304, 38.61415865608025], [-90.07081644524574, 38.61430249805824], [-90.07655211555712, 38.614446059344324], [-90.08210536366288, 38.61908945860739], [-90.087841472983, 38.61923248137871], [-90.09339583428118, 38.623875383605984], [-90.09913238241074, 38.624017867661856], [-90.10468785704973, 38.628660272484225], [-90.1102440470662, 38.63330243772981], [-90.11580095263906, 38.63794436326609], [-90.12135857394713, 38.64258604896054], [-90.12709675507955, 38.642727219229855], [-90.13265549047176, 38.64736840647394], [-90.13821494197643, 38.652009353518125], [-90.14395395948668, 38.652149725619736], [-90.14951452542148, 38.65679017361872], [-90.15507580784583, 38.66143038105964], [-90.16081566145125, 38.66156995441258], [-90.16655555477524, 38.661709246529334], [-90.17229548773797, 38.66184825740402], [-90.17803546025965, 38.66198698703078], [-90.18377547226044, 38.66212543540375], [-90.18951552366053, 38.66226360251709], [-90.1952556143801, 38.66240148836498], [-90.20099574433928, 38.66253909294154], [-90.20673591345827, 38.66267641624103], [-90.21247612165722, 38.6628134582576], [-90.21821636885625, 38.6629502189855], [-90.22395665497557, 38.66308669841892], [-90.2296969799353, 38.66322289655212], [-90.23543734365559, 38.663358813379354], [-90.24117774605664, 38.663494448894866], [-90.24691818705853, 38.663629803092945], [-90.25265866658135, 38.66376487596786], [-90.25822742393137, 38.66840043367656], [-90.26379689845037, 38.67303574898191], [-90.26953821025378, 38.673170020811966], [-90.27527956027723, 38.67330401120623], [-90.28102094844074, 38.67343772015905], [-90.28659233093768, 38.67807201278429], [-90.29216443101578, 38.68270606246168], [-90.29773724885335, 38.68733986905835], [-90.30331078462868, 38.69197343244128], [-90.30888503852013, 38.69660675247757], [-90.31446001070607, 38.70123982903419], [-90.32003570136486, 38.70587266197814], [-90.32561211067481, 38.710505251176386], [-90.33118923881437, 38.715137596495865], [-90.3367670859619, 38.719769697803464], [-90.34234565229588, 38.724401554966114], [-90.34792493799469, 38.72903316785066], [-90.35350494323681, 38.73366453632395], [-90.35908566820065, 38.73829566025279], [-90.36466711306467, 38.742926539503976], [-90.37024927800739, 38.74755717394432]]}}, {"type": "Feature", "properties": {"route_run_id": "stl_midamerica_to_st_louis_lambert_2025-07-12_0226", "route_pair": "midamerica_to_st_louis_lambert", "route_pair_label": "MidAmerica to St. Louis Lambert", "origin_label": "MidAmerica St. Louis Airport", "destination_label": "St. Louis Lambert International Airport", "origin_lat": 38.5451731, "origin_lon": -89.8351856, "destination_lat": 38.7486982, "destination_lon": -90.3700257, "traffic_date": "2025-07-12", "traffic_dataset": "July 12th - Saturday", "weight_id": "w_0226", "distance_weight": 0.4, "population_weight": 0.4, "traffic_weight": 0.0, "airspace_weight": 0.2, "path_nodes": 98, "path_node_ids": [8877, 8881, 8904, 8922, 8923, 8927, 9145, 10016, 10018, 10062, 10055, 10058, 10094, 10096, 10103, 10104, 10110, 10109, 10516, 10515, 10514, 10517, 10522, 10299, 10300, 10301, 10309, 10308, 10533, 10363, 10350, 10351, 10366, 10376, 10374, 10379, 10614, 10407, 10410, 10411, 10408, 2604, 2605, 2606, 2603, 10715, 10714, 10713, 10722, 2597, 10723, 2596, 2876, 2875, 2874, 2873, 2885, 2886, 2884, 2883, 2890, 2891, 2895, 3904, 3925, 3926, 3931, 3951, 3954, 3953, 3966, 3944, 3977, 3976, 3941, 4043, 4066, 4067, 4068, 4185, 4187, 4186, 4076, 4075, 4082, 4084, 5080, 5084, 5310, 5311, 5337, 5320, 5322, 5323, 5346, 5357, 5358, 5364], "elapsed_seconds": 0.046071299992036074, "status": "success", "failure_reason": "", "route_distance_km": 73.20963090489165, "distance_cost_sum": 80.57193322251891, "population_cost_sum": 16.535156841253748, "traffic_cost_sum": 43.07519022063892, "airspace_cost_sum": 51.4, "total_weighted_score": 49.12283602550907, "clustering_method": "hierarchical_jaccard", "distance_method": "jaccard", "direct_cluster_number": 5, "hierarchical_jaccard_cluster": "hier_jaccard_005", "hierarchical_jaccard_cluster_source": "hier_jaccard_004", "representative_route_run_id": "stl_midamerica_to_st_louis_lambert_2025-07-12_0226", "representative_mean_frechet_miles": 0.999128075167868, "cluster_size": 24, "cluster_weight_space_percent": 12.565445026178011, "merged_cluster_id": "frechet_merged_004", "source_jaccard_clusters": "hier_jaccard_005"}, "geometry": {"type": "LineString", "coordinates": [[-89.83272609742262, 38.54503213945896], [-89.83252853470323, 38.54953126729425], [-89.83806053424684, 38.55418543772932], [-89.84359324582596, 38.558839373542895], [-89.84912666962028, 38.563493074603095], [-89.85466080580946, 38.568146540778045], [-89.86019565457306, 38.572799771935806], [-89.86573121609086, 38.57745276794444], [-89.87126749054252, 38.58210552867199], [-89.8768044781077, 38.58675805398646], [-89.88234217896623, 38.591410343755804], [-89.8878805932977, 38.59606239784802], [-89.89341972128202, 38.600714216131045], [-89.89895956309883, 38.60536579847276], [-89.90450011892796, 38.61001714474108], [-89.91004138894921, 38.614668254803874], [-89.9155833733424, 38.61931912852895], [-89.92131862594731, 38.619470314708934], [-89.9268617252078, 38.624120695492145], [-89.93259742104341, 38.62427134452904], [-89.93833315971467, 38.6244217128885], [-89.94406894114202, 38.62457180056415], [-89.94980476524591, 38.62472160754967], [-89.95554063194687, 38.62487113383877], [-89.96127654116528, 38.62502037942509], [-89.96701249282155, 38.625169344302385], [-89.97274848683627, 38.62531802846435], [-89.97848452312972, 38.62546643190471], [-89.98403193705393, 38.63011426460664], [-89.98958006609531, 38.63476185964426], [-89.99531694389556, 38.63490946811138], [-90.00105386367663, 38.63505679574229], [-90.00660350731387, 38.63970363840778], [-90.01234086854143, 38.63985042783196], [-90.01807827152109, 38.63999693635645], [-90.02362942973669, 38.64464302594129], [-90.0291813036891, 38.64928887709267], [-90.03473389355781, 38.653934489678136], [-90.04028719952224, 38.658579863565194], [-90.04602624200047, 38.65872506038847], [-90.05176532579277, 38.658869976095644], [-90.05750445081951, 38.65901461068064], [-90.06324361700084, 38.65915896413734], [-90.06898282425709, 38.65930303645963], [-90.07472207250845, 38.65944682764147], [-90.08046136167522, 38.65959033767675], [-90.0862006916776, 38.659733566559446], [-90.09194006243584, 38.659876514283475], [-90.09767947387014, 38.66001918084284], [-90.10341892590075, 38.66016156623149], [-90.1091584184479, 38.66030367044341], [-90.11489795143179, 38.66044549347263], [-90.12063752477266, 38.66058703531315], [-90.1263771383907, 38.66072829595899], [-90.1321167922061, 38.660869275404174], [-90.13785648613919, 38.66100997364278], [-90.14359622011, 38.661150390668844], [-90.14933599403881, 38.66129052647644], [-90.15507580784583, 38.66143038105964], [-90.16081566145125, 38.66156995441258], [-90.16655555477524, 38.661709246529334], [-90.17229548773797, 38.66184825740402], [-90.17785868094164, 38.666487447153536], [-90.18342259105025, 38.67112639580074], [-90.1889872182426, 38.67576510321293], [-90.19472838451095, 38.67590305525546], [-90.2002941269196, 38.68054126191918], [-90.20586058678872, 38.68517922698935], [-90.21142776429718, 38.68981695033316], [-90.2171701635404, 38.68995384239636], [-90.2229126017605, 38.690090452895454], [-90.22865507887754, 38.69022678182468], [-90.23439759481155, 38.69036282917826], [-90.24014014948251, 38.69049859495047], [-90.24605541323987, 38.68613337677085], [-90.2517976862147, 38.68626855773688], [-90.25736804511756, 38.69090420272148], [-90.26311075393669, 38.69103884211091], [-90.26868222818311, 38.695673984376505], [-90.27425442059507, 38.700308883813186], [-90.27999796237877, 38.700442721166475], [-90.28574154227802, 38.70057627680287], [-90.29148516021279, 38.700709550716724], [-90.297228816103, 38.700842542902386], [-90.30280331580018, 38.70547615766316], [-90.30837853409372, 38.710109528957155], [-90.31395447116216, 38.71474265665128], [-90.31378588266769, 38.71924359100243], [-90.31936286061908, 38.72387649197406], [-90.32494055786266, 38.72850914903958], [-90.330518974577, 38.7331415620659], [-90.33626541075455, 38.733272728767844], [-90.3420118843105, 38.73340361338185], [-90.34775839516463, 38.73353421590239], [-90.35333872308522, 38.73816560113835], [-90.35908566820065, 38.73829566025279], [-90.36466711306467, 38.742926539503976], [-90.37024927800739, 38.74755717394432]]}}, {"type": "Feature", "properties": {"route_run_id": "stl_midamerica_to_st_louis_lambert_2025-07-12_0183", "route_pair": "midamerica_to_st_louis_lambert", "route_pair_label": "MidAmerica to St. Louis Lambert", "origin_label": "MidAmerica St. Louis Airport", "destination_label": "St. Louis Lambert International Airport", "origin_lat": 38.5451731, "origin_lon": -89.8351856, "destination_lat": 38.7486982, "destination_lon": -90.3700257, "traffic_date": "2025-07-12", "traffic_dataset": "July 12th - Saturday", "weight_id": "w_0183", "distance_weight": 0.3, "population_weight": 0.2, "traffic_weight": 0.0, "airspace_weight": 0.5, "path_nodes": 97, "path_node_ids": [8877, 8881, 8904, 8922, 8923, 8927, 9145, 10016, 10018, 10062, 10055, 10058, 10094, 10096, 10103, 10104, 10110, 10109, 10291, 10512, 10290, 10513, 10298, 10295, 10296, 10297, 10307, 10305, 10306, 10319, 10321, 10320, 10318, 10211, 10210, 10208, 10209, 10326, 10328, 10329, 10327, 2522, 2524, 2523, 2514, 2517, 2515, 2516, 2530, 2534, 2532, 2558, 2840, 2839, 2838, 2827, 2849, 2848, 2850, 2837, 2861, 2866, 2889, 3896, 3898, 3901, 3902, 3914, 3948, 3947, 3952, 3940, 3942, 3943, 3941, 4043, 4042, 4041, 4040, 4051, 4054, 4186, 4080, 4205, 4207, 4212, 5309, 5313, 5335, 5337, 5320, 5322, 5323, 5346, 5357, 5358, 5364], "elapsed_seconds": 0.054800799989607185, "status": "success", "failure_reason": "", "route_distance_km": 72.29260468015718, "distance_cost_sum": 79.56268655880336, "population_cost_sum": 22.4028729657628, "traffic_cost_sum": 49.0325494634336, "airspace_cost_sum": 47.6, "total_weighted_score": 52.14938056079359, "clustering_method": "hierarchical_jaccard", "distance_method": "jaccard", "direct_cluster_number": 6, "hierarchical_jaccard_cluster": "hier_jaccard_006", "hierarchical_jaccard_cluster_source": "hier_jaccard_007", "representative_route_run_id": "stl_midamerica_to_st_louis_lambert_2025-07-12_0183", "representative_mean_frechet_miles": 0.6239213250120216, "cluster_size": 15, "cluster_weight_space_percent": 7.853403141361256, "merged_cluster_id": "frechet_merged_005", "source_jaccard_clusters": "hier_jaccard_006"}, "geometry": {"type": "LineString", "coordinates": [[-89.83272609742262, 38.54503213945896], [-89.83252853470323, 38.54953126729425], [-89.83806053424684, 38.55418543772932], [-89.84359324582596, 38.558839373542895], [-89.84912666962028, 38.563493074603095], [-89.85466080580946, 38.568146540778045], [-89.86019565457306, 38.572799771935806], [-89.86573121609086, 38.57745276794444], [-89.87126749054252, 38.58210552867199], [-89.8768044781077, 38.58675805398646], [-89.88234217896623, 38.591410343755804], [-89.8878805932977, 38.59606239784802], [-89.89341972128202, 38.600714216131045], [-89.89895956309883, 38.60536579847276], [-89.90450011892796, 38.61001714474108], [-89.91004138894921, 38.614668254803874], [-89.9155833733424, 38.61931912852895], [-89.92131862594731, 38.619470314708934], [-89.92705392153653, 38.61962122026898], [-89.93278926003055, 38.619771845202735], [-89.93852464134986, 38.619922189503846], [-89.9442600654149, 38.62007225316597], [-89.94999553214618, 38.62022203618278], [-89.95573104146416, 38.620371538547964], [-89.96146659328937, 38.6205207602552], [-89.96720218754218, 38.620669701298226], [-89.97293782414316, 38.62081836167072], [-89.97867350301271, 38.62096674136646], [-89.98440922407127, 38.621114840379136], [-89.99014498723932, 38.62126265870254], [-89.99588079243732, 38.621410196330416], [-90.00161663958568, 38.62155745325657], [-90.00735252860491, 38.621704429474754], [-90.01308845941536, 38.6218511249788], [-90.01882443193752, 38.62199753976251], [-90.0245604460918, 38.62214367381969], [-90.03029650179865, 38.62228952714421], [-90.03603259897847, 38.622435099729884], [-90.04176873755169, 38.622580391570615], [-90.04750491743872, 38.62272540266021], [-90.05324113855997, 38.6228701329926], [-90.0589774008359, 38.62301458256169], [-90.06471370418684, 38.62315875136136], [-90.07045004853325, 38.62330263938551], [-90.07618643379548, 38.623446246628106], [-90.08192285989396, 38.62358957308307], [-90.08765932674906, 38.623732618744384], [-90.09339583428118, 38.623875383605984], [-90.09895091075838, 38.62851804648185], [-90.10450670259345, 38.633160469873815], [-90.1102440470662, 38.63330243772981], [-90.11580095263906, 38.63794436326609], [-90.12135857394713, 38.64258604896054], [-90.12709675507955, 38.642727219229855], [-90.13283497637043, 38.64286810847808], [-90.13857323774008, 38.64300871669927], [-90.14431153910874, 38.643149043887504], [-90.15004988039681, 38.64328909003685], [-90.15578826152439, 38.64342885514139], [-90.16152668241186, 38.64356833919522], [-90.16708780535298, 38.6482079745162], [-90.17264964452228, 38.6528473690797], [-90.17821220009857, 38.65748652275311], [-90.18377547226044, 38.66212543540375], [-90.18933946118675, 38.666764106898924], [-90.19490416705614, 38.67140253710589], [-90.200645013987, 38.67154018571967], [-90.20621083477218, 38.67617811511645], [-90.21177737287698, 38.68081580286656], [-90.21751905445252, 38.68095265114052], [-90.22308670781703, 38.685589837485246], [-90.22882882604138, 38.685726144608395], [-90.23457098307328, 38.6858621702009], [-90.24031317883275, 38.68599791425695], [-90.24605541323987, 38.68613337677085], [-90.2517976862147, 38.68626855773688], [-90.25753999767723, 38.686403457149304], [-90.26328234754749, 38.686538075002424], [-90.26902473574555, 38.686672411290566], [-90.27459628650614, 38.69130727605424], [-90.2801685552908, 38.695941897935995], [-90.28574154227802, 38.70057627680287], [-90.29131524764634, 38.705210412521886], [-90.29688967157429, 38.70984430496006], [-90.30246481424038, 38.714477953984364], [-90.30804067582325, 38.71911135946174], [-90.31361725650144, 38.72374452125915], [-90.3191945564535, 38.72837743924346], [-90.3247725758581, 38.73301011328159], [-90.330518974577, 38.7331415620659], [-90.33626541075455, 38.733272728767844], [-90.3420118843105, 38.73340361338185], [-90.34775839516463, 38.73353421590239], [-90.35333872308522, 38.73816560113835], [-90.35908566820065, 38.73829566025279], [-90.36466711306467, 38.742926539503976], [-90.37024927800739, 38.74755717394432]]}}, {"type": "Feature", "properties": {"route_run_id": "stl_midamerica_to_st_louis_lambert_2025-07-12_0174", "route_pair": "midamerica_to_st_louis_lambert", "route_pair_label": "MidAmerica to St. Louis Lambert", "origin_label": "MidAmerica St. Louis Airport", "destination_label": "St. Louis Lambert International Airport", "origin_lat": 38.5451731, "origin_lon": -89.8351856, "destination_lat": 38.7486982, "destination_lon": -90.3700257, "traffic_date": "2025-07-12", "traffic_dataset": "July 12th - Saturday", "weight_id": "w_0174", "distance_weight": 0.3, "population_weight": 0.0, "traffic_weight": 0.6, "airspace_weight": 0.1, "path_nodes": 109, "path_node_ids": [8877, 8879, 8896, 8900, 8924, 8930, 10012, 10015, 10019, 10053, 10057, 10060, 10092, 10076, 10080, 10105, 10109, 10516, 10519, 10544, 10546, 10557, 10561, 10584, 10588, 10603, 10607, 10611, 10945, 10948, 10951, 10966, 10992, 10996, 11000, 11324, 11325, 11340, 11339, 11365, 11367, 11190, 11414, 11415, 11201, 11200, 11198, 11432, 11424, 11429, 11463, 11469, 11470, 11573, 11580, 11579, 11574, 11549, 11582, 11551, 11550, 11566, 11565, 11567, 4755, 4732, 4733, 4734, 4713, 4712, 4738, 4736, 4747, 4750, 4752, 4751, 4577, 4579, 4582, 5904, 5901, 5903, 5897, 5889, 4564, 4563, 4558, 4643, 4641, 4614, 4636, 4604, 4628, 4630, 4625, 4616, 4591, 4586, 5343, 5365, 5370, 5369, 5353, 5352, 5351, 5346, 5357, 5358, 5364], "elapsed_seconds": 0.04861299999174662, "status": "success", "failure_reason": "", "route_distance_km": 85.39910540064334, "distance_cost_sum": 93.98723818922753, "population_cost_sum": 32.10175544956175, "traffic_cost_sum": 7.72081160887053, "airspace_cost_sum": 53.4, "total_weighted_score": 38.16865842209058, "clustering_method": "hierarchical_jaccard", "distance_method": "jaccard", "direct_cluster_number": 7, "hierarchical_jaccard_cluster": "hier_jaccard_007", "hierarchical_jaccard_cluster_source": "hier_jaccard_005", "representative_route_run_id": "stl_midamerica_to_st_louis_lambert_2025-07-12_0174", "representative_mean_frechet_miles": 1.7377517881251072, "cluster_size": 14, "cluster_weight_space_percent": 7.329842931937173, "merged_cluster_id": "frechet_merged_006", "source_jaccard_clusters": "hier_jaccard_007"}, "geometry": {"type": "LineString", "coordinates": [[-89.83272609742262, 38.54503213945896], [-89.83825778508921, 38.54968628939868], [-89.84379018463301, 38.55434020475587], [-89.84932329623358, 38.558993885398685], [-89.85485712007056, 38.56364733119524], [-89.86039165632353, 38.56830054201366], [-89.86592690517212, 38.57295351772198], [-89.871462866796, 38.577606258188254], [-89.87699954137483, 38.582258763280514], [-89.88253692908823, 38.586911032866766], [-89.88807503011597, 38.59156306681497], [-89.8936138446377, 38.59621486499309], [-89.89915337283315, 38.600866427269025], [-89.90469361488212, 38.60551775351072], [-89.91023457096428, 38.610168843586045], [-89.91577624125941, 38.61481969736282], [-89.92131862594731, 38.619470314708934], [-89.9268617252078, 38.624120695492145], [-89.93240553922064, 38.628770839580255], [-89.93795006816568, 38.63342074684104], [-89.94349531222277, 38.63807041714222], [-89.94904127157176, 38.64271985035151], [-89.95458794639254, 38.64736904633659], [-89.96013533686498, 38.65201800496514], [-89.95994498745974, 38.6565175943054], [-89.95975459554465, 38.6610171793829], [-89.95956416110938, 38.665516760197306], [-89.9593736841437, 38.670016336748276], [-89.95918316463728, 38.67451590903545], [-89.95899260257981, 38.67901547705849], [-89.95880199796098, 38.68351504081707], [-89.95861135077047, 38.68801460031082], [-89.95842066099799, 38.69251415553943], [-89.95822992863319, 38.69701370650252], [-89.95803915366582, 38.70151325319975], [-89.95784833608543, 38.706012795630784], [-89.96340023334139, 38.71066175208212], [-89.96895284852413, 38.71531047043995], [-89.97469605002996, 38.71545934938795], [-89.98024978483323, 38.72010757165556], [-89.98580423794482, 38.72475555547124], [-89.99135940954523, 38.729403300702366], [-89.99691529981497, 38.734050807216214], [-90.00266014962185, 38.73419837231799], [-90.00840504147382, 38.73434565558328], [-90.01414997529085, 38.734492657005866], [-90.01989495099285, 38.734639376579516], [-90.0254531657946, 38.73928561078315], [-90.03101209970801, 38.74393160563111], [-90.03657175291352, 38.74857736099064], [-90.03638554450524, 38.753077191482134], [-90.04194623543964, 38.75772272628121], [-90.04750764618736, 38.76236802128665], [-90.05306977692881, 38.767013076365565], [-90.05863262784459, 38.77165789138508], [-90.064380814638, 38.77180254081271], [-90.07031325680182, 38.76744695528691], [-90.07624497873124, 38.76309103722383], [-90.0819925687528, 38.763234793876215], [-90.08774019975809, 38.763378268336034], [-90.09348787166695, 38.763521460597204], [-90.09923558439915, 38.763664370653686], [-90.10498333787446, 38.76380699849941], [-90.11073113201266, 38.76394934412837], [-90.11647896673357, 38.76409140753454], [-90.12222684195689, 38.7642331887119], [-90.1279747576024, 38.764374687654424], [-90.1337227135899, 38.764515904356195], [-90.13947070983912, 38.76465683881119], [-90.14521874626982, 38.764797491013454], [-90.15078769187976, 38.76943813611978], [-90.15653616865262, 38.76957824619392], [-90.16228468537591, 38.76971807395249], [-90.16785515194643, 38.77435795743755], [-90.17360410865899, 38.774497242810014], [-90.1793531050908, 38.77463624580416], [-90.18510214116154, 38.774774966414064], [-90.19067452866459, 38.779413827308325], [-90.19624763713449, 38.78405244582524], [-90.20182146675117, 38.78869082183167], [-90.20757174221707, 38.78882847883993], [-90.2133220569489, 38.78896585329953], [-90.21924737483847, 38.78460242083677], [-90.22499740720453, 38.78473920831614], [-90.23092168230077, 38.78037514108472], [-90.2368452362968, 38.77601074364824], [-90.24276806933442, 38.771646016144544], [-90.24869018155543, 38.76728095871142], [-90.25461157310168, 38.76291557148669], [-90.26053224411505, 38.75854985460811], [-90.2662803852531, 38.758684535076355], [-90.27202856478772, 38.758818933253814], [-90.27760565526646, 38.76345381481205], [-90.28335427162158, 38.7635876697896], [-90.28927333296811, 38.75922043398466], [-90.29519167383067, 38.75485286909909], [-90.30110929435136, 38.7504849752706], [-90.3070261946723, 38.7461167526369], [-90.31294237493563, 38.74174820133574], [-90.31868941826086, 38.741880256496025], [-90.32426840457497, 38.74651298146582], [-90.3300158831152, 38.74664449332567], [-90.33576339914136, 38.74677572296801], [-90.34151095257313, 38.74690667038728], [-90.34742519784149, 38.74253629976633], [-90.35333872308522, 38.73816560113835], [-90.35908566820065, 38.73829566025279], [-90.36466711306467, 38.742926539503976], [-90.37024927800739, 38.74755717394432]]}}, {"type": "Feature", "properties": {"route_run_id": "stl_midamerica_to_st_louis_lambert_2025-07-12_0140", "route_pair": "midamerica_to_st_louis_lambert", "route_pair_label": "MidAmerica to St. Louis Lambert", "origin_label": "MidAmerica St. Louis Airport", "destination_label": "St. Louis Lambert International Airport", "origin_lat": 38.5451731, "origin_lon": -89.8351856, "destination_lat": 38.7486982, "destination_lon": -90.3700257, "traffic_date": "2025-07-12", "traffic_dataset": "July 12th - Saturday", "weight_id": "w_0140", "distance_weight": 0.2, "population_weight": 0.2, "traffic_weight": 0.1, "airspace_weight": 0.5, "path_nodes": 97, "path_node_ids": [8877, 8881, 8904, 8922, 8923, 8927, 9145, 10016, 10018, 10062, 10055, 10058, 10094, 10096, 10103, 10104, 10110, 10109, 10516, 10512, 10290, 10513, 10298, 10295, 10296, 10297, 10307, 10305, 10306, 10319, 10316, 10317, 10314, 10207, 10206, 10204, 10205, 10323, 10324, 10322, 10325, 2520, 2521, 2519, 2510, 2512, 2513, 2516, 2530, 2534, 2559, 2561, 2840, 2839, 2843, 2845, 2882, 2886, 4087, 4090, 4097, 4100, 4104, 3959, 3961, 3963, 3962, 3967, 3970, 3969, 3968, 3981, 3978, 3976, 3941, 4043, 4042, 4041, 4040, 4046, 4050, 4053, 4076, 4075, 4082, 4084, 5077, 5081, 5083, 5308, 5316, 5322, 5323, 5346, 5357, 5358, 5364], "elapsed_seconds": 0.05595459998585284, "status": "success", "failure_reason": "", "route_distance_km": 74.42718668831178, "distance_cost_sum": 81.91193210058812, "population_cost_sum": 22.056935748572734, "traffic_cost_sum": 29.435034653978683, "airspace_cost_sum": 47.6, "total_weighted_score": 47.53727703523005, "clustering_method": "hierarchical_jaccard", "distance_method": "jaccard", "direct_cluster_number": 9, "hierarchical_jaccard_cluster": "hier_jaccard_009", "hierarchical_jaccard_cluster_source": "hier_jaccard_008", "representative_route_run_id": "stl_midamerica_to_st_louis_lambert_2025-07-12_0140", "representative_mean_frechet_miles": 0.9475478212626861, "cluster_size": 10, "cluster_weight_space_percent": 5.2356020942408374, "merged_cluster_id": "frechet_merged_007", "source_jaccard_clusters": "hier_jaccard_009"}, "geometry": {"type": "LineString", "coordinates": [[-89.83272609742262, 38.54503213945896], [-89.83252853470323, 38.54953126729425], [-89.83806053424684, 38.55418543772932], [-89.84359324582596, 38.558839373542895], [-89.84912666962028, 38.563493074603095], [-89.85466080580946, 38.568146540778045], [-89.86019565457306, 38.572799771935806], [-89.86573121609086, 38.57745276794444], [-89.87126749054252, 38.58210552867199], [-89.8768044781077, 38.58675805398646], [-89.88234217896623, 38.591410343755804], [-89.8878805932977, 38.59606239784802], [-89.89341972128202, 38.600714216131045], [-89.89895956309883, 38.60536579847276], [-89.90450011892796, 38.61001714474108], [-89.91004138894921, 38.614668254803874], [-89.9155833733424, 38.61931912852895], [-89.92131862594731, 38.619470314708934], [-89.9268617252078, 38.624120695492145], [-89.93278926003055, 38.619771845202735], [-89.93852464134986, 38.619922189503846], [-89.9442600654149, 38.62007225316597], [-89.94999553214618, 38.62022203618278], [-89.95573104146416, 38.620371538547964], [-89.96146659328937, 38.6205207602552], [-89.96720218754218, 38.620669701298226], [-89.97293782414316, 38.62081836167072], [-89.97867350301271, 38.62096674136646], [-89.98440922407127, 38.621114840379136], [-89.99014498723932, 38.62126265870254], [-89.99606865803695, 38.61691043058469], [-90.00180414780024, 38.61705766394838], [-90.00753967942423, 38.617204616648934], [-90.01327525282936, 38.61735128868017], [-90.01901086793612, 38.61749768003589], [-90.02474652466493, 38.617643790709906], [-90.03048222293627, 38.617789620696094], [-90.03621796267052, 38.617935169988264], [-90.0419537437882, 38.61808043858029], [-90.04768956620967, 38.61822542646607], [-90.05342542985542, 38.61837013363945], [-90.05916133464585, 38.61851456009435], [-90.06489728050143, 38.618658705824664], [-90.07063326734246, 38.618802570824315], [-90.07636929508949, 38.61894615508724], [-90.08210536366288, 38.61908945860739], [-90.087841472983, 38.61923248137871], [-90.09339583428118, 38.623875383605984], [-90.09895091075838, 38.62851804648185], [-90.10450670259345, 38.633160469873815], [-90.11006320996535, 38.6378026536494], [-90.11562043305292, 38.64244459767609], [-90.12135857394713, 38.64258604896054], [-90.12709675507955, 38.642727219229855], [-90.13265549047176, 38.64736840647394], [-90.13821494197643, 38.652009353518125], [-90.14377510977252, 38.656650060229836], [-90.14933599403881, 38.66129052647644], [-90.15489759495433, 38.66593075212527], [-90.16045991269797, 38.67057073704366], [-90.16602294744865, 38.67521048109892], [-90.17158669938539, 38.67984998415831], [-90.17715116868709, 38.68448924608908], [-90.18271635553282, 38.68912826675848], [-90.18828226010154, 38.69376704603371], [-90.19402486155344, 38.69390508637386], [-90.19976750231159, 38.694042845128145], [-90.20551018229601, 38.69418032229077], [-90.2112529014267, 38.694317517855914], [-90.2169956596237, 38.69445443181779], [-90.22273845680708, 38.6945910641706], [-90.22848129289677, 38.69472741490856], [-90.23422416781283, 38.694863484025944], [-90.24014014948251, 38.69049859495047], [-90.24605541323987, 38.68613337677085], [-90.2517976862147, 38.68626855773688], [-90.25753999767723, 38.686403457149304], [-90.26328234754749, 38.686538075002424], [-90.26902473574555, 38.686672411290566], [-90.27476716219141, 38.68680646600806], [-90.28033911009649, 38.69144107059682], [-90.28591177604412, 38.696075432210684], [-90.29148516021279, 38.700709550716724], [-90.297228816103, 38.700842542902386], [-90.30280331580018, 38.70547615766316], [-90.30837853409372, 38.710109528957155], [-90.31412302199392, 38.71024171820601], [-90.31969935615703, 38.71487458515916], [-90.32527640929177, 38.719507208286444], [-90.33085418157658, 38.72413958745472], [-90.33643267319002, 38.72877172253092], [-90.3420118843105, 38.73340361338185], [-90.34775839516463, 38.73353421590239], [-90.35333872308522, 38.73816560113835], [-90.35908566820065, 38.73829566025279], [-90.36466711306467, 38.742926539503976], [-90.37024927800739, 38.74755717394432]]}}, {"type": "Feature", "properties": {"route_run_id": "stl_midamerica_to_st_louis_lambert_2025-07-12_0256", "route_pair": "midamerica_to_st_louis_lambert", "route_pair_label": "MidAmerica to St. Louis Lambert", "origin_label": "MidAmerica St. Louis Airport", "destination_label": "St. Louis Lambert International Airport", "origin_lat": 38.5451731, "origin_lon": -89.8351856, "destination_lat": 38.7486982, "destination_lon": -90.3700257, "traffic_date": "2025-07-12", "traffic_dataset": "July 12th - Saturday", "weight_id": "w_0256", "distance_weight": 0.6, "population_weight": 0.0, "traffic_weight": 0.3, "airspace_weight": 0.1, "path_nodes": 96, "path_node_ids": [8877, 8879, 8896, 8900, 8924, 8930, 10012, 10015, 10019, 10053, 10057, 10060, 10092, 10076, 10080, 10105, 10109, 10516, 10519, 10544, 10546, 10557, 10561, 10584, 10590, 10913, 10918, 10920, 10933, 10677, 10680, 10702, 10685, 10686, 10687, 10689, 11112, 11117, 11121, 11153, 11048, 11049, 11051, 11065, 11079, 11081, 11103, 11108, 11089, 11087, 11088, 4461, 4459, 4458, 4460, 4448, 4451, 4449, 4450, 4467, 4465, 4466, 4434, 4369, 4368, 4370, 4363, 4375, 4376, 4364, 4486, 4490, 4494, 4495, 4282, 4283, 4605, 4284, 4595, 4596, 4597, 4588, 4587, 4585, 4586, 5368, 5367, 5370, 5369, 5353, 5352, 5375, 5354, 5363, 5362, 5364], "elapsed_seconds": 0.03300269998726435, "status": "success", "failure_reason": "", "route_distance_km": 72.49092373442213, "distance_cost_sum": 79.78094950316577, "population_cost_sum": 37.795879543867315, "traffic_cost_sum": 19.427870450714998, "airspace_cost_sum": 53.8, "total_weighted_score": 59.07693083711396, "clustering_method": "hierarchical_jaccard", "distance_method": "jaccard", "direct_cluster_number": 11, "hierarchical_jaccard_cluster": "hier_jaccard_011", "hierarchical_jaccard_cluster_source": "hier_jaccard_014", "representative_route_run_id": "stl_midamerica_to_st_louis_lambert_2025-07-12_0256", "representative_mean_frechet_miles": 1.0763274022712732, "cluster_size": 8, "cluster_weight_space_percent": 4.18848167539267, "merged_cluster_id": "frechet_merged_008", "source_jaccard_clusters": "hier_jaccard_011"}, "geometry": {"type": "LineString", "coordinates": [[-89.83272609742262, 38.54503213945896], [-89.83825778508921, 38.54968628939868], [-89.84379018463301, 38.55434020475587], [-89.84932329623358, 38.558993885398685], [-89.85485712007056, 38.56364733119524], [-89.86039165632353, 38.56830054201366], [-89.86592690517212, 38.57295351772198], [-89.871462866796, 38.577606258188254], [-89.87699954137483, 38.582258763280514], [-89.88253692908823, 38.586911032866766], [-89.88807503011597, 38.59156306681497], [-89.8936138446377, 38.59621486499309], [-89.89915337283315, 38.600866427269025], [-89.90469361488212, 38.60551775351072], [-89.91023457096428, 38.610168843586045], [-89.91577624125941, 38.61481969736282], [-89.92131862594731, 38.619470314708934], [-89.9268617252078, 38.624120695492145], [-89.93240553922064, 38.628770839580255], [-89.93795006816568, 38.63342074684104], [-89.94349531222277, 38.63807041714222], [-89.94904127157176, 38.64271985035151], [-89.95458794639254, 38.64736904633659], [-89.96013533686498, 38.65201800496514], [-89.96568344316897, 38.656666726104795], [-89.97123226548442, 38.66131520962318], [-89.9767818039913, 38.66596345538788], [-89.98233205886955, 38.670611463266454], [-89.98788303029909, 38.675259233126454], [-89.99343471845992, 38.67990676483541], [-89.99898712353205, 38.684554058260794], [-90.00472802444695, 38.68470136403012], [-90.0104689672949, 38.68484838845719], [-90.01620995199617, 38.68499513153583], [-90.0219509784709, 38.685141593259814], [-90.02750570235182, 38.68978761665848], [-90.03306114358507, 38.694433401135996], [-90.03861730235049, 38.69907894655981], [-90.04417417882804, 38.70372425279727], [-90.04973177319775, 38.70836931971571], [-90.05529008563943, 38.71301414718246], [-90.06084911633309, 38.71765873506482], [-90.06659298670878, 38.71780310725952], [-90.07215313622991, 38.7224471967424], [-90.07771400438293, 38.727091046282226], [-90.08327559134786, 38.731734655746216], [-90.08902070388382, 38.73187796973671], [-90.09458341022565, 38.73652107997912], [-90.10032896391051, 38.73666385302199], [-90.1060745582792, 38.73680634412415], [-90.11182019325165, 38.73694855327956], [-90.11756586874766, 38.73709048048222], [-90.12331158468722, 38.73723212572614], [-90.12905734099012, 38.73737348900531], [-90.13480313757627, 38.73751457031374], [-90.14054897436556, 38.737655369645516], [-90.14629485127787, 38.73779588699464], [-90.15204076823301, 38.73793612235518], [-90.15778672515091, 38.7380760757212], [-90.16371085360363, 38.73371539801194], [-90.16945653052865, 38.733854765085404], [-90.17520224716635, 38.73399385019164], [-90.18094800343661, 38.73413265332478], [-90.18669379925925, 38.73427117447892], [-90.19243963455413, 38.734409413648244], [-90.19818550924118, 38.734547370826895], [-90.2039314232402, 38.73468504600902], [-90.20967737647105, 38.73482243918881], [-90.21542336885356, 38.73495955036046], [-90.22116940030762, 38.735096379518154], [-90.22691547075303, 38.73523292665613], [-90.2324877652241, 38.739869805302575], [-90.23806077935046, 38.74450644127875], [-90.24380768597257, 38.74464218572691], [-90.24955463128411, 38.74477764804228], [-90.25530161520497, 38.744912828219114], [-90.26104863765484, 38.745047726251684], [-90.26679569855357, 38.74518234213431], [-90.27254279782086, 38.745316675861254], [-90.27828993537652, 38.74545072742688], [-90.28403711114032, 38.7455844968255], [-90.28978432503207, 38.74571798405145], [-90.29553157697147, 38.7458511890991], [-90.30127886687828, 38.745984111962784], [-90.3070261946723, 38.7461167526369], [-90.31277356027323, 38.74624911111586], [-90.31852096360088, 38.74638118739401], [-90.32426840457497, 38.74651298146582], [-90.3300158831152, 38.74664449332567], [-90.33576339914136, 38.74677572296801], [-90.34151095257313, 38.74690667038728], [-90.34725854333031, 38.74703733557797], [-90.35300617133261, 38.74716771853452], [-90.35875383649973, 38.747297819251436], [-90.36450153875144, 38.7474276377232], [-90.37024927800739, 38.74755717394432]]}}, {"type": "Feature", "properties": {"route_run_id": "stl_midamerica_to_st_louis_lambert_2025-07-12_0112", "route_pair": "midamerica_to_st_louis_lambert", "route_pair_label": "MidAmerica to St. Louis Lambert", "origin_label": "MidAmerica St. Louis Airport", "destination_label": "St. Louis Lambert International Airport", "origin_lat": 38.5451731, "origin_lon": -89.8351856, "destination_lat": 38.7486982, "destination_lon": -90.3700257, "traffic_date": "2025-07-12", "traffic_dataset": "July 12th - Saturday", "weight_id": "w_0112", "distance_weight": 0.1, "population_weight": 0.6, "traffic_weight": 0.0, "airspace_weight": 0.3, "path_nodes": 119, "path_node_ids": [8877, 8880, 8902, 8917, 8943, 8947, 8951, 9043, 9047, 9051, 9252, 9279, 9280, 9292, 9316, 9320, 9447, 9470, 9473, 9498, 9488, 9466, 9467, 9489, 9480, 9481, 9485, 9487, 10502, 10504, 10508, 10823, 10833, 10832, 10501, 10817, 10815, 10816, 10814, 10597, 10598, 10599, 10596, 10591, 10602, 10603, 10604, 10913, 10914, 10580, 10399, 10392, 10369, 10370, 10381, 10380, 10379, 10614, 10407, 10410, 10411, 10408, 2604, 2605, 2606, 2603, 10715, 10714, 10713, 10722, 2597, 10723, 2596, 2876, 2875, 2874, 2873, 2885, 2886, 2884, 2883, 2893, 4095, 4096, 3932, 3933, 3958, 3962, 3967, 3954, 3953, 3966, 3944, 3977, 3976, 3941, 4043, 4066, 4067, 4068, 4185, 4187, 4188, 4076, 4075, 4082, 4084, 5080, 5084, 5310, 5311, 5337, 5320, 5322, 5323, 5346, 5357, 5358, 5364], "elapsed_seconds": 0.055033500015269965, "status": "success", "failure_reason": "", "route_distance_km": 90.0929044869205, "distance_cost_sum": 99.15306762812693, "population_cost_sum": 12.288917930016117, "traffic_cost_sum": 43.237503387868195, "airspace_cost_sum": 50.4, "total_weighted_score": 32.40865752082237, "clustering_method": "hierarchical_jaccard", "distance_method": "jaccard", "direct_cluster_number": 13, "hierarchical_jaccard_cluster": "hier_jaccard_013", "hierarchical_jaccard_cluster_source": "hier_jaccard_011", "representative_route_run_id": "stl_midamerica_to_st_louis_lambert_2025-07-12_0112", "representative_mean_frechet_miles": 1.6336877902928246, "cluster_size": 6, "cluster_weight_space_percent": 3.141361256544503, "merged_cluster_id": "frechet_merged_009", "source_jaccard_clusters": "hier_jaccard_013"}, "geometry": {"type": "LineString", "coordinates": [[-89.83272609742262, 38.54503213945896], [-89.82679932841316, 38.54937596534434], [-89.82087184756911, 38.5537194572955], [-89.81494365475342, 38.55806261517538], [-89.80901474982912, 38.56240543884689], [-89.80308513265928, 38.5667479281729], [-89.79715480310698, 38.57109008301633], [-89.79122376103525, 38.57543190324002], [-89.78529200630723, 38.57977338870683], [-89.77935953878595, 38.584114539279575], [-89.77342635833462, 38.58845535482108], [-89.76749246481631, 38.592795835194096], [-89.77302317248059, 38.59745301778382], [-89.77855459352905, 38.60210996638523], [-89.78408672814213, 38.60676668086644], [-89.78961957650024, 38.61142316109546], [-89.7951531387839, 38.616079406940315], [-89.80068741517351, 38.62073541826901], [-89.80622240584958, 38.62539119494952], [-89.81175811099261, 38.63004673684979], [-89.81749364791803, 38.630203048093044], [-89.82322922929045, 38.630359078698575], [-89.82896485503045, 38.63051482865979], [-89.8347005250585, 38.63067029797015], [-89.8404362392951, 38.630825486623074], [-89.84617199766075, 38.63098039461205], [-89.85171082737938, 38.63563416678366], [-89.85725037205434, 38.6402877033523], [-89.86279063186602, 38.64494100418581], [-89.86833160699481, 38.649594069151966], [-89.87387329762107, 38.65424689811857], [-89.87941570392526, 38.65889949095339], [-89.8851539151411, 38.659052580980976], [-89.89089216991299, 38.65920539002373], [-89.89663046816118, 38.65935791807517], [-89.9023688098061, 38.65951016512888], [-89.90810719476802, 38.659662131178436], [-89.91384562296734, 38.65981381621741], [-89.91958409432429, 38.65996522023942], [-89.92532260875927, 38.66011634323806], [-89.93106116619256, 38.660267185206955], [-89.93679976654445, 38.66041774613974], [-89.94253840973533, 38.66056802603007], [-89.94827709568544, 38.660718024871585], [-89.95401582431515, 38.66086774265796], [-89.95975459554465, 38.6610171793829], [-89.96549340929431, 38.661166335040065], [-89.97123226548442, 38.66131520962318], [-89.97697116403525, 38.66146380312594], [-89.98289906455885, 38.6571124353027], [-89.98882624900955, 38.65276073478186], [-89.99475271752624, 38.64840870170082], [-90.00067847024802, 38.64405633619701], [-90.00641614743708, 38.64420343004679], [-90.01215386646798, 38.64435024295822], [-90.0178916272611, 38.64449677492512], [-90.02362942973669, 38.64464302594129], [-90.0291813036891, 38.64928887709267], [-90.03473389355781, 38.653934489678136], [-90.04028719952224, 38.658579863565194], [-90.04602624200047, 38.65872506038847], [-90.05176532579277, 38.658869976095644], [-90.05750445081951, 38.65901461068064], [-90.06324361700084, 38.65915896413734], [-90.06898282425709, 38.65930303645963], [-90.07472207250845, 38.65944682764147], [-90.08046136167522, 38.65959033767675], [-90.0862006916776, 38.659733566559446], [-90.09194006243584, 38.659876514283475], [-90.09767947387014, 38.66001918084284], [-90.10341892590075, 38.66016156623149], [-90.1091584184479, 38.66030367044341], [-90.11489795143179, 38.66044549347263], [-90.12063752477266, 38.66058703531315], [-90.1263771383907, 38.66072829595899], [-90.1321167922061, 38.660869275404174], [-90.13785648613919, 38.66100997364278], [-90.14359622011, 38.661150390668844], [-90.14933599403881, 38.66129052647644], [-90.15507580784583, 38.66143038105964], [-90.16081566145125, 38.66156995441258], [-90.16637805865126, 38.66620966221335], [-90.17194117271791, 38.67084912909773], [-90.17750500383, 38.67548835493302], [-90.18306955216653, 38.68012733958649], [-90.18863481790633, 38.68476608292537], [-90.19420080122836, 38.68940458481685], [-90.19976750231159, 38.694042845128145], [-90.20551018229601, 38.69418032229077], [-90.21142776429718, 38.68981695033316], [-90.2171701635404, 38.68995384239636], [-90.2229126017605, 38.690090452895454], [-90.22865507887754, 38.69022678182468], [-90.23439759481155, 38.69036282917826], [-90.24014014948251, 38.69049859495047], [-90.24605541323987, 38.68613337677085], [-90.2517976862147, 38.68626855773688], [-90.25736804511756, 38.69090420272148], [-90.26311075393669, 38.69103884211091], [-90.26868222818311, 38.695673984376505], [-90.27425442059507, 38.700308883813186], [-90.27999796237877, 38.700442721166475], [-90.28557127047641, 38.70507711728869], [-90.29148516021279, 38.700709550716724], [-90.297228816103, 38.700842542902386], [-90.30280331580018, 38.70547615766316], [-90.30837853409372, 38.710109528957155], [-90.31395447116216, 38.71474265665128], [-90.31378588266769, 38.71924359100243], [-90.31936286061908, 38.72387649197406], [-90.32494055786266, 38.72850914903958], [-90.330518974577, 38.7331415620659], [-90.33626541075455, 38.733272728767844], [-90.3420118843105, 38.73340361338185], [-90.34775839516463, 38.73353421590239], [-90.35333872308522, 38.73816560113835], [-90.35908566820065, 38.73829566025279], [-90.36466711306467, 38.742926539503976], [-90.37024927800739, 38.74755717394432]]}}, {"type": "Feature", "properties": {"route_run_id": "stl_midamerica_to_st_louis_lambert_2025-07-12_0215", "route_pair": "midamerica_to_st_louis_lambert", "route_pair_label": "MidAmerica to St. Louis Lambert", "origin_label": "MidAmerica St. Louis Airport", "destination_label": "St. Louis Lambert International Airport", "origin_lat": 38.5451731, "origin_lon": -89.8351856, "destination_lat": 38.7486982, "destination_lon": -90.3700257, "traffic_date": "2025-07-12", "traffic_dataset": "July 12th - Saturday", "weight_id": "w_0215", "distance_weight": 0.4, "population_weight": 0.1, "traffic_weight": 0.4, "airspace_weight": 0.1, "path_nodes": 102, "path_node_ids": [8877, 8881, 8904, 8922, 8923, 8927, 9145, 10016, 10018, 10021, 10063, 10068, 10070, 10095, 10100, 10101, 10111, 10432, 10436, 10441, 10549, 10562, 10565, 10569, 10589, 10602, 10607, 10611, 10945, 10948, 10962, 10976, 10979, 11006, 11008, 11142, 11146, 11149, 11174, 11177, 11180, 11193, 11202, 11203, 11206, 11210, 11512, 11515, 11519, 11552, 11541, 11544, 11542, 11543, 11529, 11531, 11530, 4726, 4725, 4704, 4727, 4711, 4712, 4738, 4736, 4747, 4750, 4752, 4751, 4577, 4576, 4575, 4570, 4571, 4572, 4569, 4561, 4556, 4555, 4529, 4640, 4641, 4638, 4639, 4631, 4628, 4630, 4625, 4616, 4591, 4586, 5368, 5365, 5370, 5369, 5353, 5352, 5379, 5376, 5588, 5362, 5364], "elapsed_seconds": 0.047225500020431355, "status": "success", "failure_reason": "", "route_distance_km": 79.02911360039077, "distance_cost_sum": 86.97665027047802, "population_cost_sum": 27.871863961673565, "traffic_cost_sum": 12.679642660540576, "airspace_cost_sum": 54.4, "total_weighted_score": 48.089703568574805, "clustering_method": "hierarchical_jaccard", "distance_method": "jaccard", "direct_cluster_number": 16, "hierarchical_jaccard_cluster": "hier_jaccard_016", "hierarchical_jaccard_cluster_source": "hier_jaccard_016", "representative_route_run_id": "stl_midamerica_to_st_louis_lambert_2025-07-12_0215", "representative_mean_frechet_miles": 0.8432028688469398, "cluster_size": 3, "cluster_weight_space_percent": 1.5706806282722514, "merged_cluster_id": "frechet_merged_010", "source_jaccard_clusters": "hier_jaccard_016"}, "geometry": {"type": "LineString", "coordinates": [[-89.83272609742262, 38.54503213945896], [-89.83252853470323, 38.54953126729425], [-89.83806053424684, 38.55418543772932], [-89.84359324582596, 38.558839373542895], [-89.84912666962028, 38.563493074603095], [-89.85466080580946, 38.568146540778045], [-89.86019565457306, 38.572799771935806], [-89.86573121609086, 38.57745276794444], [-89.87126749054252, 38.58210552867199], [-89.8710720706737, 38.58660479485093], [-89.87087660717904, 38.591104056724724], [-89.87641422092351, 38.59575662249155], [-89.88195254827868, 38.600408952635085], [-89.8874915894244, 38.605061047023284], [-89.89303134454052, 38.609712905524034], [-89.89857181380691, 38.614364528005225], [-89.90411299740347, 38.6190159143347], [-89.90965489551003, 38.62366706438032], [-89.91519750830652, 38.62831797800987], [-89.92074083597288, 38.63296865509114], [-89.926284878689, 38.63761909549191], [-89.93182963663487, 38.64226929907988], [-89.93737510999041, 38.64691926572281], [-89.94292129893564, 38.65156899528835], [-89.94846820365056, 38.656218487644196], [-89.95401582431515, 38.66086774265796], [-89.95956416110938, 38.665516760197306], [-89.9593736841437, 38.670016336748276], [-89.95918316463728, 38.67451590903545], [-89.95899260257981, 38.67901547705849], [-89.96454260310888, 38.683664315807185], [-89.97009332060642, 38.68831291669857], [-89.97564475525265, 38.69296127960011], [-89.98119690722773, 38.69760940437934], [-89.98674977671193, 38.702257290903674], [-89.99249202828123, 38.70240525396004], [-89.9980460164884, 38.70705264420518], [-90.00360072258562, 38.71169979583708], [-90.00915614675313, 38.71634670872312], [-90.01471228917124, 38.720993382730654], [-90.02026915002016, 38.72563981772699], [-90.0260134487458, 38.725786208627625], [-90.0315714292713, 38.73043214607123], [-90.0373161706971, 38.730577996740486], [-90.04287527104992, 38.73522343626105], [-90.04843509041487, 38.73986863618579], [-90.05418067530685, 38.74001368772449], [-90.05974161485003, 38.74465838912984], [-90.06530327378596, 38.74930285058057], [-90.07086565229487, 38.753947071943784], [-90.07661248132878, 38.75409106474007], [-90.0823593514068, 38.75423477543987], [-90.08810626244863, 38.754378204037124], [-90.0938532143742, 38.75452135052577], [-90.0996002071033, 38.75466421489975], [-90.10534724055572, 38.75480679715302], [-90.11109431465128, 38.75494909727954], [-90.11684142930986, 38.755091115273316], [-90.12258858445115, 38.75523285112832], [-90.12833577999508, 38.75537430483855], [-90.13408301586138, 38.75551547639804], [-90.13965052099033, 38.760156604395206], [-90.14521874626982, 38.764797491013454], [-90.15078769187976, 38.76943813611978], [-90.15653616865262, 38.76957824619392], [-90.16228468537591, 38.76971807395249], [-90.16785515194643, 38.77435795743755], [-90.17360410865899, 38.774497242810014], [-90.1793531050908, 38.77463624580416], [-90.18510214116154, 38.774774966414064], [-90.19085121679088, 38.77491340463388], [-90.19660033189848, 38.775051560457726], [-90.2023494864041, 38.775189433879774], [-90.20809868022731, 38.77532702489418], [-90.2138479132879, 38.77546433349512], [-90.21959718550548, 38.775601359676806], [-90.2253464967997, 38.7757381034334], [-90.23126997296376, 38.771373984298066], [-90.23719272834893, 38.76700953505921], [-90.24311476309701, 38.76264475585462], [-90.24886314877594, 38.76278030483], [-90.25461157310168, 38.76291557148669], [-90.26036003599388, 38.76305055581894], [-90.26610853737229, 38.76318525782105], [-90.2718570771566, 38.76331967748733], [-90.27760565526646, 38.76345381481205], [-90.28335427162158, 38.7635876697896], [-90.28927333296811, 38.75922043398466], [-90.29519167383067, 38.75485286909909], [-90.30110929435136, 38.7504849752706], [-90.3070261946723, 38.7461167526369], [-90.31277356027323, 38.74624911111586], [-90.31868941826086, 38.741880256496025], [-90.32426840457497, 38.74651298146582], [-90.3300158831152, 38.74664449332567], [-90.33576339914136, 38.74677572296801], [-90.34151095257313, 38.74690667038728], [-90.34709185157405, 38.75153836730899], [-90.35283983971358, 38.7516687711157], [-90.35858786502698, 38.75179889263772], [-90.36450153875144, 38.7474276377232], [-90.37024927800739, 38.74755717394432]]}}]}