{"type": "FeatureCollection", "features": [{"type": "Feature", "properties": {"route_run_id": "stl_midamerica_to_st_louis_union_station_2025-07-12_0185", "route_pair": "midamerica_to_st_louis_union_station", "route_pair_label": "MidAmerica to St. Louis Union Station", "origin_label": "MidAmerica St. Louis Airport", "destination_label": "St. Louis Union Station", "origin_lat": 38.5451731, "origin_lon": -89.8351856, "destination_lat": 38.629167, "destination_lon": -90.2075, "traffic_date": "2025-07-12", "traffic_dataset": "July 12th - Saturday", "weight_id": "w_0185", "distance_weight": 0.3, "population_weight": 0.2, "traffic_weight": 0.2, "airspace_weight": 0.3, "path_nodes": 68, "path_node_ids": [8877, 8881, 8904, 8922, 8923, 8927, 9145, 10016, 10018, 10062, 10055, 10058, 10094, 10096, 10103, 10104, 10110, 10109, 10291, 10512, 10290, 10513, 10298, 10295, 10296, 10297, 10307, 10305, 10306, 10319, 10316, 10317, 10314, 10207, 10206, 10204, 10205, 10323, 10324, 10322, 10325, 2520, 2521, 2519, 2510, 2512, 2513, 2516, 2305, 2529, 2532, 2558, 2840, 2839, 2838, 2827, 2849, 2848, 2850, 2837, 2859, 2858, 2860, 2763, 2762, 2737, 2732, 2715], "elapsed_seconds": 0.030277600017143413, "status": "success", "failure_reason": "", "route_distance_km": 49.19905464434062, "distance_cost_sum": 54.146741301901585, "population_cost_sum": 15.569674635194168, "traffic_cost_sum": 19.87178404899501, "airspace_cost_sum": 23.2, "total_weighted_score": 30.292314127408314, "clustering_method": "hierarchical_jaccard", "distance_method": "jaccard", "direct_cluster_number": 2, "hierarchical_jaccard_cluster": "hier_jaccard_002", "hierarchical_jaccard_cluster_source": "hier_jaccard_001", "representative_route_run_id": "stl_midamerica_to_st_louis_union_station_2025-07-12_0185", "representative_mean_frechet_miles": 1.181713697297646, "cluster_size": 109, "cluster_weight_space_percent": 76.7605633802817, "merged_cluster_id": "frechet_merged_001", "source_jaccard_clusters": "hier_jaccard_002, hier_jaccard_003, hier_jaccard_007"}, "geometry": {"type": "LineString", "coordinates": [[-89.83272609742262, 38.54503213945896], [-89.83252853470323, 38.54953126729425], [-89.83806053424684, 38.55418543772932], [-89.84359324582596, 38.558839373542895], [-89.84912666962028, 38.563493074603095], [-89.85466080580946, 38.568146540778045], [-89.86019565457306, 38.572799771935806], [-89.86573121609086, 38.57745276794444], [-89.87126749054252, 38.58210552867199], [-89.8768044781077, 38.58675805398646], [-89.88234217896623, 38.591410343755804], [-89.8878805932977, 38.59606239784802], [-89.89341972128202, 38.600714216131045], [-89.89895956309883, 38.60536579847276], [-89.90450011892796, 38.61001714474108], [-89.91004138894921, 38.614668254803874], [-89.9155833733424, 38.61931912852895], [-89.92131862594731, 38.619470314708934], [-89.92705392153653, 38.61962122026898], [-89.93278926003055, 38.619771845202735], [-89.93852464134986, 38.619922189503846], [-89.9442600654149, 38.62007225316597], [-89.94999553214618, 38.62022203618278], [-89.95573104146416, 38.620371538547964], [-89.96146659328937, 38.6205207602552], [-89.96720218754218, 38.620669701298226], [-89.97293782414316, 38.62081836167072], [-89.97867350301271, 38.62096674136646], [-89.98440922407127, 38.621114840379136], [-89.99014498723932, 38.62126265870254], [-89.99606865803695, 38.61691043058469], [-90.00180414780024, 38.61705766394838], [-90.00753967942423, 38.617204616648934], [-90.01327525282936, 38.61735128868017], [-90.01901086793612, 38.61749768003589], [-90.02474652466493, 38.617643790709906], [-90.03048222293627, 38.617789620696094], [-90.03621796267052, 38.617935169988264], [-90.0419537437882, 38.61808043858029], [-90.04768956620967, 38.61822542646607], [-90.05342542985542, 38.61837013363945], [-90.05916133464585, 38.61851456009435], [-90.06489728050143, 38.618658705824664], [-90.07063326734246, 38.618802570824315], [-90.07636929508949, 38.61894615508724], [-90.08210536366288, 38.61908945860739], [-90.087841472983, 38.61923248137871], [-90.09339583428118, 38.623875383605984], [-90.09913238241074, 38.624017867661856], [-90.10468785704973, 38.628660272484225], [-90.1102440470662, 38.63330243772981], [-90.11580095263906, 38.63794436326609], [-90.12135857394713, 38.64258604896054], [-90.12709675507955, 38.642727219229855], [-90.13283497637043, 38.64286810847808], [-90.13857323774008, 38.64300871669927], [-90.14431153910874, 38.643149043887504], [-90.15004988039681, 38.64328909003685], [-90.15578826152439, 38.64342885514139], [-90.16152668241186, 38.64356833919522], [-90.16726514297947, 38.64370754219247], [-90.17300364314747, 38.64384646412727], [-90.17874218283609, 38.64398510499372], [-90.18448076196563, 38.64412346478601], [-90.19021938045634, 38.644261543498274], [-90.19613354616266, 38.639898793950096], [-90.20204699586435, 38.63553571516044], [-90.20795972970198, 38.63117230726659]]}}, {"type": "Feature", "properties": {"route_run_id": "stl_midamerica_to_st_louis_union_station_2025-07-12_0209", "route_pair": "midamerica_to_st_louis_union_station", "route_pair_label": "MidAmerica to St. Louis Union Station", "origin_label": "MidAmerica St. Louis Airport", "destination_label": "St. Louis Union Station", "origin_lat": 38.5451731, "origin_lon": -89.8351856, "destination_lat": 38.629167, "destination_lon": -90.2075, "traffic_date": "2025-07-12", "traffic_dataset": "July 12th - Saturday", "weight_id": "w_0209", "distance_weight": 0.4, "population_weight": 0.0, "traffic_weight": 0.5, "airspace_weight": 0.1, "path_nodes": 67, "path_node_ids": [8877, 8876, 8868, 8869, 8870, 8867, 9753, 9756, 9757, 9750, 9749, 9748, 9751, 9741, 9740, 9738, 9739, 9943, 9921, 9942, 9920, 9937, 9938, 9939, 9930, 9931, 9952, 9953, 9874, 9873, 9875, 9872, 9855, 9853, 9854, 9852, 9850, 9851, 9863, 9862, 1962, 1961, 1960, 1968, 1969, 1973, 1975, 1983, 1982, 1985, 1984, 2163, 2166, 2164, 2190, 2185, 2187, 2419, 2423, 2448, 2452, 2454, 2372, 2399, 2401, 2404, 2715], "elapsed_seconds": 0.023362500010989606, "status": "success", "failure_reason": "", "route_distance_km": 46.66251449753805, "distance_cost_sum": 51.35511483420471, "population_cost_sum": 22.936411681321818, "traffic_cost_sum": 14.69556649937958, "airspace_cost_sum": 38.0, "total_weighted_score": 31.68982918337168, "clustering_method": "hierarchical_jaccard", "distance_method": "jaccard", "direct_cluster_number": 6, "hierarchical_jaccard_cluster": "hier_jaccard_006", "hierarchical_jaccard_cluster_source": "hier_jaccard_006", "representative_route_run_id": "stl_midamerica_to_st_louis_union_station_2025-07-12_0209", "representative_mean_frechet_miles": 0.7446913400075812, "cluster_size": 31, "cluster_weight_space_percent": 21.830985915492956, "merged_cluster_id": "frechet_merged_002", "source_jaccard_clusters": "hier_jaccard_006, hier_jaccard_008"}, "geometry": {"type": "LineString", "coordinates": [[-89.83272609742262, 38.54503213945896], [-89.83845499191484, 38.54518713674757], [-89.84418393041321, 38.54534185422887], [-89.8499129128385, 38.54549629189633], [-89.85564193911159, 38.545650449743434], [-89.86137100915332, 38.54580432776372], [-89.86710012288452, 38.545957925950695], [-89.87263420898502, 38.550610544905176], [-89.87836376582533, 38.55076360790903], [-89.88409336612811, 38.55091639101554], [-89.8898230098142, 38.55106889421821], [-89.8955526968043, 38.55122111751065], [-89.90128242701932, 38.55137306088645], [-89.90701220038, 38.551524724339195], [-89.91274201680712, 38.55167610786251], [-89.9184718762215, 38.551827211450025], [-89.92420177854389, 38.55197803509537], [-89.92993172369513, 38.55212857879217], [-89.93566171159593, 38.55227884253414], [-89.94139174216706, 38.55242882631492], [-89.94712181532934, 38.55257853012817], [-89.95285193100351, 38.55272795396762], [-89.95858208911035, 38.55287709782697], [-89.96431228957056, 38.553025961699916], [-89.97004253230493, 38.553174545580205], [-89.97577281723424, 38.553322849461594], [-89.98131479616225, 38.557970627608455], [-89.98704552148656, 38.55811839512945], [-89.99277628877813, 38.558265882588096], [-89.9985070979577, 38.55841308997815], [-90.00423794894596, 38.558560017293445], [-90.00996884166362, 38.55870666452776], [-90.0156997760314, 38.558853031674964], [-90.02143075196999, 38.55899911872885], [-90.0271617694001, 38.55914492568329], [-90.03289282824241, 38.5592904525321], [-90.0386239284176, 38.5594356992692], [-90.04435506984643, 38.55958066588843], [-90.0500862524495, 38.5597253523837], [-90.05581747614751, 38.55986975874894], [-90.06154874086116, 38.56001388497803], [-90.0672800465111, 38.56015773106491], [-90.073011393018, 38.560301297003505], [-90.07874278030255, 38.56044458278779], [-90.08447420828541, 38.56058758841172], [-90.0900240585605, 38.56523050576299], [-90.09575592421345, 38.56537297385679], [-90.1014878303364, 38.56551516172741], [-90.10721977685003, 38.56565706936887], [-90.11295176367497, 38.56579869677521], [-90.11868379073177, 38.56594004394042], [-90.12423633875666, 38.570581434756825], [-90.12996880268844, 38.57072224396472], [-90.13570130662362, 38.570862772868885], [-90.14125536143048, 38.57550340868776], [-90.14681012982238, 38.58014380484799], [-90.15236561197744, 38.5847839612172], [-90.15792180807382, 38.58942387766302], [-90.16347871828971, 38.59406355405304], [-90.1690363428032, 38.598702990254786], [-90.17459468179258, 38.60334218613583], [-90.18015373543601, 38.6079811415637], [-90.18571350391167, 38.61261985640587], [-90.19127398739786, 38.61725833052981], [-90.19683518607279, 38.62189656380297], [-90.20239710011477, 38.62653455609276], [-90.20795972970198, 38.63117230726659]]}}, {"type": "Feature", "properties": {"route_run_id": "stl_midamerica_to_st_louis_union_station_2025-07-12_0069", "route_pair": "midamerica_to_st_louis_union_station", "route_pair_label": "MidAmerica to St. Louis Union Station", "origin_label": "MidAmerica St. Louis Airport", "destination_label": "St. Louis Union Station", "origin_lat": 38.5451731, "origin_lon": -89.8351856, "destination_lat": 38.629167, "destination_lon": -90.2075, "traffic_date": "2025-07-12", "traffic_dataset": "July 12th - Saturday", "weight_id": "w_0069", "distance_weight": 0.1, "population_weight": 0.0, "traffic_weight": 0.2, "airspace_weight": 0.7, "path_nodes": 68, "path_node_ids": [8877, 8879, 8896, 8900, 8924, 8930, 10012, 10015, 10019, 10053, 10057, 10054, 10061, 10047, 10045, 10044, 10046, 10239, 10237, 10232, 10010, 10215, 10216, 10214, 10213, 10223, 10001, 10222, 10129, 10128, 10122, 10125, 9901, 9899, 9900, 9898, 9906, 9907, 9908, 9909, 2213, 2212, 2215, 2225, 2227, 2252, 2254, 2279, 2293, 2296, 2301, 2303, 2491, 2492, 2818, 2496, 2507, 2506, 2828, 2505, 2809, 2811, 2810, 2728, 2730, 2406, 2404, 2715], "elapsed_seconds": 0.0435769000032451, "status": "success", "failure_reason": "", "route_distance_km": 50.250864672051854, "distance_cost_sum": 55.304326257160035, "population_cost_sum": 29.478463994812785, "traffic_cost_sum": 17.679252959119168, "airspace_cost_sum": 22.6, "total_weighted_score": 24.886283217539845, "clustering_method": "hierarchical_jaccard", "distance_method": "jaccard", "direct_cluster_number": 16, "hierarchical_jaccard_cluster": "hier_jaccard_016", "hierarchical_jaccard_cluster_source": "hier_jaccard_017", "representative_route_run_id": "stl_midamerica_to_st_louis_union_station_2025-07-12_0069", "representative_mean_frechet_miles": 0.0, "cluster_size": 2, "cluster_weight_space_percent": 1.408450704225352, "merged_cluster_id": "frechet_merged_003", "source_jaccard_clusters": "hier_jaccard_016"}, "geometry": {"type": "LineString", "coordinates": [[-89.83272609742262, 38.54503213945896], [-89.83825778508921, 38.54968628939868], [-89.84379018463301, 38.55434020475587], [-89.84932329623358, 38.558993885398685], [-89.85485712007056, 38.56364733119524], [-89.86039165632353, 38.56830054201366], [-89.86592690517212, 38.57295351772198], [-89.871462866796, 38.577606258188254], [-89.87699954137483, 38.582258763280514], [-89.88253692908823, 38.586911032866766], [-89.88807503011597, 38.59156306681497], [-89.89380792466403, 38.591715509561276], [-89.89934713930707, 38.59636705177409], [-89.90527384363752, 38.59201955408966], [-89.91100686790415, 38.59217115585891], [-89.91673993525164, 38.59232247728969], [-89.9224730456005, 38.59247351837563], [-89.92820619887138, 38.59262427911033], [-89.93393939498483, 38.59277475948747], [-89.93986381649326, 38.588425406220864], [-89.94578752447926, 38.58407572033189], [-89.95152013509082, 38.58422531170504], [-89.95725278820683, 38.584374622784885], [-89.96298548374793, 38.58452365356509], [-89.96871822163466, 38.584672404039395], [-89.97445100178771, 38.58482087420152], [-89.98018382412769, 38.584969064045225], [-89.9859166885752, 38.58511697356426], [-89.99164959505083, 38.58526460275237], [-89.99738254347521, 38.58541195160335], [-90.00330270738102, 38.581059196898295], [-90.00903538270526, 38.58120596156188], [-90.01495451819211, 38.5768525715268], [-90.02068692013768, 38.57699875216025], [-90.02641936361486, 38.57714465251519], [-90.03215184854429, 38.577290272585465], [-90.03788437484658, 38.57743561236495], [-90.04361694244231, 38.577580671847514], [-90.0493495512521, 38.57772545102705], [-90.05508220119658, 38.57786994989744], [-90.06081489219632, 38.57801416845261], [-90.06654762417196, 38.57815810668649], [-90.07209754603254, 38.58280187098636], [-90.07764818156195, 38.58744539666185], [-90.08319953093883, 38.592088683580684], [-90.08875159434173, 38.596731731610525], [-90.08856965134538, 38.60123188995506], [-90.0941227455516, 38.605874717602354], [-90.09967655430022, 38.61051730605643], [-90.10523107776994, 38.61515965518486], [-90.11078631613944, 38.61980176485522], [-90.11652262799952, 38.61994338379215], [-90.1220789793104, 38.62458499570804], [-90.12781572923257, 38.62472607564535], [-90.13337319363258, 38.629367189437694], [-90.13911038141684, 38.62950773017495], [-90.14484760917111, 38.62964799001386], [-90.15058487681573, 38.629787968948484], [-90.156322184271, 38.62992766697294], [-90.16205953145733, 38.63006708408134], [-90.16779691829495, 38.630206220267794], [-90.17353434470424, 38.6303450755264], [-90.17927181060547, 38.63048364985134], [-90.185009315919, 38.63062194323676], [-90.1907468605651, 38.6307599556768], [-90.19665983485031, 38.626397127556444], [-90.20239710011477, 38.62653455609276], [-90.20795972970198, 38.63117230726659]]}}]}