{"type": "FeatureCollection", "features": [{"id": "0", "type": "Feature", "properties": {"route_run_id": "stl_midamerica_to_st_louis_union_station_2025-07-12_0185", "route_pair": "midamerica_to_st_louis_union_station", "route_pair_label": "MidAmerica to St. Louis Union Station", "origin_label": "MidAmerica St. Louis Airport", "destination_label": "St. Louis Union Station", "origin_lat": 38.5451731, "origin_lon": -89.8351856, "destination_lat": 38.629167, "destination_lon": -90.2075, "traffic_date": "2025-07-12", "traffic_dataset": "July 12th - Saturday", "weight_id": "w_0185", "distance_weight": 0.3, "population_weight": 0.2, "traffic_weight": 0.2, "airspace_weight": 0.3, "path_nodes": 68, "path_node_ids": [8877, 8881, 8904, 8922, 8923, 8927, 9145, 10016, 10018, 10062, 10055, 10058, 10094, 10096, 10103, 10104, 10110, 10109, 10291, 10512, 10290, 10513, 10298, 10295, 10296, 10297, 10307, 10305, 10306, 10319, 10316, 10317, 10314, 10207, 10206, 10204, 10205, 10323, 10324, 10322, 10325, 2520, 2521, 2519, 2510, 2512, 2513, 2516, 2305, 2529, 2532, 2558, 2840, 2839, 2838, 2827, 2849, 2848, 2850, 2837, 2859, 2858, 2860, 2763, 2762, 2737, 2732, 2715], "elapsed_seconds": 0.030277600017143413, "status": "success", "failure_reason": "", "route_distance_km": 49.19905464434062, "distance_cost_sum": 54.146741301901585, "population_cost_sum": 15.569674635194168, "traffic_cost_sum": 19.87178404899501, "airspace_cost_sum": 23.2, "total_weighted_score": 30.292314127408314, "clustering_method": "hierarchical_jaccard", "distance_method": "jaccard", "direct_cluster_number": 2, "hierarchical_jaccard_cluster": "hier_jaccard_002", "hierarchical_jaccard_cluster_source": "hier_jaccard_001", "representative_route_run_id": "stl_midamerica_to_st_louis_union_station_2025-07-12_0185", "representative_mean_frechet_miles": 1.181713697297646, "cluster_size": 109, "cluster_weight_space_percent": 76.7605633802817, "merged_cluster_id": "frechet_merged_001", "source_jaccard_clusters": "hier_jaccard_002, hier_jaccard_003, hier_jaccard_007", "corridor_width_m": 4828.0, "corridor_buffer_m": 2414.0}, "geometry": {"type": "Polygon", "coordinates": [[[-90.17959537146824, 38.62225676936151], [-90.18305988601053, 38.619700904866576], [-90.18897235234628, 38.61533844179615], [-90.19104204292668, 38.61395484245375], [-90.19327454493416, 38.61273702440803], [-90.19564836745323, 38.61169670762987], [-90.19814066263669, 38.61084390360093], [-90.20072744522965, 38.61018681917881], [-90.20338382291123, 38.60973177779478], [-90.20608423526103, 38.60948315873387], [-90.20880269907776, 38.609443355075314], [-90.21151305771986, 38.60961275069401], [-90.2141892321009, 38.60998971654272], [-90.21680547095761, 38.610570626251395], [-90.21933659801348, 38.611349890897166], [-90.22175825369077, 38.612320012615676], [-90.22404712907058, 38.61347165654591], [-90.22618118987329, 38.614793740425434], [-90.22813988832048, 38.616273540985006], [-90.22990436085185, 38.61789681613082], [-90.231457609799, 38.619647941750706], [-90.23278466726673, 38.62151006184069], [-90.23387273963617, 38.62346525051892], [-90.23471133128506, 38.625494684379206], [-90.23529234631391, 38.62757882353488], [-90.23561016727368, 38.62969759961867], [-90.23566171010772, 38.63183060893501], [-90.23544645474661, 38.63395730890906], [-90.2349664510267, 38.636057215942614], [-90.23422629984078, 38.63811010277066], [-90.23323310966785, 38.640096193414564], [-90.23199642886807, 38.64199635384869], [-90.23052815436662, 38.64379227653587], [-90.22884241758042, 38.64546665704446], [-90.22695544866721, 38.64700336103467], [-90.22104244896536, 38.65136771437051], [-90.21512873279056, 38.655731738725365], [-90.20921430000165, 38.660095433962105], [-90.20714355622684, 38.661479308912234], [-90.20490970797614, 38.66269733504633], [-90.20253427773442, 38.663737773795965], [-90.20004015558159, 38.66459059780245], [-90.19745137823404, 38.66524758776953], [-90.19479289690571, 38.665702411855946], [-90.19209033624955, 38.66595068683467], [-90.18936974673039, 38.66599002042221], [-90.18362939855851, 38.66585183500441], [-90.17788908979384, 38.66571336828978], [-90.17214882051638, 38.66557462028419], [-90.16640859080536, 38.66543559099344], [-90.16066840074141, 38.66529628042346], [-90.1549282504039, 38.66515668858011], [-90.14918813987288, 38.66501681546933], [-90.14344806922772, 38.664876661096926], [-90.13770803854882, 38.6647362254689], [-90.1319680479158, 38.66459550859118], [-90.12622809740824, 38.664454510469646], [-90.12048818710622, 38.664313231110285], [-90.11777611936346, 38.664141654065695], [-90.11509858934905, 38.663762424624224], [-90.11248140493949, 38.66317919904759], [-90.10994979059717, 38.66239759973292], [-90.10752814369293, 38.66142516084962], [-90.10523979890961, 38.66027125551386], [-90.10310680302044, 38.65894700521239], [-90.10114970223017, 38.65746517235958], [-90.09559235694323, 38.65282254146125], [-90.09003572786894, 38.64817967090323], [-90.08598515965475, 38.64479466932685], [-90.08451343525276, 38.64446624386506], [-90.08198281037443, 38.64368407375693], [-90.07956219377097, 38.64271109171754], [-90.07727491016925, 38.64155667609721], [-90.07586741234178, 38.640682098630855], [-90.07548606331456, 38.64067255819175], [-90.06974830874836, 38.64052886295686], [-90.06401059513578, 38.640384886768686], [-90.05827292255675, 38.640240629633354], [-90.05253529109066, 38.640096091556906], [-90.0467977008174, 38.63995127254545], [-90.04106015181658, 38.6398061726051], [-90.03532264416808, 38.63966079174203], [-90.029585177951, 38.6395151299623], [-90.02384775324552, 38.63936918727209], [-90.01811037013105, 38.63922296367757], [-90.01237302868722, 38.639076459184864], [-90.0066357289938, 38.638929673800206], [-90.00625441313092, 38.6389199080691], [-90.00477802956574, 38.639721449305185], [-90.00240074405058, 38.640757736996065], [-89.99990533687725, 38.64160622805388], [-89.99731585724997, 38.642258744988474], [-89.99465726322721, 38.64270899912592], [-89.99195518059415, 38.64295265134839], [-89.98923565522279, 38.64298735399496], [-89.98349816557806, 38.642839421438296], [-89.97776071809227, 38.64269120797596], [-89.97202331284426, 38.64254271361405], [-89.9662859499146, 38.64239393835898], [-89.96054862938246, 38.64224488221695], [-89.9548113513277, 38.642095545194316], [-89.94907411582955, 38.6419459272973], [-89.94333692296806, 38.64179602853227], [-89.93759977282261, 38.64164584890552], [-89.9318626654728, 38.64149538842338], [-89.92612560099847, 38.64134464709225], [-89.92038857947894, 38.64119362491842], [-89.91465160099398, 38.64104232190833], [-89.91194121739004, 38.64086602077448], [-89.9092659473577, 38.64048215135824], [-89.90665157691147, 38.63989441470303], [-89.9041233032864, 38.6391084767353], [-89.90170549152744, 38.63813191347915], [-89.89942143921047, 38.63697413782478], [-89.89729315158456, 38.63564630856724], [-89.89534112932013, 38.634161222602934], [-89.88979944024325, 38.62950940539956], [-89.88425846600967, 38.62485735204231], [-89.87871820643942, 38.62020506266347], [-89.87317866135233, 38.61555253739514], [-89.86763983056835, 38.610899776369436], [-89.86210171390742, 38.606246779718326], [-89.85656431118979, 38.60159354757427], [-89.85102762223508, 38.59694008006892], [-89.84549164686364, 38.59228637733464], [-89.83995638489527, 38.58763243950324], [-89.83442183615014, 38.58297826670677], [-89.8288880004483, 38.57832385907725], [-89.82335487760979, 38.57366921674654], [-89.81782246745469, 38.56901433984653], [-89.81229076980324, 38.56435922850931], [-89.81053737176009, 38.56273008439564], [-89.80899587495975, 38.56097382975332], [-89.8076811152514, 38.55910738647742], [-89.80660574085758, 38.55714873665962], [-89.80578009109041, 38.55511674913331], [-89.80521209743819, 38.55303099752744], [-89.80490720794948, 38.55091157159009], [-89.80486833561342, 38.5487788836054], [-89.80506761643761, 38.54427987620952], [-89.80529508270895, 38.542154461738676], [-89.80578668672905, 38.54005678862944], [-89.8065376725369, 38.53800705441392], [-89.80754078847232, 38.53602499343029], [-89.80878635775223, 38.5341296869908], [-89.81026237228545, 38.53233937988829], [-89.8119546087991, 38.530671304998016], [-89.81384676613935, 38.52914151765227], [-89.81592062241252, 38.52776474136969], [-89.81815621044694, 38.526554226411676], [-89.82053200988736, 38.525521622514496], [-89.82302515407908, 38.52467686700986], [-89.82561164976424, 38.52402808939931], [-89.82826660749411, 38.523581533290866], [-89.8309644805635, 38.52334149644122], [-89.83367931019588, 38.52331028947394], [-89.83638497464992, 38.52348821366765], [-89.83905543988263, 38.52387355802604], [-89.8416650093897, 38.52446261565945], [-89.84418857085059, 38.525249719323696], [-89.84660183723477, 38.52622729577998], [-89.84888158007548, 38.527385938461066], [-89.85100585268815, 38.52871449775372], [-89.8529542012026, 38.5302001880401], [-89.85470786138927, 38.531828710479715], [-89.85624993938957, 38.533584390363266], [-89.85756557460964, 38.53545032772885], [-89.85864208320109, 38.537408559803005], [-89.85946908073285, 38.539440233714394], [-89.85978944215289, 38.54061343155854], [-89.86382331332256, 38.544005640216845], [-89.86935703597892, 38.548658400412144], [-89.87489147056147, 38.553310925538405], [-89.88042661724954, 38.55796321546369], [-89.88596247622252, 38.562615270056], [-89.89149904765986, 38.56726708918345], [-89.89703633174108, 38.571918672714126], [-89.90257432864544, 38.576570020515824], [-89.90811303855276, 38.58122113245688], [-89.91365246164212, 38.585872008404834], [-89.91919259809333, 38.59052264822796], [-89.92473344808583, 38.59517305179404], [-89.92798022761178, 38.597897667081774], [-89.92798124198164, 38.59789769373411], [-89.93371485634863, 38.598048202339584], [-89.93944851349112, 38.59819843052868], [-89.94518221332929, 38.59834837829503], [-89.950915955784, 38.59849804563237], [-89.95664974077579, 38.598647432534335], [-89.96238356822501, 38.598796538994605], [-89.96811743805264, 38.598945365007005], [-89.97385135017885, 38.59909391056518], [-89.97958530452445, 38.59924217566288], [-89.97996640102171, 38.59925201984556], [-89.98144218015743, 38.59845076497638], [-89.98381830122979, 38.59741485299325], [-89.98631230814198, 38.59656664574757], [-89.98890019928098, 38.59591430590696], [-89.99155707174535, 38.59546411130247], [-89.99425736040999, 38.595220394644315], [-89.99697508328765, 38.59518550190693], [-90.00270884871442, 38.59533262155186], [-90.008442655953, 38.59547946074998], [-90.01417650492414, 38.595626019495086], [-90.01991039554815, 38.59577229778103], [-90.02564432774561, 38.59591829560163], [-90.03137830143719, 38.5960640129507], [-90.03711231654336, 38.59620944982213], [-90.04284637298449, 38.59635460620976], [-90.04858047068156, 38.596499482107525], [-90.05431460955457, 38.59664407750929], [-90.06004878952425, 38.59678839240892], [-90.06578301051114, 38.59693242680036], [-90.07151727243584, 38.59707618067755], [-90.07725157521864, 38.597219654034404], [-90.08298591878035, 38.59736284686491], [-90.08872030304121, 38.59750575916299], [-90.09142975564912, 38.59767791188663], [-90.09410468788366, 38.59805758692697], [-90.09671936038977, 38.598641131879305], [-90.09924861190362, 38.59942293249204], [-90.10166810082262, 38.60039546652004], [-90.10395453899595, 38.60154937590256], [-90.10608591550849, 38.602873556580825], [-90.10631662342037, 38.603048345619165], [-90.10800776921198, 38.60342557216776], [-90.11053732371751, 38.60420713917102], [-90.11295713678048, 38.6051794509189], [-90.11524391714012, 38.606333151489316], [-90.1173756505976, 38.60765713883356], [-90.11933181168853, 38.60913867136065], [-90.12488756169563, 38.61378013194201], [-90.13044402660316, 38.618421352764635], [-90.13369995571901, 38.62114058614993], [-90.13370097060562, 38.62114061103154], [-90.13943750456995, 38.62128111066077], [-90.14517407848682, 38.621421329473705], [-90.15091069227637, 38.62156126746435], [-90.15664734585877, 38.62170092462681], [-90.1623840391549, 38.621840300955235], [-90.16812077208472, 38.62197939644372], [-90.1738575445688, 38.62211821108644], [-90.179594356527, 38.622256744877426], [-90.17959537146824, 38.62225676936151]]]}}, {"id": "1", "type": "Feature", "properties": {"route_run_id": "stl_midamerica_to_st_louis_union_station_2025-07-12_0209", "route_pair": "midamerica_to_st_louis_union_station", "route_pair_label": "MidAmerica to St. Louis Union Station", "origin_label": "MidAmerica St. Louis Airport", "destination_label": "St. Louis Union Station", "origin_lat": 38.5451731, "origin_lon": -89.8351856, "destination_lat": 38.629167, "destination_lon": -90.2075, "traffic_date": "2025-07-12", "traffic_dataset": "July 12th - Saturday", "weight_id": "w_0209", "distance_weight": 0.4, "population_weight": 0.0, "traffic_weight": 0.5, "airspace_weight": 0.1, "path_nodes": 67, "path_node_ids": [8877, 8876, 8868, 8869, 8870, 8867, 9753, 9756, 9757, 9750, 9749, 9748, 9751, 9741, 9740, 9738, 9739, 9943, 9921, 9942, 9920, 9937, 9938, 9939, 9930, 9931, 9952, 9953, 9874, 9873, 9875, 9872, 9855, 9853, 9854, 9852, 9850, 9851, 9863, 9862, 1962, 1961, 1960, 1968, 1969, 1973, 1975, 1983, 1982, 1985, 1984, 2163, 2166, 2164, 2190, 2185, 2187, 2419, 2423, 2448, 2452, 2454, 2372, 2399, 2401, 2404, 2715], "elapsed_seconds": 0.023362500010989606, "status": "success", "failure_reason": "", "route_distance_km": 46.66251449753805, "distance_cost_sum": 51.35511483420471, "population_cost_sum": 22.936411681321818, "traffic_cost_sum": 14.69556649937958, "airspace_cost_sum": 38.0, "total_weighted_score": 31.68982918337168, "clustering_method": "hierarchical_jaccard", "distance_method": "jaccard", "direct_cluster_number": 6, "hierarchical_jaccard_cluster": "hier_jaccard_006", "hierarchical_jaccard_cluster_source": "hier_jaccard_006", "representative_route_run_id": "stl_midamerica_to_st_louis_union_station_2025-07-12_0209", "representative_mean_frechet_miles": 0.7446913400075812, "cluster_size": 31, "cluster_weight_space_percent": 21.830985915492956, "merged_cluster_id": "frechet_merged_002", "source_jaccard_clusters": "hier_jaccard_006, hier_jaccard_008", "corridor_width_m": 4828.0, "corridor_buffer_m": 2414.0}, "geometry": {"type": "Polygon", "coordinates": [[[-90.13618332719318, 38.54912562907014], [-90.13656421264014, 38.54913495311629], [-90.13927203727191, 38.549305931998546], [-90.14194551026937, 38.54968445514209], [-90.14455890629476, 38.55026688120714], [-90.14708707635431, 38.55104760668849], [-90.1495056892509, 38.55201911966662], [-90.15179146527473, 38.553172071887175], [-90.15392239990591, 38.554495368485135], [-90.15587797539337, 38.55597627450086], [-90.16143230151857, 38.56061596772336], [-90.16698734075206, 38.565255421105846], [-90.1725430932718, 38.569894634516096], [-90.17809955925564, 38.57453360782177], [-90.18365673888148, 38.579172340890366], [-90.1892146323272, 38.58381083358952], [-90.19477323977068, 38.58844908578671], [-90.20033256139008, 38.59308709734971], [-90.20589259736317, 38.59772486814585], [-90.21145334786792, 38.602362398042615], [-90.21701481308241, 38.60699968690759], [-90.22257699318453, 38.611636734608055], [-90.22813988835246, 38.616273541011665], [-90.22990436088033, 38.617896816159806], [-90.23145760982374, 38.61964794178174], [-90.23278466728746, 38.62151006187347], [-90.23387273965271, 38.62346525055313], [-90.23471133129725, 38.62549468441454], [-90.23529234632164, 38.62757882357098], [-90.23561016727685, 38.62969759965519], [-90.23566171010633, 38.63183060897159], [-90.23544645474063, 38.63395730894535], [-90.2349664510162, 38.63605721597829], [-90.2342262998259, 38.63811010280534], [-90.2332331096487, 38.640096193447945], [-90.23199642884484, 38.641996353880444], [-90.23052815433954, 38.643792276565655], [-90.22884241754973, 38.645466657072035], [-90.22695544863322, 38.64700336105976], [-90.2248854203543, 38.64838758001479], [-90.22265227306265, 38.64960597421758], [-90.22027752247163, 38.65064680155565], [-90.21778405209358, 38.651500030926826], [-90.21519589234545, 38.652157439127684], [-90.21253798847137, 38.652612690284215], [-90.20983595954245, 38.65286139704984], [-90.20711585088425, 38.652901162974764], [-90.20440388234873, 38.652731605634095], [-90.20172619488959, 38.652354360289834], [-90.19910859791699, 38.6517730640528], [-90.19657631989902, 38.65099332069986], [-90.19415376464441, 38.650022646491706], [-90.19186427564227, 38.64887039752114], [-90.18972991075346, 38.647547679301894], [-90.1877712294423, 38.64606723948044], [-90.18220886751362, 38.641428543115836], [-90.17664722160968, 38.63678960581664], [-90.1710862915518, 38.63215042771524], [-90.16552607716166, 38.6275110089445], [-90.15996657826061, 38.62287134963684], [-90.15440779467023, 38.6182314499249], [-90.14884972621206, 38.613591309941235], [-90.14329237270748, 38.608950929818185], [-90.13773573397819, 38.604310309688394], [-90.1321798098457, 38.59966944968428], [-90.12662460013165, 38.595028349938325], [-90.12337007051242, 38.59230896471625], [-90.12336905604107, 38.59230893976064], [-90.12065968171656, 38.59213753237632], [-90.11798478915217, 38.591758468006866], [-90.11537016074703, 38.59117540131467], [-90.11284099627872, 38.590393953153054], [-90.11042166946608, 38.589421656218576], [-90.108135492603, 38.588267882240395], [-90.1067285975831, 38.58739369559537], [-90.10634752011494, 38.58738426665405], [-90.1006138511525, 38.58724224928546], [-90.09488022262774, 38.587099951471444], [-90.08914663462015, 38.58695737321801], [-90.08643759275229, 38.58678518329872], [-90.08376312725309, 38.586405350107505], [-90.08114901639112, 38.585821535726744], [-90.07862045493725, 38.58503936822436], [-90.07620181077645, 38.58406638723606], [-90.07391638959875, 38.58291197108743], [-90.07251003687334, 38.58203739221212], [-90.0721289993112, 38.58202785296746], [-90.06639593102292, 38.58188417601795], [-90.06066290363917, 38.581740218704], [-90.05492991723942, 38.58159598103163], [-90.04919697190344, 38.581451463007014], [-90.04346406771013, 38.581306664636145], [-90.03773120473916, 38.58116158592517], [-90.03199838307, 38.581016226880216], [-90.02626560278186, 38.580870587507356], [-90.02053286395424, 38.580724667812774], [-90.0148001666666, 38.58057846780261], [-90.00906751099835, 38.58043198748303], [-90.00333489702878, 38.580285226860234], [-89.99760232483722, 38.580138185940335], [-89.99186979450312, 38.579990864729574], [-89.98613730610595, 38.57984326323415], [-89.98040485972503, 38.57969538146031], [-89.97769651526521, 38.57952069201936], [-89.9750230540464, 38.57913840383039], [-89.97241024461988, 38.578552202670124], [-89.96988326916077, 38.577767739638325], [-89.96746648020374, 38.57679257651654], [-89.96518316548466, 38.575636112675426], [-89.96377835586036, 38.57476028368223], [-89.96339739450148, 38.574750392043974], [-89.95766547356416, 38.574601413068066], [-89.95193359502971, 38.57445215388973], [-89.94620175897745, 38.574302614515304], [-89.94046996548676, 38.57415279495108], [-89.93473821463658, 38.57400269520332], [-89.92900650650674, 38.57385231527838], [-89.92327484117644, 38.57370165518263], [-89.9175432187248, 38.57355071492238], [-89.91181163923112, 38.573399494503995], [-89.906080102775, 38.57324799393385], [-89.90034860943555, 38.573096213218335], [-89.89461715929193, 38.57294415236381], [-89.88888575242373, 38.57279181137672], [-89.88315438891017, 38.57263919026348], [-89.87742306883024, 38.572486289030486], [-89.87169179226385, 38.57233310768424], [-89.86898415839521, 38.57215592096453], [-89.86631171420171, 38.57177118074626], [-89.86370021839409, 38.571182596471786], [-89.86117484043409, 38.57039584223729], [-89.85875991739506, 38.56941850192836], [-89.85647871895533, 38.56825999591286], [-89.85507545826349, 38.56738292078695], [-89.85469457498007, 38.567372677018426], [-89.84896382956691, 38.56721839997999], [-89.8432331280525, 38.56706384290538], [-89.83750247051626, 38.56690900580107], [-89.83177185703757, 38.56675388867363], [-89.82906459411512, 38.5665757898443], [-89.82639263133275, 38.566190154178514], [-89.82378172274481, 38.56560069976069], [-89.82125703213198, 38.56481310908327], [-89.81884288991746, 38.56383497410062], [-89.81656255822567, 38.56267572284393], [-89.81443800637038, 38.56134652831356], [-89.81248969895286, 38.559860200539255], [-89.81073639862333, 38.55823106285978], [-89.80919498541124, 38.55647481362773], [-89.80788029436297, 38.55460837468475], [-89.80680497304293, 38.55264972807962], [-89.805979360256, 38.55061774261388], [-89.8054113871388, 38.54853199189588], [-89.80510650154712, 38.546412565664724], [-89.80506761643771, 38.54427987620715], [-89.80529508270935, 38.54215446173632], [-89.80578668672975, 38.540056788627126], [-89.80653767253787, 38.53800705441165], [-89.80754078847357, 38.536024993428114], [-89.80878635775375, 38.53412968698875], [-89.81026237228723, 38.53233937988635], [-89.81195460880109, 38.53067130499623], [-89.81384676614157, 38.52914151765065], [-89.81592062241492, 38.52776474136825], [-89.81815621044953, 38.52655422641042], [-89.82053200989006, 38.52552162251345], [-89.8230251540819, 38.52467686700904], [-89.82561164976717, 38.52402808939869], [-89.8282666074971, 38.52358153329049], [-89.83096448056651, 38.52334149644106], [-89.8336793101989, 38.523310289474026], [-89.83940648754941, 38.523465166994754], [-89.84513370885492, 38.52361976492388], [-89.85086097403612, 38.523774083254864], [-89.85658828301405, 38.52392812198122], [-89.86231563570983, 38.524081881096485], [-89.8680430320441, 38.52423536059418], [-89.87074887039135, 38.5244124943265], [-89.87341960691995, 38.52479706269781], [-89.87602954252577, 38.5253853662753], [-89.87855356138091, 38.52617174506204], [-89.88096737207285, 38.52714863278781], [-89.88324774091951, 38.5283066295084], [-89.88465063931119, 38.52918335374385], [-89.88503133210003, 38.52919349162305], [-89.89075925780443, 38.529345876984976], [-89.89648722676272, 38.529497982652494], [-89.90221523889548, 38.529649808619155], [-89.90794329412356, 38.52980135487858], [-89.91367139236809, 38.529952621424385], [-89.91939953354984, 38.530103608250236], [-89.92512771758946, 38.53025431534973], [-89.9308559444082, 38.53040474271654], [-89.93658421392685, 38.53055489034438], [-89.94231252606599, 38.530704758226875], [-89.94804088074649, 38.53085434635771], [-89.95376927788969, 38.531003654730604], [-89.95949771741606, 38.531152683339286], [-89.96522619924644, 38.53130143217746], [-89.97095472330169, 38.531449901238865], [-89.976683289503, 38.53159809051728], [-89.97938983705424, 38.53177273126901], [-89.98206158786826, 38.53215485169603], [-89.98467283311867, 38.532740775889415], [-89.98719844442715, 38.53352486672134], [-89.98961411512128, 38.53449957991744], [-89.99189659369355, 38.535655536445695], [-89.99330103644579, 38.53653101541746], [-89.99368180666143, 38.53654080159931], [-89.99941089653467, 38.536687895236135], [-90.00514002816784, 38.536834709014144], [-90.01086920148184, 38.53698124292715], [-90.01659841639756, 38.53712749696903], [-90.02232767283563, 38.53727347113358], [-90.02805697071688, 38.537419165414676], [-90.03378630996203, 38.53756457980616], [-90.03951569049191, 38.537709714301926], [-90.04524511222748, 38.53785456889586], [-90.05097457508928, 38.53799914358186], [-90.0567040789981, 38.53814343835382], [-90.06243362387497, 38.538287453205726], [-90.06816320964023, 38.53843118813144], [-90.0738928362149, 38.53857464312493], [-90.0796225035198, 38.538717818180174], [-90.08535221147557, 38.53886071329113], [-90.08805945508146, 38.539032858822644], [-90.09073220746707, 38.5394125283429], [-90.09334475020576, 38.539996069495274], [-90.09587194248564, 38.540777868056125], [-90.09828946248464, 38.5417504017883], [-90.10057404097266, 38.542904312619314], [-90.10198002225745, 38.54377854235122], [-90.10236086803057, 38.54378797657421], [-90.10809109394545, 38.5439297745536], [-90.1138213601248, 38.544071292513976], [-90.11955166648889, 38.54421253044937], [-90.12225924185712, 38.544383894803055], [-90.12493242019835, 38.54476279677952], [-90.12754547900131, 38.54534559139825], [-90.13007327250655, 38.546126671611205], [-90.13249147312833, 38.5470985220878], [-90.13477680511117, 38.54825179132709], [-90.13618332719318, 38.54912562907014]]]}}, {"id": "2", "type": "Feature", "properties": {"route_run_id": "stl_midamerica_to_st_louis_union_station_2025-07-12_0069", "route_pair": "midamerica_to_st_louis_union_station", "route_pair_label": "MidAmerica to St. Louis Union Station", "origin_label": "MidAmerica St. Louis Airport", "destination_label": "St. Louis Union Station", "origin_lat": 38.5451731, "origin_lon": -89.8351856, "destination_lat": 38.629167, "destination_lon": -90.2075, "traffic_date": "2025-07-12", "traffic_dataset": "July 12th - Saturday", "weight_id": "w_0069", "distance_weight": 0.1, "population_weight": 0.0, "traffic_weight": 0.2, "airspace_weight": 0.7, "path_nodes": 68, "path_node_ids": [8877, 8879, 8896, 8900, 8924, 8930, 10012, 10015, 10019, 10053, 10057, 10054, 10061, 10047, 10045, 10044, 10046, 10239, 10237, 10232, 10010, 10215, 10216, 10214, 10213, 10223, 10001, 10222, 10129, 10128, 10122, 10125, 9901, 9899, 9900, 9898, 9906, 9907, 9908, 9909, 2213, 2212, 2215, 2225, 2227, 2252, 2254, 2279, 2293, 2296, 2301, 2303, 2491, 2492, 2818, 2496, 2507, 2506, 2828, 2505, 2809, 2811, 2810, 2728, 2730, 2406, 2404, 2715], "elapsed_seconds": 0.0435769000032451, "status": "success", "failure_reason": "", "route_distance_km": 50.250864672051854, "distance_cost_sum": 55.304326257160035, "population_cost_sum": 29.478463994812785, "traffic_cost_sum": 17.679252959119168, "airspace_cost_sum": 22.6, "total_weighted_score": 24.886283217539845, "clustering_method": "hierarchical_jaccard", "distance_method": "jaccard", "direct_cluster_number": 16, "hierarchical_jaccard_cluster": "hier_jaccard_016", "hierarchical_jaccard_cluster_source": "hier_jaccard_017", "representative_route_run_id": "stl_midamerica_to_st_louis_union_station_2025-07-12_0069", "representative_mean_frechet_miles": 0.0, "cluster_size": 2, "cluster_weight_space_percent": 1.408450704225352, "merged_cluster_id": "frechet_merged_003", "source_jaccard_clusters": "hier_jaccard_016", "corridor_width_m": 4828.0, "corridor_buffer_m": 2414.0}, "geometry": {"type": "Polygon", "coordinates": [[[-90.19854942945322, 38.65160089003306], [-90.19797789631785, 38.651745964740876], [-90.1953199226079, 38.65220082063185], [-90.1926178739682, 38.65244912747731], [-90.18989779591699, 38.65248849268764], [-90.18415852274512, 38.652350373581484], [-90.17841928895173, 38.65221197331325], [-90.17268009461674, 38.65207329188875], [-90.16694093982012, 38.65193432931388], [-90.16120182464098, 38.65179508559444], [-90.15546274915985, 38.651655560736394], [-90.14972371345613, 38.651515754745574], [-90.14398471760971, 38.6513756676279], [-90.13824576169998, 38.65123529938926], [-90.13250684580723, 38.65109465003562], [-90.12979522911782, 38.65092336982713], [-90.12711810683841, 38.650544431701405], [-90.12450128290855, 38.649961489107376], [-90.12196997831214, 38.64918016170937], [-90.11954858743364, 38.648207981050646], [-90.11726044249072, 38.647054317753515], [-90.11512758833615, 38.64573029096733], [-90.11489672743066, 38.64555551430707], [-90.11320456181018, 38.64517835004216], [-90.1106735607519, 38.64439678854441], [-90.10825249464193, 38.643424385175464], [-90.10596469255842, 38.642270512704506], [-90.10383219604049, 38.64094629229619], [-90.1036013786596, 38.64077149484873], [-90.10190939375097, 38.64039417335576], [-90.09937869626451, 38.6396123778747], [-90.09695795493816, 38.63863975191564], [-90.09467049571052, 38.63748567039344], [-90.09253835680703, 38.636161256486986], [-90.09058207616424, 38.634679274180115], [-90.08502711456948, 38.63003622012627], [-90.07947286835115, 38.6253929267965], [-90.07391933733008, 38.6207493943231], [-90.06836652132755, 38.6161056228387], [-90.06660589051643, 38.61448005177393], [-90.06505689769193, 38.61272689430481], [-90.06373445108842, 38.610863042563984], [-90.06265127311964, 38.60890645377184], [-90.06181777837426, 38.60687597701776], [-90.06149386448028, 38.6057032008048], [-90.05744696810534, 38.602317335358585], [-90.05419486386126, 38.599596116425005], [-90.05419384934976, 38.59959609086576], [-90.04845947623373, 38.59945148028107], [-90.04272514430009, 38.59930658917093], [-90.03699085362895, 38.599161417541524], [-90.03125660429937, 38.59901596539896], [-90.02552239639094, 38.598870232749356], [-90.02514128600515, 38.59886053699966], [-90.02366594888466, 38.59966236299924], [-90.02129027240773, 38.60069910510902], [-90.01879648275327, 38.60154806932022], [-90.01620861350251, 38.60220107358875], [-90.01449027858234, 38.60249259016336], [-90.01424579859378, 38.602655423467056], [-90.01201081029859, 38.60386971497177], [-90.00963483842312, 38.60490620711886], [-90.00714077837401, 38.60575491062806], [-90.00455266634759, 38.6064076459692], [-90.00189544719301, 38.60685812236878], [-89.99919473341338, 38.607101998569874], [-89.99647655765534, 38.60713692475356], [-89.9907418857767, 38.60698946199795], [-89.98500725589582, 38.60684171868897], [-89.97927266809195, 38.60669369483281], [-89.97353812244496, 38.60654539043575], [-89.96780361903416, 38.606396805504055], [-89.96206915793897, 38.60624794004397], [-89.95633473923881, 38.60609879406176], [-89.95633372472838, 38.606098767650536], [-89.95286228075021, 38.608647615967236], [-89.95078844472485, 38.61002681875293], [-89.94855222836514, 38.61123984186001], [-89.94617517715807, 38.61227499496658], [-89.94368019695818, 38.6131223017039], [-89.94109133287084, 38.61377359601462], [-89.93843353702775, 38.614222601028715], [-89.93573242751626, 38.61446498968868], [-89.93301404081421, 38.61449842653297], [-89.92727912102337, 38.61434782984431], [-89.92154424412519, 38.6141969525819], [-89.91580941019909, 38.61404579475202], [-89.9154282582614, 38.614035738427205], [-89.91395146824118, 38.614836113963214], [-89.91157384389373, 38.6158705368951], [-89.90907837806166, 38.61671708208576], [-89.90648912055276, 38.617367590823605], [-89.90383102730877, 38.6178157938182], [-89.90112971929732, 38.61805737175187], [-89.8984112349183, 38.61808999698803], [-89.89570177834182, 38.617913356030435], [-89.89302746623622, 38.617529152515374], [-89.89041407536008, 38.616941090708934], [-89.88788679348393, 38.616154839672056], [-89.88546997607205, 38.61517797844463], [-89.88318691109683, 38.614019922785175], [-89.8810595942746, 38.61269183418172], [-89.88082943421448, 38.61251662195983], [-89.87913949014636, 38.61213614814875], [-89.87661251347123, 38.61134966485416], [-89.87419602217793, 38.610372582859036], [-89.8719133010864, 38.60921432004997], [-89.86978634258944, 38.60788603991086], [-89.86783563452603, 38.60640054367435], [-89.86229783109701, 38.601747567318974], [-89.85676074145223, 38.597094355509405], [-89.85122436541195, 38.59244090837798], [-89.84568870279597, 38.58778722605642], [-89.84015375342445, 38.5831333086768], [-89.83461951711753, 38.578479156371166], [-89.82908599369532, 38.57382476927145], [-89.82355318297789, 38.569170147509524], [-89.81802108478549, 38.56451529121744], [-89.81248969893804, 38.55986020052677], [-89.81073639861013, 38.55823106284622], [-89.8091949853998, 38.55647481361321], [-89.8078802943534, 38.55460837466943], [-89.80680497303533, 38.55264972806365], [-89.80597936025042, 38.550617742597396], [-89.80541138713531, 38.54853199187905], [-89.80510650154574, 38.5464125656477], [-89.80506761643848, 38.5442798761901], [-89.80529508271223, 38.54215446171941], [-89.80578668673472, 38.54005678861052], [-89.8065376725449, 38.538007054395514], [-89.80754078848258, 38.536024993412596], [-89.80878635776463, 38.534129686973984], [-89.8102623722999, 38.53233937987251], [-89.81195460881544, 38.530671304983436], [-89.81384676615744, 38.529141517639005], [-89.81592062243217, 38.52776474135788], [-89.81815621046799, 38.52655422640144], [-89.82053200990957, 38.52552162250593], [-89.82302515410224, 38.52467686700305], [-89.82561164978816, 38.5240280893943], [-89.82826660751854, 38.52358153328775], [-89.8309644805882, 38.52334149643997], [-89.8336793102206, 38.523310289474615], [-89.83638497467444, 38.523488213670205], [-89.83905543990672, 38.52387355803047], [-89.84166500941312, 38.52446261566574], [-89.84418857087311, 38.52524971933175], [-89.84660183725619, 38.526227295789724], [-89.84888158009558, 38.527385938472406], [-89.85100585270672, 38.52871449776656], [-89.8529542012195, 38.5302001880543], [-89.85848618861249, 38.53485339764826], [-89.8640188874145, 38.539506372475735], [-89.86955229780511, 38.54415911240514], [-89.87508641996345, 38.548811617304416], [-89.88062125406893, 38.55346388704177], [-89.8861568003009, 38.558115921485246], [-89.89169305883873, 38.56276772050288], [-89.89723002986192, 38.5674192839628], [-89.90096359774716, 38.57055535247882], [-89.9034901249249, 38.570329189621404], [-89.90620680964814, 38.57029637082376], [-89.91193811228847, 38.5704478554862], [-89.91766945795942, 38.570599060026225], [-89.92340084658163, 38.57074998443749], [-89.92340186056354, 38.570750011113745], [-89.92687237193618, 38.56820199157188], [-89.92894537940195, 38.56682317402831], [-89.9311804714063, 38.56561047502335], [-89.93355613229261, 38.564575565293175], [-89.93604949667974, 38.56372840433319], [-89.93863656914814, 38.56307714476067], [-89.94129245467451, 38.56262805403077], [-89.94399159762087, 38.56238545425106], [-89.94670802700539, 38.562351680667625], [-89.95243891640723, 38.56250115647497], [-89.95816984826406, 38.56265035220508], [-89.9639008224964, 38.56279926785163], [-89.96963183902501, 38.56294790340833], [-89.97536289777075, 38.56309625886896], [-89.98109399865429, 38.56324433422727], [-89.98682514159627, 38.56339212947699], [-89.98720605123398, 38.563401942444706], [-89.98868099487137, 38.562600558852765], [-89.99105580467901, 38.561564442050255], [-89.99354846720605, 38.56071602213306], [-89.99613499375235, 38.56006346382291], [-89.99785236172168, 38.55977217748679], [-89.99809672461583, 38.55960937307064], [-90.00033050776709, 38.55839529381409], [-90.00270502299527, 38.557358927269746], [-90.00519741589503, 38.556510246945514], [-90.00778370035182, 38.55585742006779], [-90.01043898888904, 38.55540672915769], [-90.01313773158569, 38.55516251170158], [-90.01585396129377, 38.55512711849031], [-90.02158464220746, 38.55527318617898], [-90.02731536460438, 38.555418973805246], [-90.0330461284051, 38.555564481362936], [-90.03877693353063, 38.55570970884596], [-90.0445077799015, 38.55585465624819], [-90.05023866743844, 38.55599932356353], [-90.05596959606183, 38.556143710785825], [-90.06170056569293, 38.556287817909094], [-90.06743157625216, 38.55643164492721], [-90.07013940775457, 38.556604229417744], [-90.07281268519394, 38.55698432966375], [-90.07542568509992, 38.557568289171115], [-90.07795326226594, 38.558350489698], [-90.08037109116636, 38.55932340514662], [-90.08265589959406, 38.56047767377831], [-90.08478569229261, 38.56180218806668], [-90.08673996244805, 38.56328420133491], [-90.09229016226485, 38.567927023093], [-90.09784107527535, 38.57256960604468], [-90.10339270165807, 38.57721195005785], [-90.10894504159118, 38.5818540550001], [-90.11070591771853, 38.583479002135974], [-90.11225547656626, 38.58523158084736], [-90.11357878569034, 38.587094921103144], [-90.11466308750093, 38.58905108522779], [-90.11549792263828, 38.59108124037007], [-90.1158226754393, 38.59225390109931], [-90.11987191032395, 38.595637834466764], [-90.12392152482292, 38.599021640527724], [-90.1253925435143, 38.59934954274624], [-90.12792216996584, 38.6001307356239], [-90.13034210690256, 38.60110269170531], [-90.13262906188118, 38.60225605848747], [-90.13476101903404, 38.60357973713142], [-90.13499180231385, 38.60375447230611], [-90.13668314080634, 38.60413129021393], [-90.13921306999539, 38.604912249286215], [-90.14163333085638, 38.605883982878005], [-90.14392062783826, 38.60703714062693], [-90.14532837183842, 38.60791090905557], [-90.14570957090508, 38.60792021521766], [-90.15144511220467, 38.60806008603352], [-90.15718069326877, 38.60819967615578], [-90.16291631401742, 38.60833898557854], [-90.1686519743712, 38.60847801429595], [-90.17438767425011, 38.608616762302056], [-90.18012341357533, 38.608755229591104], [-90.18050462860926, 38.60876442257433], [-90.18197853365373, 38.6079605573926], [-90.18435234358941, 38.606920469566475], [-90.18684458896547, 38.60606790466687], [-90.18943128501012, 38.60541106725364], [-90.19208754023718, 38.60495627838495], [-90.19478779540442, 38.60470791491997], [-90.19750606882089, 38.6046683674825], [-90.20324160771018, 38.6048056898624], [-90.20595177135465, 38.604975207541514], [-90.20862773781933, 38.60535229346186], [-90.21124375783623, 38.60593332009924], [-90.21377465722908, 38.60671269740626], [-90.2161960786051, 38.60768292643464], [-90.21848471529455, 38.608834671290275], [-90.2206185353096, 38.61015684873849], [-90.2225769931846, 38.61163673460813], [-90.22813988835246, 38.616273541011665], [-90.22990436088033, 38.617896816159806], [-90.23145760982374, 38.61964794178174], [-90.23278466728746, 38.62151006187347], [-90.23387273965271, 38.62346525055313], [-90.23471133129725, 38.62549468441454], [-90.23529234632164, 38.62757882357098], [-90.23561016727685, 38.62969759965519], [-90.23566171010633, 38.63183060897159], [-90.23544645474063, 38.63395730894535], [-90.2349664510162, 38.63605721597829], [-90.2342262998259, 38.63811010280534], [-90.2332331096487, 38.640096193447945], [-90.23199642884484, 38.641996353880444], [-90.23052815433954, 38.643792276565655], [-90.22884241754973, 38.645466657072035], [-90.22695544863322, 38.64700336105976], [-90.2248854203543, 38.64838758001479], [-90.22265227306265, 38.64960597421758], [-90.22027752247163, 38.65064680155565], [-90.21778405209358, 38.651500030926826], [-90.21519589234545, 38.652157439127684], [-90.21253798847137, 38.652612690284215], [-90.20983595954245, 38.65286139704984], [-90.20711585088425, 38.652901162974764], [-90.20440388234873, 38.652731605634095], [-90.20172619488959, 38.652354360289834], [-90.19910859791699, 38.6517730640528], [-90.19854942945322, 38.65160089003306]]]}}]}