{
"type": "FeatureCollection",
"name": "st_louis_astar_routes",
"crs": { "type": "name", "properties": { "name": "urn:ogc:def:crs:OGC:1.3:CRS84" } },
"features": [
{ "type": "Feature", "properties": { "route": "MidAmerica to Downtown St. Louis", "dataset": "March 7th - Saturday", "date": "2026-03-07", "origin": "MidAmerica St. Louis Airport", "destination": "Downtown St. Louis", "path_nodes": 66 }, "geometry": { "type": "LineString", "coordinates": [ [ -89.832726097422622, 38.545032139458961 ], [ -89.832528534703229, 38.549531267294249 ], [ -89.838060534246836, 38.554185437729323 ], [ -89.843593245825957, 38.558839373542895 ], [ -89.849126669620276, 38.563493074603095 ], [ -89.854660805809459, 38.568146540778045 ], [ -89.860195654573062, 38.572799771935806 ], [ -89.865731216090865, 38.577452767944443 ], [ -89.871267490542522, 38.582105528671988 ], [ -89.876804478107701, 38.586758053986458 ], [ -89.882342178966226, 38.591410343755804 ], [ -89.887880593297695, 38.596062397848023 ], [ -89.893419721282015, 38.600714216131045 ], [ -89.898959563098828, 38.605365798472761 ], [ -89.904500118927956, 38.610017144741079 ], [ -89.91004138894921, 38.614668254803874 ], [ -89.9155833733424, 38.61931912852895 ], [ -89.921126072287336, 38.623969765784139 ], [ -89.9268617252078, 38.624120695492145 ], [ -89.932597421043411, 38.624271344529042 ], [ -89.938333159714674, 38.624421712888498 ], [ -89.944068941142021, 38.624571800564148 ], [ -89.949804765245915, 38.624721607549667 ], [ -89.955540631946874, 38.624871133838766 ], [ -89.961276541165276, 38.625020379425088 ], [ -89.967012492821553, 38.625169344302385 ], [ -89.972748486836267, 38.625318028464349 ], [ -89.978484523129723, 38.625466431904712 ], [ -89.984220601622425, 38.625614554617215 ], [ -89.989956722234808, 38.625762396595618 ], [ -89.995692884887305, 38.625909957833684 ], [ -90.00142908950032, 38.626057238325181 ], [ -90.007165335994287, 38.626204238063899 ], [ -90.01290162428964, 38.626350957043627 ], [ -90.018824431937517, 38.621997539762511 ], [ -90.024560446091797, 38.622143673819693 ], [ -90.030296501798645, 38.622289527144211 ], [ -90.036032598978466, 38.622435099729884 ], [ -90.041768737551692, 38.622580391570615 ], [ -90.047504917438715, 38.622725402660208 ], [ -90.053241138559969, 38.622870132992603 ], [ -90.05916133464585, 38.618514560094347 ], [ -90.064897280501427, 38.618658705824664 ], [ -90.070633267342458, 38.618802570824315 ], [ -90.076369295089492, 38.618946155087237 ], [ -90.082105363662876, 38.619089458607391 ], [ -90.087841472983001, 38.61923248137871 ], [ -90.093577622970344, 38.61937522339516 ], [ -90.099495204171831, 38.615017497448825 ], [ -90.105050044628157, 38.619659865139432 ], [ -90.110786316139439, 38.619801764855218 ], [ -90.116342269587491, 38.624443634935055 ], [ -90.122078979310402, 38.624584995708041 ], [ -90.127636045898043, 38.629226367808045 ], [ -90.133373193632579, 38.629367189437694 ], [ -90.139110381416842, 38.62950773017495 ], [ -90.144847609171109, 38.629647990013858 ], [ -90.150584876815728, 38.629787968948484 ], [ -90.156322184271005, 38.629927666972939 ], [ -90.162059531457331, 38.63006708408134 ], [ -90.167796918294954, 38.630206220267794 ], [ -90.173534344704237, 38.6303450755264 ], [ -90.179448274357995, 38.625983156498016 ], [ -90.185185421892271, 38.626121427753255 ], [ -90.190922608749588, 38.626259418108006 ], [ -90.196659834850308, 38.626397127556444 ] ] } },
{ "type": "Feature", "properties": { "route": "MidAmerica to St. Louis Lambert", "dataset": "March 7th - Saturday", "date": "2026-03-07", "origin": "MidAmerica St. Louis Airport", "destination": "St. Louis Lambert International Airport", "path_nodes": 98 }, "geometry": { "type": "LineString", "coordinates": [ [ -89.832726097422622, 38.545032139458961 ], [ -89.832528534703229, 38.549531267294249 ], [ -89.838060534246836, 38.554185437729323 ], [ -89.843593245825957, 38.558839373542895 ], [ -89.849126669620276, 38.563493074603095 ], [ -89.854660805809459, 38.568146540778045 ], [ -89.860195654573062, 38.572799771935806 ], [ -89.865731216090865, 38.577452767944443 ], [ -89.871267490542522, 38.582105528671988 ], [ -89.876804478107701, 38.586758053986458 ], [ -89.882342178966226, 38.591410343755804 ], [ -89.887880593297695, 38.596062397848023 ], [ -89.893419721282015, 38.600714216131045 ], [ -89.898959563098828, 38.605365798472761 ], [ -89.904500118927956, 38.610017144741079 ], [ -89.91004138894921, 38.614668254803874 ], [ -89.9155833733424, 38.61931912852895 ], [ -89.921126072287336, 38.623969765784139 ], [ -89.9268617252078, 38.624120695492145 ], [ -89.932597421043411, 38.624271344529042 ], [ -89.938333159714674, 38.624421712888498 ], [ -89.944068941142021, 38.624571800564148 ], [ -89.949804765245915, 38.624721607549667 ], [ -89.955540631946874, 38.624871133838766 ], [ -89.961276541165276, 38.625020379425088 ], [ -89.967012492821553, 38.625169344302385 ], [ -89.972748486836267, 38.625318028464349 ], [ -89.978484523129723, 38.625466431904712 ], [ -89.984220601622425, 38.625614554617215 ], [ -89.989956722234808, 38.625762396595618 ], [ -89.995692884887305, 38.625909957833684 ], [ -90.00142908950032, 38.626057238325181 ], [ -90.007165335994287, 38.626204238063899 ], [ -90.01290162428964, 38.626350957043627 ], [ -90.018824431937517, 38.621997539762511 ], [ -90.024560446091797, 38.622143673819693 ], [ -90.030296501798645, 38.622289527144211 ], [ -90.036032598978466, 38.622435099729884 ], [ -90.041768737551692, 38.622580391570615 ], [ -90.047504917438715, 38.622725402660208 ], [ -90.053241138559969, 38.622870132992603 ], [ -90.0589774008359, 38.623014582561687 ], [ -90.064713704186843, 38.623158751361359 ], [ -90.070450048533246, 38.623302639385507 ], [ -90.076186433795485, 38.623446246628106 ], [ -90.081922859893965, 38.623589573083073 ], [ -90.087659326749062, 38.623732618744384 ], [ -90.093395834281182, 38.623875383605984 ], [ -90.098950910758376, 38.628518046481851 ], [ -90.104506702593454, 38.633160469873815 ], [ -90.110244047066203, 38.63330243772981 ], [ -90.115800952639063, 38.637944363266087 ], [ -90.121358573947134, 38.642586048960538 ], [ -90.126916911169374, 38.647227494680628 ], [ -90.132655490471763, 38.647368406473937 ], [ -90.138394109862602, 38.647509037195313 ], [ -90.14395395948668, 38.652149725619736 ], [ -90.14951452542148, 38.656790173618717 ], [ -90.155075807845833, 38.661430381059638 ], [ -90.160637806938681, 38.66607034780985 ], [ -90.166200522878924, 38.670710073736629 ], [ -90.171941172717908, 38.670849129097732 ], [ -90.177505003830007, 38.675488354933023 ], [ -90.183069552166529, 38.680127339586491 ], [ -90.188811037753254, 38.680265595144498 ], [ -90.194552562697595, 38.680403569257344 ], [ -90.200294126919601, 38.680541261919181 ], [ -90.205860586788717, 38.685179226989348 ], [ -90.211427764297184, 38.68981695033316 ], [ -90.217170163540402, 38.689953842396363 ], [ -90.222912601760498, 38.690090452895454 ], [ -90.228655078877537, 38.690226781824677 ], [ -90.234397594811554, 38.690362829178262 ], [ -90.24031317883275, 38.685997914256951 ], [ -90.246055413239873, 38.686133376770847 ], [ -90.251797686214701, 38.686268557736881 ], [ -90.257539997677227, 38.686403457149304 ], [ -90.263282347547488, 38.686538075002424 ], [ -90.269024735745546, 38.686672411290566 ], [ -90.274596286506139, 38.691307276054239 ], [ -90.2801685552908, 38.695941897935995 ], [ -90.285911776044117, 38.696075432210684 ], [ -90.291485160212787, 38.700709550716724 ], [ -90.297228816103001, 38.700842542902386 ], [ -90.302803315800176, 38.705476157663163 ], [ -90.30837853409372, 38.710109528957155 ], [ -90.313954471162162, 38.714742656651282 ], [ -90.313785882667688, 38.719243591002432 ], [ -90.31936286061908, 38.72387649197406 ], [ -90.324940557862661, 38.728509149039581 ], [ -90.330518974577004, 38.733141562065903 ], [ -90.33626541075455, 38.733272728767844 ], [ -90.342011884310494, 38.733403613381853 ], [ -90.347758395164632, 38.733534215902388 ], [ -90.353338723085216, 38.738165601138348 ], [ -90.359085668200649, 38.738295660252788 ], [ -90.364667113064669, 38.742926539503976 ], [ -90.370249278007392, 38.747557173944323 ] ] } },
{ "type": "Feature", "properties": { "route": "St. Louis Downtown Airport to St. Louis Lambert", "dataset": "March 7th - Saturday", "date": "2026-03-07", "origin": "St. Louis Downtown Airport", "destination": "St. Louis Lambert International Airport", "path_nodes": 41 }, "geometry": { "type": "LineString", "coordinates": [ [ -90.152899057655489, 38.571282677699791 ], [ -90.158454302059539, 38.57592253965332 ], [ -90.164010260106181, 38.580562161670002 ], [ -90.16956693197352, 38.585201543617373 ], [ -90.175124317839561, 38.5898406853631 ], [ -90.174947811909391, 38.594341189773729 ], [ -90.180506229749057, 38.598980109188332 ], [ -90.18606536210271, 38.603618788096668 ], [ -90.191625209148484, 38.608257226366213 ], [ -90.197185771064511, 38.612895423864465 ], [ -90.202747048028982, 38.617533380458873 ], [ -90.208309040220101, 38.622171096016864 ], [ -90.213871747816043, 38.626808570405821 ], [ -90.219435170994984, 38.631445803493165 ], [ -90.224999309935228, 38.636082795146216 ], [ -90.23056416481495, 38.640719545232344 ], [ -90.236129735812398, 38.645356053618841 ], [ -90.241696023105916, 38.649992320172984 ], [ -90.247263026873711, 38.65462834476206 ], [ -90.252830747294041, 38.65926412725328 ], [ -90.258399184545297, 38.663899667513896 ], [ -90.263968338805782, 38.668534965411069 ], [ -90.269538210253785, 38.673170020811966 ], [ -90.275108799067695, 38.677804833583757 ], [ -90.280680105425873, 38.682439403593555 ], [ -90.286252129506664, 38.68707373070842 ], [ -90.291824871488444, 38.691707814795478 ], [ -90.297398331549616, 38.696341655721739 ], [ -90.302972509868667, 38.700975253354272 ], [ -90.308547406623973, 38.705608607560031 ], [ -90.314123021993922, 38.710241718206007 ], [ -90.319699356157031, 38.714874585159158 ], [ -90.325276409291774, 38.719507208286444 ], [ -90.330854181576584, 38.724139587454722 ], [ -90.336432673190018, 38.728771722530922 ], [ -90.342011884310494, 38.733403613381853 ], [ -90.347758395164632, 38.733534215902388 ], [ -90.353338723085216, 38.738165601138348 ], [ -90.359085668200649, 38.738295660252788 ], [ -90.364667113064669, 38.742926539503976 ], [ -90.370249278007392, 38.747557173944323 ] ] } },
{ "type": "Feature", "properties": { "route": "MidAmerica to Downtown St. Louis", "dataset": "March 9th - Monday", "date": "2026-03-09", "origin": "MidAmerica St. Louis Airport", "destination": "Downtown St. Louis", "path_nodes": 66 }, "geometry": { "type": "LineString", "coordinates": [ [ -89.832726097422622, 38.545032139458961 ], [ -89.832528534703229, 38.549531267294249 ], [ -89.838060534246836, 38.554185437729323 ], [ -89.843593245825957, 38.558839373542895 ], [ -89.849126669620276, 38.563493074603095 ], [ -89.854660805809459, 38.568146540778045 ], [ -89.860195654573062, 38.572799771935806 ], [ -89.865731216090865, 38.577452767944443 ], [ -89.871267490542522, 38.582105528671988 ], [ -89.876804478107701, 38.586758053986458 ], [ -89.882342178966226, 38.591410343755804 ], [ -89.887880593297695, 38.596062397848023 ], [ -89.893419721282015, 38.600714216131045 ], [ -89.898959563098828, 38.605365798472761 ], [ -89.904500118927956, 38.610017144741079 ], [ -89.91004138894921, 38.614668254803874 ], [ -89.9155833733424, 38.61931912852895 ], [ -89.921318625947308, 38.619470314708934 ], [ -89.9268617252078, 38.624120695492145 ], [ -89.932597421043411, 38.624271344529042 ], [ -89.938333159714674, 38.624421712888498 ], [ -89.944068941142021, 38.624571800564148 ], [ -89.949995532146175, 38.620222036182781 ], [ -89.955731041464162, 38.620371538547964 ], [ -89.961466593289373, 38.620520760255197 ], [ -89.967202187542185, 38.620669701298226 ], [ -89.972937824143159, 38.620818361670722 ], [ -89.978673503012715, 38.620966741366459 ], [ -89.984409224071271, 38.621114840379136 ], [ -89.990144987239319, 38.621262658702541 ], [ -89.995880792437319, 38.621410196330416 ], [ -90.001616639585677, 38.621557453256571 ], [ -90.007539679424227, 38.617204616648934 ], [ -90.013462004541765, 38.612851448148064 ], [ -90.019197262312659, 38.612997816078675 ], [ -90.024932561695564, 38.613143903372411 ], [ -90.030667902610915, 38.613289710023118 ], [ -90.03640328497923, 38.613435236024664 ], [ -90.042138708720884, 38.61358048137086 ], [ -90.047874173756341, 38.613725446055639 ], [ -90.053609680006176, 38.613870130072868 ], [ -90.059345227390693, 38.61401453341643 ], [ -90.065080815830399, 38.614158656080249 ], [ -90.07081644524574, 38.614302498058237 ], [ -90.076552115557121, 38.614446059344324 ], [ -90.08228782668499, 38.614589339932465 ], [ -90.088023578549809, 38.614732339816626 ], [ -90.093759371071926, 38.614875058990748 ], [ -90.099495204171831, 38.615017497448825 ], [ -90.105050044628157, 38.619659865139432 ], [ -90.110786316139439, 38.619801764855218 ], [ -90.116342269587491, 38.624443634935055 ], [ -90.122078979310402, 38.624584995708041 ], [ -90.127815729232566, 38.624726075645349 ], [ -90.133373193632579, 38.629367189437694 ], [ -90.139110381416842, 38.62950773017495 ], [ -90.144847609171109, 38.629647990013858 ], [ -90.150584876815728, 38.629787968948484 ], [ -90.156322184271005, 38.629927666972939 ], [ -90.162059531457331, 38.63006708408134 ], [ -90.167796918294954, 38.630206220267794 ], [ -90.173534344704237, 38.6303450755264 ], [ -90.179448274357995, 38.625983156498016 ], [ -90.185185421892271, 38.626121427753255 ], [ -90.190922608749588, 38.626259418108006 ], [ -90.196659834850308, 38.626397127556444 ] ] } },
{ "type": "Feature", "properties": { "route": "MidAmerica to St. Louis Lambert", "dataset": "March 9th - Monday", "date": "2026-03-09", "origin": "MidAmerica St. Louis Airport", "destination": "St. Louis Lambert International Airport", "path_nodes": 98 }, "geometry": { "type": "LineString", "coordinates": [ [ -89.832726097422622, 38.545032139458961 ], [ -89.832528534703229, 38.549531267294249 ], [ -89.838060534246836, 38.554185437729323 ], [ -89.843593245825957, 38.558839373542895 ], [ -89.849126669620276, 38.563493074603095 ], [ -89.854660805809459, 38.568146540778045 ], [ -89.860195654573062, 38.572799771935806 ], [ -89.865731216090865, 38.577452767944443 ], [ -89.871267490542522, 38.582105528671988 ], [ -89.876804478107701, 38.586758053986458 ], [ -89.882342178966226, 38.591410343755804 ], [ -89.887880593297695, 38.596062397848023 ], [ -89.893419721282015, 38.600714216131045 ], [ -89.898959563098828, 38.605365798472761 ], [ -89.904500118927956, 38.610017144741079 ], [ -89.91004138894921, 38.614668254803874 ], [ -89.9155833733424, 38.61931912852895 ], [ -89.921318625947308, 38.619470314708934 ], [ -89.9268617252078, 38.624120695492145 ], [ -89.932597421043411, 38.624271344529042 ], [ -89.938333159714674, 38.624421712888498 ], [ -89.944068941142021, 38.624571800564148 ], [ -89.949995532146175, 38.620222036182781 ], [ -89.955731041464162, 38.620371538547964 ], [ -89.961466593289373, 38.620520760255197 ], [ -89.967202187542185, 38.620669701298226 ], [ -89.972937824143159, 38.620818361670722 ], [ -89.978673503012715, 38.620966741366459 ], [ -89.984409224071271, 38.621114840379136 ], [ -89.990144987239319, 38.621262658702541 ], [ -89.995880792437319, 38.621410196330416 ], [ -90.001616639585677, 38.621557453256571 ], [ -90.007352528604912, 38.621704429474754 ], [ -90.013088459415357, 38.621851124978797 ], [ -90.018824431937517, 38.621997539762511 ], [ -90.024560446091797, 38.622143673819693 ], [ -90.030296501798645, 38.622289527144211 ], [ -90.036032598978466, 38.622435099729884 ], [ -90.041768737551692, 38.622580391570615 ], [ -90.047504917438715, 38.622725402660208 ], [ -90.053241138559969, 38.622870132992603 ], [ -90.0589774008359, 38.623014582561687 ], [ -90.064713704186843, 38.623158751361359 ], [ -90.070450048533246, 38.623302639385507 ], [ -90.076186433795485, 38.623446246628106 ], [ -90.081922859893965, 38.623589573083073 ], [ -90.087659326749062, 38.623732618744384 ], [ -90.093395834281182, 38.623875383605984 ], [ -90.098950910758376, 38.628518046481851 ], [ -90.104506702593454, 38.633160469873815 ], [ -90.110063209965347, 38.637802653649402 ], [ -90.115800952639063, 38.637944363266087 ], [ -90.121358573947134, 38.642586048960538 ], [ -90.126916911169374, 38.647227494680628 ], [ -90.132655490471763, 38.647368406473937 ], [ -90.138214941976429, 38.652009353518125 ], [ -90.14395395948668, 38.652149725619736 ], [ -90.14951452542148, 38.656790173618717 ], [ -90.155075807845833, 38.661430381059638 ], [ -90.160637806938681, 38.66607034780985 ], [ -90.166378058651262, 38.666209662213348 ], [ -90.172118350012184, 38.666348695329852 ], [ -90.17785868094164, 38.666487447153536 ], [ -90.183422591050245, 38.671126395800741 ], [ -90.188987218242602, 38.675765103212932 ], [ -90.194728384510952, 38.675903055255461 ], [ -90.200294126919601, 38.680541261919181 ], [ -90.205860586788717, 38.685179226989348 ], [ -90.211427764297184, 38.68981695033316 ], [ -90.217170163540402, 38.689953842396363 ], [ -90.222912601760498, 38.690090452895454 ], [ -90.228655078877537, 38.690226781824677 ], [ -90.234397594811554, 38.690362829178262 ], [ -90.240140149482514, 38.690498594950469 ], [ -90.246055413239873, 38.686133376770847 ], [ -90.251797686214701, 38.686268557736881 ], [ -90.257539997677227, 38.686403457149304 ], [ -90.263282347547488, 38.686538075002424 ], [ -90.269024735745546, 38.686672411290566 ], [ -90.274767162191409, 38.686806466008058 ], [ -90.280339110096492, 38.691441070596817 ], [ -90.285911776044117, 38.696075432210684 ], [ -90.291485160212787, 38.700709550716724 ], [ -90.297228816103001, 38.700842542902386 ], [ -90.302803315800176, 38.705476157663163 ], [ -90.30837853409372, 38.710109528957155 ], [ -90.313954471162162, 38.714742656651282 ], [ -90.313785882667688, 38.719243591002432 ], [ -90.31936286061908, 38.72387649197406 ], [ -90.324940557862661, 38.728509149039581 ], [ -90.330518974577004, 38.733141562065903 ], [ -90.33626541075455, 38.733272728767844 ], [ -90.342011884310494, 38.733403613381853 ], [ -90.347758395164632, 38.733534215902388 ], [ -90.353338723085216, 38.738165601138348 ], [ -90.359085668200649, 38.738295660252788 ], [ -90.364667113064669, 38.742926539503976 ], [ -90.370249278007392, 38.747557173944323 ] ] } },
{ "type": "Feature", "properties": { "route": "St. Louis Downtown Airport to St. Louis Lambert", "dataset": "March 9th - Monday", "date": "2026-03-09", "origin": "St. Louis Downtown Airport", "destination": "St. Louis Lambert International Airport", "path_nodes": 41 }, "geometry": { "type": "LineString", "coordinates": [ [ -90.152899057655489, 38.571282677699791 ], [ -90.158454302059539, 38.57592253965332 ], [ -90.164010260106181, 38.580562161670002 ], [ -90.16956693197352, 38.585201543617373 ], [ -90.175124317839561, 38.5898406853631 ], [ -90.180682417882409, 38.594479586774703 ], [ -90.186241232280139, 38.599118247719709 ], [ -90.18606536210271, 38.603618788096668 ], [ -90.191625209148484, 38.608257226366213 ], [ -90.197185771064511, 38.612895423864465 ], [ -90.202747048028982, 38.617533380458873 ], [ -90.208309040220101, 38.622171096016864 ], [ -90.213871747816043, 38.626808570405821 ], [ -90.219435170994984, 38.631445803493165 ], [ -90.224999309935228, 38.636082795146216 ], [ -90.23056416481495, 38.640719545232344 ], [ -90.236129735812398, 38.645356053618841 ], [ -90.241696023105916, 38.649992320172984 ], [ -90.247263026873711, 38.65462834476206 ], [ -90.252830747294041, 38.65926412725328 ], [ -90.258399184545297, 38.663899667513896 ], [ -90.263968338805782, 38.668534965411069 ], [ -90.269538210253785, 38.673170020811966 ], [ -90.275108799067695, 38.677804833583757 ], [ -90.280680105425873, 38.682439403593555 ], [ -90.286252129506664, 38.68707373070842 ], [ -90.291824871488444, 38.691707814795478 ], [ -90.297398331549616, 38.696341655721739 ], [ -90.302972509868667, 38.700975253354272 ], [ -90.308547406623973, 38.705608607560031 ], [ -90.314123021993922, 38.710241718206007 ], [ -90.319699356157031, 38.714874585159158 ], [ -90.325276409291774, 38.719507208286444 ], [ -90.330854181576584, 38.724139587454722 ], [ -90.336432673190018, 38.728771722530922 ], [ -90.342011884310494, 38.733403613381853 ], [ -90.347758395164632, 38.733534215902388 ], [ -90.353338723085216, 38.738165601138348 ], [ -90.359085668200649, 38.738295660252788 ], [ -90.364667113064669, 38.742926539503976 ], [ -90.370249278007392, 38.747557173944323 ] ] } },
{ "type": "Feature", "properties": { "route": "MidAmerica to Downtown St. Louis", "dataset": "January 10th - Saturday", "date": "2026-01-10", "origin": "MidAmerica St. Louis Airport", "destination": "Downtown St. Louis", "path_nodes": 66 }, "geometry": { "type": "LineString", "coordinates": [ [ -89.832726097422622, 38.545032139458961 ], [ -89.832528534703229, 38.549531267294249 ], [ -89.838060534246836, 38.554185437729323 ], [ -89.843593245825957, 38.558839373542895 ], [ -89.849126669620276, 38.563493074603095 ], [ -89.854660805809459, 38.568146540778045 ], [ -89.860195654573062, 38.572799771935806 ], [ -89.865731216090865, 38.577452767944443 ], [ -89.871267490542522, 38.582105528671988 ], [ -89.876804478107701, 38.586758053986458 ], [ -89.882342178966226, 38.591410343755804 ], [ -89.887880593297695, 38.596062397848023 ], [ -89.893419721282015, 38.600714216131045 ], [ -89.898959563098828, 38.605365798472761 ], [ -89.904500118927956, 38.610017144741079 ], [ -89.91004138894921, 38.614668254803874 ], [ -89.9155833733424, 38.61931912852895 ], [ -89.921126072287336, 38.623969765784139 ], [ -89.9268617252078, 38.624120695492145 ], [ -89.932597421043411, 38.624271344529042 ], [ -89.938333159714674, 38.624421712888498 ], [ -89.944068941142021, 38.624571800564148 ], [ -89.949804765245915, 38.624721607549667 ], [ -89.955540631946874, 38.624871133838766 ], [ -89.961276541165276, 38.625020379425088 ], [ -89.967012492821553, 38.625169344302385 ], [ -89.972748486836267, 38.625318028464349 ], [ -89.978484523129723, 38.625466431904712 ], [ -89.984220601622425, 38.625614554617215 ], [ -89.989956722234808, 38.625762396595618 ], [ -89.995692884887305, 38.625909957833684 ], [ -90.00142908950032, 38.626057238325181 ], [ -90.007165335994287, 38.626204238063899 ], [ -90.01290162428964, 38.626350957043627 ], [ -90.018637954306783, 38.626497395258212 ], [ -90.024374325966107, 38.626643552701445 ], [ -90.030110739188046, 38.626789429367172 ], [ -90.036032598978466, 38.622435099729884 ], [ -90.041768737551692, 38.622580391570615 ], [ -90.047504917438715, 38.622725402660208 ], [ -90.053241138559969, 38.622870132992603 ], [ -90.0589774008359, 38.623014582561687 ], [ -90.064713704186843, 38.623158751361359 ], [ -90.070450048533246, 38.623302639385507 ], [ -90.076369295089492, 38.618946155087237 ], [ -90.082105363662876, 38.619089458607391 ], [ -90.087841472983001, 38.61923248137871 ], [ -90.093759371071926, 38.614875058990748 ], [ -90.099495204171831, 38.615017497448825 ], [ -90.105050044628157, 38.619659865139432 ], [ -90.110786316139439, 38.619801764855218 ], [ -90.116342269587491, 38.624443634935055 ], [ -90.122078979310402, 38.624584995708041 ], [ -90.127815729232566, 38.624726075645349 ], [ -90.133373193632579, 38.629367189437694 ], [ -90.139110381416842, 38.62950773017495 ], [ -90.144847609171109, 38.629647990013858 ], [ -90.150584876815728, 38.629787968948484 ], [ -90.156322184271005, 38.629927666972939 ], [ -90.162059531457331, 38.63006708408134 ], [ -90.167796918294954, 38.630206220267794 ], [ -90.173534344704237, 38.6303450755264 ], [ -90.179448274357995, 38.625983156498016 ], [ -90.185185421892271, 38.626121427753255 ], [ -90.190922608749588, 38.626259418108006 ], [ -90.196659834850308, 38.626397127556444 ] ] } },
{ "type": "Feature", "properties": { "route": "MidAmerica to St. Louis Lambert", "dataset": "January 10th - Saturday", "date": "2026-01-10", "origin": "MidAmerica St. Louis Airport", "destination": "St. Louis Lambert International Airport", "path_nodes": 97 }, "geometry": { "type": "LineString", "coordinates": [ [ -89.832726097422622, 38.545032139458961 ], [ -89.832528534703229, 38.549531267294249 ], [ -89.838060534246836, 38.554185437729323 ], [ -89.843593245825957, 38.558839373542895 ], [ -89.849126669620276, 38.563493074603095 ], [ -89.854660805809459, 38.568146540778045 ], [ -89.860195654573062, 38.572799771935806 ], [ -89.865731216090865, 38.577452767944443 ], [ -89.871267490542522, 38.582105528671988 ], [ -89.876804478107701, 38.586758053986458 ], [ -89.882342178966226, 38.591410343755804 ], [ -89.887880593297695, 38.596062397848023 ], [ -89.893419721282015, 38.600714216131045 ], [ -89.898959563098828, 38.605365798472761 ], [ -89.904500118927956, 38.610017144741079 ], [ -89.91004138894921, 38.614668254803874 ], [ -89.9155833733424, 38.61931912852895 ], [ -89.921126072287336, 38.623969765784139 ], [ -89.9268617252078, 38.624120695492145 ], [ -89.932597421043411, 38.624271344529042 ], [ -89.938333159714674, 38.624421712888498 ], [ -89.944068941142021, 38.624571800564148 ], [ -89.949804765245915, 38.624721607549667 ], [ -89.955540631946874, 38.624871133838766 ], [ -89.961276541165276, 38.625020379425088 ], [ -89.967012492821553, 38.625169344302385 ], [ -89.972748486836267, 38.625318028464349 ], [ -89.978484523129723, 38.625466431904712 ], [ -89.984220601622425, 38.625614554617215 ], [ -89.989956722234808, 38.625762396595618 ], [ -89.995692884887305, 38.625909957833684 ], [ -90.00142908950032, 38.626057238325181 ], [ -90.007165335994287, 38.626204238063899 ], [ -90.01290162428964, 38.626350957043627 ], [ -90.018637954306783, 38.626497395258212 ], [ -90.024374325966107, 38.626643552701445 ], [ -90.030110739188046, 38.626789429367172 ], [ -90.036032598978466, 38.622435099729884 ], [ -90.041768737551692, 38.622580391570615 ], [ -90.047504917438715, 38.622725402660208 ], [ -90.053241138559969, 38.622870132992603 ], [ -90.0589774008359, 38.623014582561687 ], [ -90.064713704186843, 38.623158751361359 ], [ -90.070450048533246, 38.623302639385507 ], [ -90.076186433795485, 38.623446246628106 ], [ -90.081922859893965, 38.623589573083073 ], [ -90.087659326749062, 38.623732618744384 ], [ -90.093395834281182, 38.623875383605984 ], [ -90.098950910758376, 38.628518046481851 ], [ -90.104506702593454, 38.633160469873815 ], [ -90.110063209965347, 38.637802653649402 ], [ -90.115620433052925, 38.642444597676089 ], [ -90.121178372035146, 38.647086301821354 ], [ -90.126737027090968, 38.651727765952629 ], [ -90.132296398399305, 38.656368989937306 ], [ -90.137856486139185, 38.661009973642777 ], [ -90.143596220109998, 38.661150390668844 ], [ -90.149157422777989, 38.665790875165492 ], [ -90.154897594954335, 38.66593075212527 ], [ -90.160637806938681, 38.66607034780985 ], [ -90.166378058651262, 38.666209662213348 ], [ -90.171941172717908, 38.670849129097732 ], [ -90.177505003830007, 38.675488354933023 ], [ -90.183069552166529, 38.680127339586491 ], [ -90.188811037753254, 38.680265595144498 ], [ -90.194552562697595, 38.680403569257344 ], [ -90.200294126919601, 38.680541261919181 ], [ -90.205860586788717, 38.685179226989348 ], [ -90.211427764297184, 38.68981695033316 ], [ -90.217170163540402, 38.689953842396363 ], [ -90.222912601760498, 38.690090452895454 ], [ -90.228655078877537, 38.690226781824677 ], [ -90.234397594811554, 38.690362829178262 ], [ -90.24031317883275, 38.685997914256951 ], [ -90.246055413239873, 38.686133376770847 ], [ -90.251797686214701, 38.686268557736881 ], [ -90.257539997677227, 38.686403457149304 ], [ -90.263282347547488, 38.686538075002424 ], [ -90.269024735745546, 38.686672411290566 ], [ -90.274767162191409, 38.686806466008058 ], [ -90.280339110096492, 38.691441070596817 ], [ -90.285911776044117, 38.696075432210684 ], [ -90.291485160212787, 38.700709550716724 ], [ -90.297228816103001, 38.700842542902386 ], [ -90.302803315800176, 38.705476157663163 ], [ -90.30837853409372, 38.710109528957155 ], [ -90.313954471162162, 38.714742656651282 ], [ -90.319531127183907, 38.719375540612532 ], [ -90.325108502337528, 38.724008180707777 ], [ -90.330686596801584, 38.728640576803919 ], [ -90.33626541075455, 38.733272728767844 ], [ -90.342011884310494, 38.733403613381853 ], [ -90.347758395164632, 38.733534215902388 ], [ -90.353338723085216, 38.738165601138348 ], [ -90.359085668200649, 38.738295660252788 ], [ -90.364667113064669, 38.742926539503976 ], [ -90.370249278007392, 38.747557173944323 ] ] } },
{ "type": "Feature", "properties": { "route": "St. Louis Downtown Airport to St. Louis Lambert", "dataset": "January 10th - Saturday", "date": "2026-01-10", "origin": "St. Louis Downtown Airport", "destination": "St. Louis Lambert International Airport", "path_nodes": 41 }, "geometry": { "type": "LineString", "coordinates": [ [ -90.152899057655489, 38.571282677699791 ], [ -90.152721282128027, 38.575783109701661 ], [ -90.158276843692974, 38.580422989816853 ], [ -90.163833119059433, 38.585062629955537 ], [ -90.169390108405537, 38.589702029985311 ], [ -90.174947811909391, 38.594341189773729 ], [ -90.180506229749057, 38.598980109188332 ], [ -90.18606536210271, 38.603618788096668 ], [ -90.191625209148484, 38.608257226366213 ], [ -90.197185771064511, 38.612895423864465 ], [ -90.202747048028982, 38.617533380458873 ], [ -90.208309040220101, 38.622171096016864 ], [ -90.213871747816043, 38.626808570405821 ], [ -90.219435170994984, 38.631445803493165 ], [ -90.224999309935228, 38.636082795146216 ], [ -90.23056416481495, 38.640719545232344 ], [ -90.236129735812398, 38.645356053618841 ], [ -90.241696023105916, 38.649992320172984 ], [ -90.247263026873711, 38.65462834476206 ], [ -90.252830747294041, 38.65926412725328 ], [ -90.258399184545297, 38.663899667513896 ], [ -90.263968338805782, 38.668534965411069 ], [ -90.269538210253785, 38.673170020811966 ], [ -90.275108799067695, 38.677804833583757 ], [ -90.280680105425873, 38.682439403593555 ], [ -90.286252129506664, 38.68707373070842 ], [ -90.291824871488444, 38.691707814795478 ], [ -90.297398331549616, 38.696341655721739 ], [ -90.302972509868667, 38.700975253354272 ], [ -90.308547406623973, 38.705608607560031 ], [ -90.314123021993922, 38.710241718206007 ], [ -90.319699356157031, 38.714874585159158 ], [ -90.325276409291774, 38.719507208286444 ], [ -90.330854181576584, 38.724139587454722 ], [ -90.336432673190018, 38.728771722530922 ], [ -90.342011884310494, 38.733403613381853 ], [ -90.347758395164632, 38.733534215902388 ], [ -90.353338723085216, 38.738165601138348 ], [ -90.359085668200649, 38.738295660252788 ], [ -90.364667113064669, 38.742926539503976 ], [ -90.370249278007392, 38.747557173944323 ] ] } },
{ "type": "Feature", "properties": { "route": "MidAmerica to Downtown St. Louis", "dataset": "January 12th - Monday", "date": "2026-01-12", "origin": "MidAmerica St. Louis Airport", "destination": "Downtown St. Louis", "path_nodes": 66 }, "geometry": { "type": "LineString", "coordinates": [ [ -89.832726097422622, 38.545032139458961 ], [ -89.832528534703229, 38.549531267294249 ], [ -89.838060534246836, 38.554185437729323 ], [ -89.843593245825957, 38.558839373542895 ], [ -89.849126669620276, 38.563493074603095 ], [ -89.854660805809459, 38.568146540778045 ], [ -89.860195654573062, 38.572799771935806 ], [ -89.865731216090865, 38.577452767944443 ], [ -89.871267490542522, 38.582105528671988 ], [ -89.876804478107701, 38.586758053986458 ], [ -89.882342178966226, 38.591410343755804 ], [ -89.887880593297695, 38.596062397848023 ], [ -89.893419721282015, 38.600714216131045 ], [ -89.898959563098828, 38.605365798472761 ], [ -89.904500118927956, 38.610017144741079 ], [ -89.91004138894921, 38.614668254803874 ], [ -89.9155833733424, 38.61931912852895 ], [ -89.921318625947308, 38.619470314708934 ], [ -89.9268617252078, 38.624120695492145 ], [ -89.932597421043411, 38.624271344529042 ], [ -89.938333159714674, 38.624421712888498 ], [ -89.944260065414895, 38.620072253165972 ], [ -89.949995532146175, 38.620222036182781 ], [ -89.955731041464162, 38.620371538547964 ], [ -89.961466593289373, 38.620520760255197 ], [ -89.967202187542185, 38.620669701298226 ], [ -89.972937824143159, 38.620818361670722 ], [ -89.978673503012715, 38.620966741366459 ], [ -89.984409224071271, 38.621114840379136 ], [ -89.990144987239319, 38.621262658702541 ], [ -89.995880792437319, 38.621410196330416 ], [ -90.001616639585677, 38.621557453256571 ], [ -90.007352528604912, 38.621704429474754 ], [ -90.013088459415357, 38.621851124978797 ], [ -90.018824431937517, 38.621997539762511 ], [ -90.024560446091797, 38.622143673819693 ], [ -90.030296501798645, 38.622289527144211 ], [ -90.036032598978466, 38.622435099729884 ], [ -90.041768737551692, 38.622580391570615 ], [ -90.047504917438715, 38.622725402660208 ], [ -90.053241138559969, 38.622870132992603 ], [ -90.05916133464585, 38.618514560094347 ], [ -90.064897280501427, 38.618658705824664 ], [ -90.070633267342458, 38.618802570824315 ], [ -90.076369295089492, 38.618946155087237 ], [ -90.082105363662876, 38.619089458607391 ], [ -90.087841472983001, 38.61923248137871 ], [ -90.093759371071926, 38.614875058990748 ], [ -90.099495204171831, 38.615017497448825 ], [ -90.105050044628157, 38.619659865139432 ], [ -90.110786316139439, 38.619801764855218 ], [ -90.116342269587491, 38.624443634935055 ], [ -90.122078979310402, 38.624584995708041 ], [ -90.127815729232566, 38.624726075645349 ], [ -90.133373193632579, 38.629367189437694 ], [ -90.139110381416842, 38.62950773017495 ], [ -90.144847609171109, 38.629647990013858 ], [ -90.150584876815728, 38.629787968948484 ], [ -90.156322184271005, 38.629927666972939 ], [ -90.162059531457331, 38.63006708408134 ], [ -90.167796918294954, 38.630206220267794 ], [ -90.173534344704237, 38.6303450755264 ], [ -90.179448274357995, 38.625983156498016 ], [ -90.185185421892271, 38.626121427753255 ], [ -90.190922608749588, 38.626259418108006 ], [ -90.196659834850308, 38.626397127556444 ] ] } },
{ "type": "Feature", "properties": { "route": "MidAmerica to St. Louis Lambert", "dataset": "January 12th - Monday", "date": "2026-01-12", "origin": "MidAmerica St. Louis Airport", "destination": "St. Louis Lambert International Airport", "path_nodes": 97 }, "geometry": { "type": "LineString", "coordinates": [ [ -89.832726097422622, 38.545032139458961 ], [ -89.832528534703229, 38.549531267294249 ], [ -89.838060534246836, 38.554185437729323 ], [ -89.843593245825957, 38.558839373542895 ], [ -89.849126669620276, 38.563493074603095 ], [ -89.854660805809459, 38.568146540778045 ], [ -89.860195654573062, 38.572799771935806 ], [ -89.865731216090865, 38.577452767944443 ], [ -89.871267490542522, 38.582105528671988 ], [ -89.876804478107701, 38.586758053986458 ], [ -89.882342178966226, 38.591410343755804 ], [ -89.887880593297695, 38.596062397848023 ], [ -89.893419721282015, 38.600714216131045 ], [ -89.898959563098828, 38.605365798472761 ], [ -89.904500118927956, 38.610017144741079 ], [ -89.91004138894921, 38.614668254803874 ], [ -89.9155833733424, 38.61931912852895 ], [ -89.921318625947308, 38.619470314708934 ], [ -89.9268617252078, 38.624120695492145 ], [ -89.932597421043411, 38.624271344529042 ], [ -89.938333159714674, 38.624421712888498 ], [ -89.944260065414895, 38.620072253165972 ], [ -89.949995532146175, 38.620222036182781 ], [ -89.955731041464162, 38.620371538547964 ], [ -89.961466593289373, 38.620520760255197 ], [ -89.967202187542185, 38.620669701298226 ], [ -89.972937824143159, 38.620818361670722 ], [ -89.978673503012715, 38.620966741366459 ], [ -89.984409224071271, 38.621114840379136 ], [ -89.990144987239319, 38.621262658702541 ], [ -89.995880792437319, 38.621410196330416 ], [ -90.001616639585677, 38.621557453256571 ], [ -90.007352528604912, 38.621704429474754 ], [ -90.013088459415357, 38.621851124978797 ], [ -90.018824431937517, 38.621997539762511 ], [ -90.024560446091797, 38.622143673819693 ], [ -90.030296501798645, 38.622289527144211 ], [ -90.036032598978466, 38.622435099729884 ], [ -90.041768737551692, 38.622580391570615 ], [ -90.047504917438715, 38.622725402660208 ], [ -90.053241138559969, 38.622870132992603 ], [ -90.0589774008359, 38.623014582561687 ], [ -90.064713704186843, 38.623158751361359 ], [ -90.070450048533246, 38.623302639385507 ], [ -90.076186433795485, 38.623446246628106 ], [ -90.081922859893965, 38.623589573083073 ], [ -90.087659326749062, 38.623732618744384 ], [ -90.093395834281182, 38.623875383605984 ], [ -90.098950910758376, 38.628518046481851 ], [ -90.104506702593454, 38.633160469873815 ], [ -90.110244047066203, 38.63330243772981 ], [ -90.115800952639063, 38.637944363266087 ], [ -90.121358573947134, 38.642586048960538 ], [ -90.126916911169374, 38.647227494680628 ], [ -90.132655490471763, 38.647368406473937 ], [ -90.138214941976429, 38.652009353518125 ], [ -90.14395395948668, 38.652149725619736 ], [ -90.14951452542148, 38.656790173618717 ], [ -90.155075807845833, 38.661430381059638 ], [ -90.160815661451252, 38.661569954412577 ], [ -90.166378058651262, 38.666209662213348 ], [ -90.171941172717908, 38.670849129097732 ], [ -90.177505003830007, 38.675488354933023 ], [ -90.183069552166529, 38.680127339586491 ], [ -90.188811037753254, 38.680265595144498 ], [ -90.194552562697595, 38.680403569257344 ], [ -90.200294126919601, 38.680541261919181 ], [ -90.205860586788717, 38.685179226989348 ], [ -90.211427764297184, 38.68981695033316 ], [ -90.217170163540402, 38.689953842396363 ], [ -90.222912601760498, 38.690090452895454 ], [ -90.228655078877537, 38.690226781824677 ], [ -90.234397594811554, 38.690362829178262 ], [ -90.24031317883275, 38.685997914256951 ], [ -90.246055413239873, 38.686133376770847 ], [ -90.251797686214701, 38.686268557736881 ], [ -90.257539997677227, 38.686403457149304 ], [ -90.263282347547488, 38.686538075002424 ], [ -90.269024735745546, 38.686672411290566 ], [ -90.274767162191409, 38.686806466008058 ], [ -90.280339110096492, 38.691441070596817 ], [ -90.285911776044117, 38.696075432210684 ], [ -90.291485160212787, 38.700709550716724 ], [ -90.297228816103001, 38.700842542902386 ], [ -90.302803315800176, 38.705476157663163 ], [ -90.30837853409372, 38.710109528957155 ], [ -90.313954471162162, 38.714742656651282 ], [ -90.319531127183907, 38.719375540612532 ], [ -90.325108502337528, 38.724008180707777 ], [ -90.330686596801584, 38.728640576803919 ], [ -90.33626541075455, 38.733272728767844 ], [ -90.342011884310494, 38.733403613381853 ], [ -90.347758395164632, 38.733534215902388 ], [ -90.353338723085216, 38.738165601138348 ], [ -90.359085668200649, 38.738295660252788 ], [ -90.364667113064669, 38.742926539503976 ], [ -90.370249278007392, 38.747557173944323 ] ] } },
{ "type": "Feature", "properties": { "route": "St. Louis Downtown Airport to St. Louis Lambert", "dataset": "January 12th - Monday", "date": "2026-01-12", "origin": "St. Louis Downtown Airport", "destination": "St. Louis Lambert International Airport", "path_nodes": 41 }, "geometry": { "type": "LineString", "coordinates": [ [ -90.152899057655489, 38.571282677699791 ], [ -90.158454302059539, 38.57592253965332 ], [ -90.164010260106181, 38.580562161670002 ], [ -90.16956693197352, 38.585201543617373 ], [ -90.175124317839561, 38.5898406853631 ], [ -90.174947811909391, 38.594341189773729 ], [ -90.180506229749057, 38.598980109188332 ], [ -90.18606536210271, 38.603618788096668 ], [ -90.191625209148484, 38.608257226366213 ], [ -90.197185771064511, 38.612895423864465 ], [ -90.202747048028982, 38.617533380458873 ], [ -90.208309040220101, 38.622171096016864 ], [ -90.213871747816043, 38.626808570405821 ], [ -90.219435170994984, 38.631445803493165 ], [ -90.224999309935228, 38.636082795146216 ], [ -90.23056416481495, 38.640719545232344 ], [ -90.236129735812398, 38.645356053618841 ], [ -90.241696023105916, 38.649992320172984 ], [ -90.247263026873711, 38.65462834476206 ], [ -90.252830747294041, 38.65926412725328 ], [ -90.258399184545297, 38.663899667513896 ], [ -90.263968338805782, 38.668534965411069 ], [ -90.269538210253785, 38.673170020811966 ], [ -90.275108799067695, 38.677804833583757 ], [ -90.280680105425873, 38.682439403593555 ], [ -90.286252129506664, 38.68707373070842 ], [ -90.291824871488444, 38.691707814795478 ], [ -90.297398331549616, 38.696341655721739 ], [ -90.302972509868667, 38.700975253354272 ], [ -90.308547406623973, 38.705608607560031 ], [ -90.314123021993922, 38.710241718206007 ], [ -90.319699356157031, 38.714874585159158 ], [ -90.325276409291774, 38.719507208286444 ], [ -90.330854181576584, 38.724139587454722 ], [ -90.336432673190018, 38.728771722530922 ], [ -90.342011884310494, 38.733403613381853 ], [ -90.347758395164632, 38.733534215902388 ], [ -90.353338723085216, 38.738165601138348 ], [ -90.359085668200649, 38.738295660252788 ], [ -90.364667113064669, 38.742926539503976 ], [ -90.370249278007392, 38.747557173944323 ] ] } },
{ "type": "Feature", "properties": { "route": "MidAmerica to Downtown St. Louis", "dataset": "July 12th - Saturday", "date": "2025-07-12", "origin": "MidAmerica St. Louis Airport", "destination": "Downtown St. Louis", "path_nodes": 66 }, "geometry": { "type": "LineString", "coordinates": [ [ -89.832726097422622, 38.545032139458961 ], [ -89.832528534703229, 38.549531267294249 ], [ -89.838060534246836, 38.554185437729323 ], [ -89.843593245825957, 38.558839373542895 ], [ -89.849126669620276, 38.563493074603095 ], [ -89.854660805809459, 38.568146540778045 ], [ -89.860195654573062, 38.572799771935806 ], [ -89.865731216090865, 38.577452767944443 ], [ -89.871267490542522, 38.582105528671988 ], [ -89.876804478107701, 38.586758053986458 ], [ -89.882342178966226, 38.591410343755804 ], [ -89.887880593297695, 38.596062397848023 ], [ -89.893419721282015, 38.600714216131045 ], [ -89.898959563098828, 38.605365798472761 ], [ -89.904500118927956, 38.610017144741079 ], [ -89.91004138894921, 38.614668254803874 ], [ -89.9155833733424, 38.61931912852895 ], [ -89.921318625947308, 38.619470314708934 ], [ -89.9268617252078, 38.624120695492145 ], [ -89.932597421043411, 38.624271344529042 ], [ -89.938333159714674, 38.624421712888498 ], [ -89.944068941142021, 38.624571800564148 ], [ -89.949804765245915, 38.624721607549667 ], [ -89.955540631946874, 38.624871133838766 ], [ -89.961276541165276, 38.625020379425088 ], [ -89.967012492821553, 38.625169344302385 ], [ -89.972748486836267, 38.625318028464349 ], [ -89.978484523129723, 38.625466431904712 ], [ -89.984220601622425, 38.625614554617215 ], [ -89.989956722234808, 38.625762396595618 ], [ -89.995692884887305, 38.625909957833684 ], [ -90.00142908950032, 38.626057238325181 ], [ -90.007165335994287, 38.626204238063899 ], [ -90.01290162428964, 38.626350957043627 ], [ -90.018637954306783, 38.626497395258212 ], [ -90.024374325966107, 38.626643552701445 ], [ -90.030296501798645, 38.622289527144211 ], [ -90.036032598978466, 38.622435099729884 ], [ -90.041768737551692, 38.622580391570615 ], [ -90.047689566209669, 38.618225426466068 ], [ -90.053425429855423, 38.618370133639452 ], [ -90.05916133464585, 38.618514560094347 ], [ -90.064897280501427, 38.618658705824664 ], [ -90.070633267342458, 38.618802570824315 ], [ -90.076369295089492, 38.618946155087237 ], [ -90.082105363662876, 38.619089458607391 ], [ -90.087841472983001, 38.61923248137871 ], [ -90.093577622970344, 38.61937522339516 ], [ -90.099495204171831, 38.615017497448825 ], [ -90.105050044628157, 38.619659865139432 ], [ -90.110786316139439, 38.619801764855218 ], [ -90.116342269587491, 38.624443634935055 ], [ -90.122078979310402, 38.624584995708041 ], [ -90.127815729232566, 38.624726075645349 ], [ -90.133373193632579, 38.629367189437694 ], [ -90.139110381416842, 38.62950773017495 ], [ -90.144847609171109, 38.629647990013858 ], [ -90.150584876815728, 38.629787968948484 ], [ -90.156322184271005, 38.629927666972939 ], [ -90.162059531457331, 38.63006708408134 ], [ -90.167796918294954, 38.630206220267794 ], [ -90.173534344704237, 38.6303450755264 ], [ -90.179448274357995, 38.625983156498016 ], [ -90.185185421892271, 38.626121427753255 ], [ -90.190922608749588, 38.626259418108006 ], [ -90.196659834850308, 38.626397127556444 ] ] } },
{ "type": "Feature", "properties": { "route": "MidAmerica to St. Louis Lambert", "dataset": "July 12th - Saturday", "date": "2025-07-12", "origin": "MidAmerica St. Louis Airport", "destination": "St. Louis Lambert International Airport", "path_nodes": 97 }, "geometry": { "type": "LineString", "coordinates": [ [ -89.832726097422622, 38.545032139458961 ], [ -89.832528534703229, 38.549531267294249 ], [ -89.838060534246836, 38.554185437729323 ], [ -89.843593245825957, 38.558839373542895 ], [ -89.849126669620276, 38.563493074603095 ], [ -89.854660805809459, 38.568146540778045 ], [ -89.860195654573062, 38.572799771935806 ], [ -89.865731216090865, 38.577452767944443 ], [ -89.871267490542522, 38.582105528671988 ], [ -89.876804478107701, 38.586758053986458 ], [ -89.882342178966226, 38.591410343755804 ], [ -89.887880593297695, 38.596062397848023 ], [ -89.893419721282015, 38.600714216131045 ], [ -89.898959563098828, 38.605365798472761 ], [ -89.904500118927956, 38.610017144741079 ], [ -89.91004138894921, 38.614668254803874 ], [ -89.9155833733424, 38.61931912852895 ], [ -89.921318625947308, 38.619470314708934 ], [ -89.9268617252078, 38.624120695492145 ], [ -89.932597421043411, 38.624271344529042 ], [ -89.938333159714674, 38.624421712888498 ], [ -89.944068941142021, 38.624571800564148 ], [ -89.949804765245915, 38.624721607549667 ], [ -89.955540631946874, 38.624871133838766 ], [ -89.961276541165276, 38.625020379425088 ], [ -89.967012492821553, 38.625169344302385 ], [ -89.972748486836267, 38.625318028464349 ], [ -89.978484523129723, 38.625466431904712 ], [ -89.984220601622425, 38.625614554617215 ], [ -89.989956722234808, 38.625762396595618 ], [ -89.995692884887305, 38.625909957833684 ], [ -90.00142908950032, 38.626057238325181 ], [ -90.007165335994287, 38.626204238063899 ], [ -90.01290162428964, 38.626350957043627 ], [ -90.018637954306783, 38.626497395258212 ], [ -90.024374325966107, 38.626643552701445 ], [ -90.030296501798645, 38.622289527144211 ], [ -90.036032598978466, 38.622435099729884 ], [ -90.041768737551692, 38.622580391570615 ], [ -90.047504917438715, 38.622725402660208 ], [ -90.053241138559969, 38.622870132992603 ], [ -90.0589774008359, 38.623014582561687 ], [ -90.064713704186843, 38.623158751361359 ], [ -90.070450048533246, 38.623302639385507 ], [ -90.076186433795485, 38.623446246628106 ], [ -90.081922859893965, 38.623589573083073 ], [ -90.087659326749062, 38.623732618744384 ], [ -90.093395834281182, 38.623875383605984 ], [ -90.098950910758376, 38.628518046481851 ], [ -90.104506702593454, 38.633160469873815 ], [ -90.110244047066203, 38.63330243772981 ], [ -90.115800952639063, 38.637944363266087 ], [ -90.121358573947134, 38.642586048960538 ], [ -90.127096755079549, 38.642727219229855 ], [ -90.132655490471763, 38.647368406473937 ], [ -90.138214941976429, 38.652009353518125 ], [ -90.14395395948668, 38.652149725619736 ], [ -90.14951452542148, 38.656790173618717 ], [ -90.155075807845833, 38.661430381059638 ], [ -90.160815661451252, 38.661569954412577 ], [ -90.166555554775243, 38.661709246529334 ], [ -90.172295487737969, 38.661848257404017 ], [ -90.17785868094164, 38.666487447153536 ], [ -90.183422591050245, 38.671126395800741 ], [ -90.188987218242602, 38.675765103212932 ], [ -90.194552562697595, 38.680403569257344 ], [ -90.200294126919601, 38.680541261919181 ], [ -90.205860586788717, 38.685179226989348 ], [ -90.211427764297184, 38.68981695033316 ], [ -90.217170163540402, 38.689953842396363 ], [ -90.222912601760498, 38.690090452895454 ], [ -90.228655078877537, 38.690226781824677 ], [ -90.234397594811554, 38.690362829178262 ], [ -90.240140149482514, 38.690498594950469 ], [ -90.246055413239873, 38.686133376770847 ], [ -90.251797686214701, 38.686268557736881 ], [ -90.257368045117559, 38.690904202721477 ], [ -90.263110753936687, 38.691038842110913 ], [ -90.26868222818311, 38.695673984376505 ], [ -90.274254420595071, 38.700308883813186 ], [ -90.279997962378772, 38.700442721166475 ], [ -90.28557127047641, 38.705077117288688 ], [ -90.291315247646338, 38.705210412521886 ], [ -90.296889671574291, 38.709844304960058 ], [ -90.302464814240381, 38.714477953984364 ], [ -90.30804067582325, 38.719111359461742 ], [ -90.313617256501445, 38.72374452125915 ], [ -90.319194556453496, 38.728377439243459 ], [ -90.324772575858105, 38.733010113281587 ], [ -90.330351314893818, 38.737642543240376 ], [ -90.335930773739307, 38.742274728986672 ], [ -90.341677967132242, 38.742405655468268 ], [ -90.347425197841488, 38.742536299766329 ], [ -90.353006171332609, 38.74716771853452 ], [ -90.35875383649973, 38.747297819251436 ], [ -90.364501538751441, 38.747427637723199 ], [ -90.370249278007392, 38.747557173944323 ] ] } },
{ "type": "Feature", "properties": { "route": "St. Louis Downtown Airport to St. Louis Lambert", "dataset": "July 12th - Saturday", "date": "2025-07-12", "origin": "St. Louis Downtown Airport", "destination": "St. Louis Lambert International Airport", "path_nodes": 41 }, "geometry": { "type": "LineString", "coordinates": [ [ -90.152899057655489, 38.571282677699791 ], [ -90.158454302059539, 38.57592253965332 ], [ -90.164010260106181, 38.580562161670002 ], [ -90.16956693197352, 38.585201543617373 ], [ -90.169390108405537, 38.589702029985311 ], [ -90.174947811909391, 38.594341189773729 ], [ -90.180506229749057, 38.598980109188332 ], [ -90.18606536210271, 38.603618788096668 ], [ -90.191625209148484, 38.608257226366213 ], [ -90.197185771064511, 38.612895423864465 ], [ -90.202747048028982, 38.617533380458873 ], [ -90.208309040220101, 38.622171096016864 ], [ -90.213871747816043, 38.626808570405821 ], [ -90.219435170994984, 38.631445803493165 ], [ -90.224999309935228, 38.636082795146216 ], [ -90.23056416481495, 38.640719545232344 ], [ -90.236129735812398, 38.645356053618841 ], [ -90.241696023105916, 38.649992320172984 ], [ -90.247263026873711, 38.65462834476206 ], [ -90.252830747294041, 38.65926412725328 ], [ -90.258399184545297, 38.663899667513896 ], [ -90.263968338805782, 38.668534965411069 ], [ -90.269538210253785, 38.673170020811966 ], [ -90.275108799067695, 38.677804833583757 ], [ -90.280680105425873, 38.682439403593555 ], [ -90.286252129506664, 38.68707373070842 ], [ -90.291824871488444, 38.691707814795478 ], [ -90.297398331549616, 38.696341655721739 ], [ -90.302972509868667, 38.700975253354272 ], [ -90.308547406623973, 38.705608607560031 ], [ -90.314123021993922, 38.710241718206007 ], [ -90.319699356157031, 38.714874585159158 ], [ -90.325276409291774, 38.719507208286444 ], [ -90.330854181576584, 38.724139587454722 ], [ -90.336432673190018, 38.728771722530922 ], [ -90.342011884310494, 38.733403613381853 ], [ -90.347758395164632, 38.733534215902388 ], [ -90.353338723085216, 38.738165601138348 ], [ -90.359085668200649, 38.738295660252788 ], [ -90.364667113064669, 38.742926539503976 ], [ -90.370249278007392, 38.747557173944323 ] ] } },
{ "type": "Feature", "properties": { "route": "MidAmerica to Downtown St. Louis", "dataset": "July 14th - Monday", "date": "2025-07-14", "origin": "MidAmerica St. Louis Airport", "destination": "Downtown St. Louis", "path_nodes": 66 }, "geometry": { "type": "LineString", "coordinates": [ [ -89.832726097422622, 38.545032139458961 ], [ -89.832528534703229, 38.549531267294249 ], [ -89.838060534246836, 38.554185437729323 ], [ -89.843593245825957, 38.558839373542895 ], [ -89.849126669620276, 38.563493074603095 ], [ -89.854660805809459, 38.568146540778045 ], [ -89.860195654573062, 38.572799771935806 ], [ -89.865731216090865, 38.577452767944443 ], [ -89.871267490542522, 38.582105528671988 ], [ -89.876804478107701, 38.586758053986458 ], [ -89.882342178966226, 38.591410343755804 ], [ -89.887880593297695, 38.596062397848023 ], [ -89.893419721282015, 38.600714216131045 ], [ -89.898959563098828, 38.605365798472761 ], [ -89.904500118927956, 38.610017144741079 ], [ -89.91004138894921, 38.614668254803874 ], [ -89.9155833733424, 38.61931912852895 ], [ -89.921126072287336, 38.623969765784139 ], [ -89.9268617252078, 38.624120695492145 ], [ -89.932597421043411, 38.624271344529042 ], [ -89.938333159714674, 38.624421712888498 ], [ -89.944068941142021, 38.624571800564148 ], [ -89.949804765245915, 38.624721607549667 ], [ -89.955540631946874, 38.624871133838766 ], [ -89.961276541165276, 38.625020379425088 ], [ -89.967012492821553, 38.625169344302385 ], [ -89.972748486836267, 38.625318028464349 ], [ -89.978484523129723, 38.625466431904712 ], [ -89.984220601622425, 38.625614554617215 ], [ -89.989956722234808, 38.625762396595618 ], [ -89.995692884887305, 38.625909957833684 ], [ -90.00142908950032, 38.626057238325181 ], [ -90.007165335994287, 38.626204238063899 ], [ -90.01290162428964, 38.626350957043627 ], [ -90.018637954306783, 38.626497395258212 ], [ -90.024374325966107, 38.626643552701445 ], [ -90.030296501798645, 38.622289527144211 ], [ -90.036032598978466, 38.622435099729884 ], [ -90.041768737551692, 38.622580391570615 ], [ -90.047689566209669, 38.618225426466068 ], [ -90.053425429855423, 38.618370133639452 ], [ -90.05916133464585, 38.618514560094347 ], [ -90.064897280501427, 38.618658705824664 ], [ -90.070633267342458, 38.618802570824315 ], [ -90.076369295089492, 38.618946155087237 ], [ -90.082105363662876, 38.619089458607391 ], [ -90.088023578549809, 38.614732339816626 ], [ -90.093759371071926, 38.614875058990748 ], [ -90.099495204171831, 38.615017497448825 ], [ -90.105050044628157, 38.619659865139432 ], [ -90.110786316139439, 38.619801764855218 ], [ -90.116342269587491, 38.624443634935055 ], [ -90.121898938292787, 38.629085265291913 ], [ -90.127636045898043, 38.629226367808045 ], [ -90.133373193632579, 38.629367189437694 ], [ -90.139110381416842, 38.62950773017495 ], [ -90.144847609171109, 38.629647990013858 ], [ -90.150584876815728, 38.629787968948484 ], [ -90.156322184271005, 38.629927666972939 ], [ -90.162059531457331, 38.63006708408134 ], [ -90.167796918294954, 38.630206220267794 ], [ -90.173534344704237, 38.6303450755264 ], [ -90.179448274357995, 38.625983156498016 ], [ -90.185185421892271, 38.626121427753255 ], [ -90.190922608749588, 38.626259418108006 ], [ -90.196659834850308, 38.626397127556444 ] ] } },
{ "type": "Feature", "properties": { "route": "MidAmerica to St. Louis Lambert", "dataset": "July 14th - Monday", "date": "2025-07-14", "origin": "MidAmerica St. Louis Airport", "destination": "St. Louis Lambert International Airport", "path_nodes": 97 }, "geometry": { "type": "LineString", "coordinates": [ [ -89.832726097422622, 38.545032139458961 ], [ -89.832528534703229, 38.549531267294249 ], [ -89.838060534246836, 38.554185437729323 ], [ -89.843593245825957, 38.558839373542895 ], [ -89.849126669620276, 38.563493074603095 ], [ -89.854660805809459, 38.568146540778045 ], [ -89.860195654573062, 38.572799771935806 ], [ -89.865731216090865, 38.577452767944443 ], [ -89.871267490542522, 38.582105528671988 ], [ -89.876804478107701, 38.586758053986458 ], [ -89.882342178966226, 38.591410343755804 ], [ -89.887880593297695, 38.596062397848023 ], [ -89.893419721282015, 38.600714216131045 ], [ -89.898959563098828, 38.605365798472761 ], [ -89.904500118927956, 38.610017144741079 ], [ -89.91004138894921, 38.614668254803874 ], [ -89.9155833733424, 38.61931912852895 ], [ -89.921126072287336, 38.623969765784139 ], [ -89.9268617252078, 38.624120695492145 ], [ -89.932597421043411, 38.624271344529042 ], [ -89.938333159714674, 38.624421712888498 ], [ -89.944068941142021, 38.624571800564148 ], [ -89.949804765245915, 38.624721607549667 ], [ -89.955540631946874, 38.624871133838766 ], [ -89.961276541165276, 38.625020379425088 ], [ -89.967012492821553, 38.625169344302385 ], [ -89.972748486836267, 38.625318028464349 ], [ -89.978484523129723, 38.625466431904712 ], [ -89.984220601622425, 38.625614554617215 ], [ -89.989956722234808, 38.625762396595618 ], [ -89.995692884887305, 38.625909957833684 ], [ -90.00142908950032, 38.626057238325181 ], [ -90.007165335994287, 38.626204238063899 ], [ -90.01290162428964, 38.626350957043627 ], [ -90.018637954306783, 38.626497395258212 ], [ -90.024374325966107, 38.626643552701445 ], [ -90.030296501798645, 38.622289527144211 ], [ -90.036032598978466, 38.622435099729884 ], [ -90.041768737551692, 38.622580391570615 ], [ -90.047504917438715, 38.622725402660208 ], [ -90.053241138559969, 38.622870132992603 ], [ -90.0589774008359, 38.623014582561687 ], [ -90.064713704186843, 38.623158751361359 ], [ -90.070450048533246, 38.623302639385507 ], [ -90.076186433795485, 38.623446246628106 ], [ -90.081922859893965, 38.623589573083073 ], [ -90.087659326749062, 38.623732618744384 ], [ -90.093395834281182, 38.623875383605984 ], [ -90.098950910758376, 38.628518046481851 ], [ -90.104506702593454, 38.633160469873815 ], [ -90.110244047066203, 38.63330243772981 ], [ -90.115800952639063, 38.637944363266087 ], [ -90.121358573947134, 38.642586048960538 ], [ -90.126916911169374, 38.647227494680628 ], [ -90.132475964484613, 38.651868700293782 ], [ -90.138214941976429, 38.652009353518125 ], [ -90.14395395948668, 38.652149725619736 ], [ -90.14951452542148, 38.656790173618717 ], [ -90.155075807845833, 38.661430381059638 ], [ -90.160815661451252, 38.661569954412577 ], [ -90.166378058651262, 38.666209662213348 ], [ -90.172118350012184, 38.666348695329852 ], [ -90.17785868094164, 38.666487447153536 ], [ -90.183422591050245, 38.671126395800741 ], [ -90.188987218242602, 38.675765103212932 ], [ -90.194552562697595, 38.680403569257344 ], [ -90.200294126919601, 38.680541261919181 ], [ -90.205860586788717, 38.685179226989348 ], [ -90.211427764297184, 38.68981695033316 ], [ -90.217170163540402, 38.689953842396363 ], [ -90.222912601760498, 38.690090452895454 ], [ -90.228655078877537, 38.690226781824677 ], [ -90.234397594811554, 38.690362829178262 ], [ -90.240140149482514, 38.690498594950469 ], [ -90.246055413239873, 38.686133376770847 ], [ -90.251797686214701, 38.686268557736881 ], [ -90.257368045117559, 38.690904202721477 ], [ -90.263110753936687, 38.691038842110913 ], [ -90.26868222818311, 38.695673984376505 ], [ -90.274254420595071, 38.700308883813186 ], [ -90.279827331351186, 38.704943540287971 ], [ -90.285400960630014, 38.709577953667846 ], [ -90.290975308610172, 38.714212123819841 ], [ -90.296550375470318, 38.718846050610942 ], [ -90.302295506730772, 38.718978845996034 ], [ -90.30804067582325, 38.719111359461742 ], [ -90.313617256501445, 38.72374452125915 ], [ -90.319194556453496, 38.728377439243459 ], [ -90.324772575858105, 38.733010113281587 ], [ -90.330351314893818, 38.737642543240376 ], [ -90.335930773739307, 38.742274728986672 ], [ -90.341510952573131, 38.746906670387283 ], [ -90.347258543330312, 38.747037335577971 ], [ -90.353006171332609, 38.74716771853452 ], [ -90.35875383649973, 38.747297819251436 ], [ -90.364501538751441, 38.747427637723199 ], [ -90.370249278007392, 38.747557173944323 ] ] } },
{ "type": "Feature", "properties": { "route": "St. Louis Downtown Airport to St. Louis Lambert", "dataset": "July 14th - Monday", "date": "2025-07-14", "origin": "St. Louis Downtown Airport", "destination": "St. Louis Lambert International Airport", "path_nodes": 43 }, "geometry": { "type": "LineString", "coordinates": [ [ -90.152899057655489, 38.571282677699791 ], [ -90.158454302059539, 38.57592253965332 ], [ -90.164010260106181, 38.580562161670002 ], [ -90.16956693197352, 38.585201543617373 ], [ -90.175124317839561, 38.5898406853631 ], [ -90.180682417882409, 38.594479586774703 ], [ -90.186241232280139, 38.599118247719709 ], [ -90.18606536210271, 38.603618788096668 ], [ -90.191625209148484, 38.608257226366213 ], [ -90.197185771064511, 38.612895423864465 ], [ -90.202747048028982, 38.617533380458873 ], [ -90.208309040220101, 38.622171096016864 ], [ -90.213871747816043, 38.626808570405821 ], [ -90.219435170994984, 38.631445803493165 ], [ -90.224999309935228, 38.636082795146216 ], [ -90.23056416481495, 38.640719545232344 ], [ -90.236129735812398, 38.645356053618841 ], [ -90.241696023105916, 38.649992320172984 ], [ -90.247263026873711, 38.65462834476206 ], [ -90.252830747294041, 38.65926412725328 ], [ -90.258399184545297, 38.663899667513896 ], [ -90.263968338805782, 38.668534965411069 ], [ -90.269538210253785, 38.673170020811966 ], [ -90.275108799067695, 38.677804833583757 ], [ -90.280680105425873, 38.682439403593555 ], [ -90.286252129506664, 38.68707373070842 ], [ -90.291824871488444, 38.691707814795478 ], [ -90.297398331549616, 38.696341655721739 ], [ -90.302972509868667, 38.700975253354272 ], [ -90.302803315800176, 38.705476157663163 ], [ -90.30837853409372, 38.710109528957155 ], [ -90.313954471162162, 38.714742656651282 ], [ -90.313785882667688, 38.719243591002432 ], [ -90.31936286061908, 38.72387649197406 ], [ -90.324940557862661, 38.728509149039581 ], [ -90.330518974577004, 38.733141562065903 ], [ -90.336098110940654, 38.737773730919855 ], [ -90.341677967132242, 38.742405655468268 ], [ -90.347258543330312, 38.747037335577971 ], [ -90.353006171332609, 38.74716771853452 ], [ -90.35875383649973, 38.747297819251436 ], [ -90.364501538751441, 38.747427637723199 ], [ -90.370249278007392, 38.747557173944323 ] ] } }
]
}
